 2011  6 2 0609 49.0 L -31.160 -69.126123.8  SJA 13 0.3 2.8LSJA 3.3WSJA        1
 SPEC AVERAGE  MO 14.0 ST0.410 OM 31.8 f0 1.36 R1.0346 AL 3.16 WI 43.1 MW  3.3 3
 SPEC SD       MO  0.0 ST0.000 OM 29.3 f00.000 R0.0000 AL      WI      MW  0.0 3
 GAP=157        0.69       3.2     4.6  4.0 -0.6677E+01  0.5719E+00 -0.1719E+01E
 SPEC SJA SH Z MO 14.0 ST0.410 OM  2.5 f0 1.36 R1.0346 AL 3.16 WI 43.1 MW  3.3 3
 SPEC SJA SH Z T 61019 K 0.040 GD  141 VS 4.02 DE 3.40 Q0400.0 QA 0.70 VS 4.02 3
 ACTION:UP  11-06-28 12:11 OP:gs   STATUS:               ID:20110602060949     I
 2011-06-02-0609-14S.CBA___036                                                 6
 STAT SP IPHASW D HRMM SECON CODA AMPLIT PERI AZIMU VELO AIN AR TRES W  DIS CAZ7
 RTLL SZ EP        610  8.17                             149   -0.3610 64.8 107 
 AMOG SZ EP        610  8.94                             149    0.3710 65.2  68 
 AMOG SZ ES        610 23.21                             149    0.1410 65.2  68 
 SJA  SZ EP        610  8.75                             148    0.0810 67.5 127 
 SJA  SZ  IAML     610 23.90       159.0 0.56                          67.5 127 
 RTLS SZ EP        610  9.34                             146   -0.4210 72.6 193 
 RTCV SZ EP        610 10.84                             137    0.0810 95.7 145 
 AUSP SZ EP        610 13.44                             130   -0.1710  120 192 
 AGUA SZ EP   4    610 23.07                             114    2.40 0  195  18 
 ACAN SZ EP        610 23.69                             110    0.2110  221 124 
 ROC1 HZ EP        610 29.59                             105    0.3810  269 221 
 VCA  EZ EP        610 30.42                             104   -0.2910  283  19 
 VCA  EZ  IAML     611  6.24        37.3 0.56                           283  19 
 AANI PZ EP        610 36.96                             100    0.1410  335  40 
 AANI PZ  IAML     611 16.61        32.5 0.40                           335  40 
 MRA  SZ EP        610 38.68                              99   -0.0510  352 114 
 MRA  SZ  IAML     611 14.68        29.1 0.40                           352 114 
 TCA  EZ EP     D  610 48.03                              95   -0.26 9  432  94 
 TCA  EZ  IAML     610 48.62         8.8 0.56                           432  94 
 CYA  EZ EP        610 49.34                              94    0.13 9  440  48 
 CYA  EZ  IAML     611 35.57         7.2 0.60                           440  48 
                                                                                
 2011  6 2 0901 36.8 L -29.915 -71.586180.4  SJA 11 0.2 3.4LSJA 3.7WSJA        1
 SPEC AVERAGE  MO 14.7 ST0.279 OM 34.5 f00.727 R1.9354 AL 4.03 WI 49.2 MW  3.7 3
 SPEC SD       MO  0.0 ST0.000 OM 31.8 f00.000 R0.0000 AL      WI      MW  0.0 3
 GAP=288        0.65       7.4    22.0 32.7 -0.1378E+03  0.6668E+03 -0.2017E+03E
 SPEC VCA EH Z MO 14.7 ST0.279 OM  2.7 f00.727 R1.9354 AL 4.03 WI 49.2 MW  3.7 3
 SPEC VCA EH Z T 9 310 K 0.040 GD  396 VS 4.02 DE 3.40 Q0400.0 QA 0.70 VS 4.02 3
 ACTION:UP  11-06-28 12:11 OP:gs   STATUS:               ID:20110602090136     I
 2011-06-02-0901-29S.NCU___033                                                 6
 STAT SP IPHASW D HRMM SECON CODA AMPLIT PERI AZIMU VELO AIN AR TRES W  DIS CAZ7
 RTLS SZ EP        9 2 23.43                             114   -0.0710  303 134 
 AGUA SZ EP        9 2 22.78                             114   -0.1510  303  82 
 AGUA SZ ES        9 2 56.83                             114   -0.2710  303  82 
 RTLS SZ ES        9 2 58.43                             114    0.3310  303 134 
 AMOG SZ EP        9 2 24.70                             113    0.2010  318 112 
 AUSP SZ EP        9 2 26.37                             112   -0.1810  331 141 
 RTLL SZ EP        9 2 26.38                             111   -0.1810  337 119 
 VCA  EZ EP        9 2 28.92                             110    0.4310  353  69 
 VCA  EZ  IAML     9 2 44.92        74.8 0.52                           353  69 
 RTCV SZ EP        9 2 29.16                             109   -0.2210  363 127 
 AANI PZ EP        9 2 41.55                             103    0.14 9  468  76 
 ACAN SZ EP   4    9 2 45.92                             102    1.55 0  494 123 
 CYA  EZ EP   4    9 2 53.57                              99   -1.39 0  586  75 
 CYA  EZ  IAML     9 2 58.21         8.9 0.32                           586  75 
 MRA  SZ EP   4    9 2 59.69                              97    0.09 0  625 118 
 MRA  SZ  IAML     9 3  2.73        30.6 0.40                           625 118 
 TCA  EZ  IAML     9 3 11.23         7.8 0.44                           688 105 
                                                                                
 2011  6 2 1123 39.1 L -32.100 -69.510111.8  SJA  6 0.1 2.0CSJA                1
 GAP=156        0.33       5.6     5.6  3.3 -0.2747E+02  0.1081E+02 -0.1205E+02E
 ACTION:UP  11-06-28 12:11 OP:gs   STATUS:               ID:20110602112339     I
 2011-06-02-1122-58S.NCU___032                                                 6
 STAT SP IPHASW D HRMM SECON CODA AMPLIT PERI AZIMU VELO AIN AR TRES W  DIS CAZ7
 AUSP SZ EP       1123 56.06   36                        170    0.0810 17.9 140 
 AUSP SZ ES       1124  8.45                             170   -0.0010 17.9 140 
 RTLS SZ EP       1123 56.66                             158   -0.0510 39.1  31 
 RTCV SZ EP       1123 59.86                             134    0.0010 95.4  74 
 RTLL SZ EP       1124  3.04                             123   -0.1210  130  49 
 AMOG SZ EP       1124  6.53                             116    0.1210  161  37 
 ROC1 HZ EP       1124  7.78                             115   -0.0210  172 235 
                                                                                
 2011  6 2 1131 21.3 L -31.155 -71.135116.3  SJA  9 0.2 2.9LSJA 3.4WSJA        1
 SPEC AVERAGE  MO 14.2 ST0.912 OM 36.7 f0 1.57 R0.8962 AL 3.64 WI 59.1 MW  3.4 3
 SPEC SD       MO  0.0 ST0.000 OM 34.5 f00.000 R0.0000 AL      WI      MW  0.0 3
 GAP=230        0.47       4.2     5.6 15.4 -0.1068E+02  0.4207E+02 -0.5274E+02E
 SPEC VCA EH Z MO 14.2 ST0.912 OM  2.2 f0 1.57 R0.8962 AL 3.64 WI 59.1 MW  3.4 3
 SPEC VCA EH Z T113255 K 0.040 GD  406 VS 4.02 DE 3.40 Q0400.0 QA 0.70 VS 4.02 3
 ACTION:UP  11-06-28 12:11 OP:gs   STATUS:               ID:20110602113121     I
 2011-06-02-1131-02S.NCU___033                                                 6
 STAT SP IPHASW D HRMM SECON CODA AMPLIT PERI AZIMU VELO AIN AR TRES W  DIS CAZ7
 RTLS SZ EP       1131 52.43                             113   -0.1510  189 113 
 ROC1 HZ EP       1131 53.67                             111    0.0210  202 177 
 AUSP SZ EP       1131 54.25                             111    0.0310  204 126 
 AUSP SZ ES       1132 18.72                             111    0.1610  204 126 
 AMOG SZ EP       1131 59.24                             106   -0.0410  253  85 
 RTLL SZ EP       1131 59.01                             105   -0.3510  254  95 
 AGUA SZ EP       1132  6.59                             101    0.0910  314  55 
 VCA  EZ EP       1132 15.71                              98    0.16 9  390  47 
 VCA  EZ  IAML    1133  8.82        21.5 0.54                           390  47 
 MRA  SZ EP       1132 32.75                              94    0.15 8  532 107 
 MRA  SZ  IAML    1133 32.18        11.0 0.55                           532 107 
 TCA  EZ  IAML    1134 19.19         3.1 0.58                           623  94 
                                                                                
 2011  6 2 1221 25.9 L -34.111 -73.039 34.9  SJA 17 0.6 4.5LSJA 4.5WSJA        1
 SPEC AVERAGE  MO 15.9 ST  7.9 OM  8.2 f00.842 R1.9303 AL 2.43 WI 53.9 MW  4.5 3
 SPEC SD       MO  0.3 ST  7.5 OM  4.6 f00.379 R0.6085 AL      WI      MW  0.2 3
 GAP=313        1.38      30.9    50.5 66.6  0.8097E+03 -0.3120E+04 -0.1516E+04E
 ACTION:UP  11-06-28 12:11 OP:gs   STATUS:               ID:20110602122125     I
 OLDACT:UP  11-06-02 11:50 OP:mape STATUS:               ID:20110602122138     3
 SPEC VCA EH Z MO 16.3 ST 13.3 OM  4.1 f00.727 R1.9354 AL 2.32 WI 52.0 MW  4.8 3
 SPEC VCA EH Z T122430 K 0.040 GD  752 VS 4.02 DE 3.40 Q0400.0 QA 0.70 VS 4.02 3
 SPEC TCA EH Z MO 16.1 ST  2.9 OM  3.8 f00.530 R2.6547 AL 2.19 WI 65.2 MW  4.7 3
 SPEC TCA EH Z T122437 K 0.040 GD  849 VS 4.02 DE 3.40 Q0400.0 QA 0.70 VS 4.02 3
 SPEC SUCOSH Z MO 15.3 ST  5.9 OM  3.1 f0 1.19 R1.1824 AL 2.27 WI 29.6 MW  4.2 3
 SPEC SUCOSH Z T122443 K 0.040 GD  760 VS 4.02 DE 3.40 Q0400.0 QA 0.70 VS 4.02 3
 SPEC SJA SH Z MO 16.3 ST  7.9 OM  4.2 f00.646 R2.1780 AL 2.37 WI 41.6 MW  4.8 3
 SPEC SJA SH Z T122333 K 0.040 GD  509 VS 4.02 DE 3.40 Q0400.0 QA 0.70 VS 4.02 3
 SPEC PLCASH Z MO 15.6 ST  1.9 OM  3.4 f00.644 R2.1848 AL 2.40 WI 88.2 MW  4.4 3
 SPEC PLCASH Z T122436 K 0.040 GD  767 VS 4.02 DE 3.40 Q0400.0 QA 0.70 VS 4.02 3
 SPEC MRA SH Z MO 15.5 ST 25.4 OM  3.3 f0 1.70 R0.8276 AL 2.73 WI 30.6 MW  4.3 3
 SPEC MRA SH Z T122441 K 0.040 GD  707 VS 4.02 DE 3.40 Q0400.0 QA 0.70 VS 4.02 3
 SPEC FSA SH Z MO 15.7 ST  3.7 OM  3.3 f00.771 R1.8249 AL 2.78 WI 69.3 MW  4.4 3
 SPEC FSA SH Z T122539 K 0.040 GD 1117 VS 4.02 DE 3.40 Q0400.0 QA 0.70 VS 4.02 3
 SPEC CYA EH Z MO 16.0 ST  2.5 OM  3.7 f00.530 R2.6547 AL 2.35 WI 54.8 MW  4.6 3
 SPEC CYA EH Z T122454 K 0.040 GD  932 VS 4.02 DE 3.40 Q0400.0 QA 0.70 VS 4.02 3
 OLDACT:ARG 11-06-02 09:25 OP:auto STATUS:               ID:20110602122138     3
 2011-06-02-1221-38S.CBA___055                                                 6
 STAT SP IPHASW D HRMM SECON CODA AMPLIT PERI AZIMU VELO AIN AR TRES W  DIS CAZ7
 ROC1 HZ EP       1221 59.60                              53   -0.6310  226  57 
 ROC1 HZ ES     D 1222 24.71                              53   -0.9010  226  57 
 AUSP SZ EP       1222 23.25                              53    0.36 9  400  59 
 AUSP SZ ES       1223  5.36                              53    0.32 9  400  59 
 RTLS SZ EP       1222 28.10                              53    0.82 9  434  55 
 RTLS SZ ES   4   1223 17.21                              53    4.53 0  434  55 
 CANA SN EP   4   1222 38.31                              53    8.79 0  455 158 
 CANA SN ES   4   1223 40.31                              53   23.72 0  455 158 
 RTCV SZ EP       1222 33.34                              53   -0.33 8  489  61 
 RTCV SZ ES   4 D 1223 26.76                              53    2.96 0  489  61 
 SJA  SZ ES   4 D 1223 36.39                              53    8.39 0  508  57 
 SJA  SZ  IAML    1223 44.27       307.2 0.56                           508  57 
 RTLL SZ EP       1222 39.32                              53    0.70 8  527  55 
 RTLL SZ ES       1223 33.22                              53    0.81 8  527  55 
 AMOG SZ EP       1222 41.84                              49    0.06 8  553  52 
 ACAN SZ EP       1222 45.08                              49   -0.19 8  582  71 
 AGUA SZ EP       1222 56.49                              49    0.55 7  669  41 
 MRA  SZ  IAML    1224 45.72       103.3 0.60                           707  77 
 VCA  EZ EP       1223  5.76                              49   -0.33 6  752  39 
 VCA  EZ ES   4 D 1224 35.22                              49   15.01 0  752  39 
 VCA  EZ  IAML    1225  1.89       259.8 0.62                           752  39 
 SUCO SZ EP       1223  6.86                              49   -0.12 6  760  86 
 SUCO SZ  IAML    1224 49.50        69.7 0.44                           760  86 
 PLCA SZ  IAML    1223 24.25        29.0 0.50                           767 164 
 AANI PZ EP       1223 13.43                              49   -1.50 6  825  46 
 AANI PZ ES   4 D 1224 42.36                              49    6.76 0  825  46 
 TCA  EZ EP   4   1223 15.14                              49   -2.62 0  849  71 
 TCA  EZ  IAML    1225 15.63        66.5 0.58                           849  71 
 CYA  EZ EP   4   1223 24.47                              49   -3.33 0  932  50 
 CYA  EZ ES   4   1225  3.75                              49    5.76 0  932  50 
 CYA  EZ  IAML    1225 39.37        62.0 0.66                           932  50 
 FSA  SZ EP   4   1223 57.72                              49    7.13 0 1117  39 
 FSA  SZ  IAML    1224  0.64        17.6 0.64                          1117  39 
                                                                                
 2011  6 2 1453 36.8 L -31.423 -68.755 97.1  SJA  7 0.4 1.7LSJA 2.4WSJA        1
 SPEC AVERAGE  MO 12.7 ST0.892 OM  9.0 f0 4.96 R0.2837 AL 1.63 WI 18.2 MW  2.4 3
 SPEC SD       MO  0.0 ST0.000 OM  8.2 f00.000 R0.0000 AL      WI      MW  0.0 3
 GAP=136        1.17       3.8    10.5  6.7 -0.2537E+02  0.1855E+02 -0.9229E+01E
 ACTION:UP  11-06-28 12:11 OP:gs   STATUS:               ID:20110602145336     I
 OLDACT:UP  11-06-02 12:28 OP:mape STATUS:               ID:20110602145301     3
 SPEC VCA EH Z MO 12.7 ST0.892 OM  0.8 f0 4.96 R0.2837 AL 1.63 WI 18.2 MW  2.4 3
 SPEC VCA EH Z T145445 K 0.040 GD  317 VS 4.02 DE 3.40 Q0400.0 QA 0.70 VS 4.02 3
 OLDACT:ARG 11-06-02 11:55 OP:auto STATUS:               ID:20110602145301     3
 2011-06-02-1453-01S.NCU___031                                                 6
 STAT SP IPHASW D HRMM SECON CODA AMPLIT PERI AZIMU VELO AIN AR TRES W  DIS CAZ7
 RTLL SZ EP       1453 51.29                             161   -0.2810 28.6  69 
 RTLL SZ ES       1454  2.46                             161   -0.0310 28.6  69 
 AMOG SZ EP       1453 53.54                             144    0.2110 59.2  25 
 AMOG SZ ES       1454  5.30                             144   -0.2510 59.2  25 
 RTLS SZ EP       1453 54.30                             141   -0.2510 66.1 231 
 RTLS SZ ES       1454  8.12                             141    0.4510 66.1 231 
 AUSP SZ EP       1453 57.59                             124   -0.6210  107 214 
 ASAL SZ EP       1453 59.74                             118   -0.2710  130 183 
 ASAL SZ ES       1454 17.86                             118    0.6910  130 183 
 AGUA SZ EP       1454  9.67                             103   -0.2010  216   7 
 AGUA SZ ES       1454 34.03                             103   -0.3110  216   7 
 VCA  EZ ES       1454 53.36                              97    0.8710  302  10 
 VCA  EZ  IAML    1454 56.16         2.6 0.16                           302  10 
                                                                                
 2011  6 2 1532 10.7 L -31.619 -64.567 20.0  SJA  1 0.0 0.5LSJA                1
 GAP=360        0.30       3.9     1.0  0.0 -0.1476E+01  0.1855E+02 -0.9229E+01E
 ACTION:UP  11-06-28 12:11 OP:gs   STATUS:               ID:20110602153210     I
 OLDACT:UP  11-06-02 13:51 OP:mape STATUS:               ID:20110602153121     3
 OLDACT:ARG 11-06-02 12:34 OP:auto STATUS:               ID:20110602153121     3
 2011-06-02-1531-21S.CBA___017                                                 6
 STAT SP IPHASW D HRMM SECON CODA AMPLIT PERI AZIMU VELO AIN AR TRES W  DIS CAZ7
 TCA  HZ EP       1532 17.49                  175.1  8.6 117  0 0.0010 31.4 355 
 TCA  EZ ES       1532 22.51                             117   -0.0010 31.4 355 
 TCA  EZ  IAML    1532 24.43         6.0 0.56                          31.4 355 
                                                                                
 2011  6 2 1543 26.7 L -24.234 -67.075193.0  SJA  9 0.2 2.4LSJA 2.8WSJA        1
 SPEC AVERAGE  MO 13.4 ST0.468 OM  4.4 f0 1.97 R0.8438 AL 1.81 WI 28.1 MW  2.8 3
 SPEC SD       MO  0.4 ST0.511 OM  3.0 f00.829 R0.3231 AL      WI      MW  0.3 3
 GAP=161        0.57       2.1     4.1  7.3  0.1698E+01  0.1386E+02  0.9734E+00E
 ACTION:UP  11-06-28 12:11 OP:gs   STATUS:               ID:20110602154326     I
 OLDACT:UP  11-06-02 13:55 OP:mape STATUS:               ID:20110602154309     3
 SPEC YJA EH Z MO 12.8 ST0.047 OM  0.9 f0 1.69 R0.8325 AL 1.85 WI 23.5 MW  2.5 3
 SPEC YJA EH Z T154440 K 0.040 GD  338 VS 4.02 DE 3.40 Q0400.0 QA 0.70 VS 4.02 3
 SPEC VCA EH Z MO 13.4 ST  1.2 OM  1.3 f0 3.10 R0.4539 AL 1.42 WI 35.4 MW  2.9 3
 SPEC VCA EH Z T154527 K 0.040 GD  546 VS 4.02 DE 3.40 Q0400.0 QA 0.70 VS 4.02 3
 SPEC SLA HH Z MO 13.9 ST0.170 OM  2.1 f0 1.13 R1.2451 AL 2.15 WI 25.5 MW  3.2 3
 SPEC SLA HH Z T154420 K 0.040 GD  255 VS 4.02 DE 3.40 Q0400.0 QA 0.70 VS 4.02 3
 OLDACT:ARG 11-06-02 12:46 OP:auto STATUS:               ID:20110602154309     3
 2011-06-02-1543-09S.JUJ___025                                                 6
 STAT SP IPHASW D HRMM SECON CODA AMPLIT PERI AZIMU VELO AIN AR TRES W  DIS CAZ7
 SLA  HZ EP       1544  0.94                             134    0.2810  168 109 
 SLA  HZ  IAML    1544  2.74        65.4 0.60                           168 109 
 SLA  HZ ES       1544 25.76                             134   -0.0710  168 109 
 AZAP SZ EP     D 1544  3.73                             128   -0.3010  204  90 
 FSA  SZ EP       1544  6.53                             124   -0.3310  235 152 
 FSA  SZ  IAML    1544  7.63         7.2 0.32                           235 152 
 LVC  BZ EP       1544  9.32                             120    0.0310  260 313 
 ASTB SZ EP       1544  9.88                             119   -0.1910  268  84 
 YJA  EZ EP       1544 11.78                             118   -0.0710  278  35 
 YJA  EZ  IAML    1544 12.97         4.6 0.22                           278  35 
 YJA  EZ ES       1544 45.44                             118    0.1610  278  35 
 ALOL SZ EP       1544 15.02                             114    0.1310  318  82 
 AHML EZ EP       1544 16.70                             113    0.2310  332 149 
 AHML EZ ES       1544 53.49                             113    0.1510  332 149 
 VCA  EZ EP   4   1544 38.39                             101    1.73 0  511 192 
 VCA  EZ  IAML    1544 38.84         6.5 0.28                           511 192 
                                                                                
