 2011  6 2 1642  6.7 L -33.331 -67.959195.9  SJA 13 0.4 3.8LSJA 3.8WSJA        1
 SPEC AVERAGE  MO 14.8 ST121.3 OM  5.1 f0 3.73 R0.4597 AL 2.16 WI 33.5 MW  3.8 3
 SPEC SD       MO  0.2 ST116.2 OM  2.2 f0 1.58 R0.1947 AL      WI      MW  0.2 3
 GAP=212        0.96       5.9     5.6 13.1 -0.9674E+01 -0.1827E+02  0.3717E+02E
 ACTION:UP  11-06-28 12:11 OP:gs   STATUS:               ID:20110602164206     I
 OLDACT:UP  11-06-02 17:07 OP:mape STATUS:               ID:20110602164144     3
 SPEC VCA EH Z MO 15.0 ST237.4 OM  2.9 f0 5.31 R0.2650 AL 2.98 WI 47.3 MW  3.9 3
 SPEC VCA EH Z T164357 K 0.040 GD  546 VS 4.02 DE 3.40 Q0400.0 QA 0.70 VS 4.02 3
 SPEC ARCOEH Z MO 14.5 ST  5.1 OM  2.8 f0 2.15 R0.6544 AL 1.35 WI 19.6 MW  3.6 3
 SPEC ARCOEH Z T164252 K 0.040 GD  222 VS 4.02 DE 3.40 Q0400.0 QA 0.70 VS 4.02 3
 OLDACT:ARG 11-06-02 13:46 OP:auto STATUS:               ID:20110602164144     3
 2011-06-02-1641-44S.CBA___041                                                 6
 STAT SP IPHASW D HRMM SECON CODA AMPLIT PERI AZIMU VELO AIN AR TRES W  DIS CAZ7
 AAGR SZ EP       1642 35.43                             154    0.3310 85.5 288 
 AAGR SZ ES   4   1642 54.45                             154   -1.69 0 85.5 288 
 ARCO EZ EP       1642 36.38                             149    0.1610  106 301 
 ARCO EZ  IAML    1642 37.03       372.6 0.34                           106 301 
 ASAL SZ EP     D 1642 37.28                             146    0.4810  116 315 
 ACAN SZ EP     D 1642 38.33                             141    0.1510  138  32 
 ACAN SZ ES   4   1642 59.36                             141   -2.13 0  138  32 
 RTCV SZ EP       1642 40.87                             134   -0.0210  172 341 
 RTCV SZ ES       1643  5.86                             134   -0.3610  172 341 
 RTLS SZ EP       1642 45.31                             128    0.2310  211 323 
 RTLL SZ ES       1643 15.02                             125    0.1010  227 348 
 MRA  SZ EP       1642 45.84                             124   -0.6610  233  65 
 MRA  SZ  IAML    1642 46.67       162.0 0.65                           233  65 
 AMOG SZ EP     D 1642 50.66                             120    0.5310  270 349 
 AMOG SZ ES       1643 22.06                             120   -0.2310  270 349 
 ROC1 HZ EP     D 1642 51.78                             118   -0.4110  288 277 
 ROC1 HZ ES     D 1643 25.56                             118   -0.3310  288 277 
 TCA  EZ EP   4 D 1643  1.26                             109   -1.29 0  386  56 
 TCA  EZ  IAML    1643  1.52       103.0 0.38                           386  56 
 AGUA SZ EP   4   1643  7.86                             106    0.52 0  429 353 
 VCA  EZ EP   4   1643 17.16                             102    0.60 0  510 357 
 VCA  EZ  IAML    1644 17.56       142.7 0.38                           510 357 
 CYA  EZ EP   4 D 1643 22.47                              99   -1.96 0  580  21 
 CYA  EZ  IAML    1643 32.85        97.7 0.16                           580  21 
                                                                                
 2011  6 2 1703 42.0 L -40.558 -71.964  4.0F SJA  2 0.6 3.1LSJA 3.3WSJA        1
 SPEC AVERAGE  MO 14.1 ST  5.2 OM  7.8 f0 2.96 R0.4753 AL 2.33 WI 39.9 MW  3.3 3
 SPEC SD       MO  0.0 ST0.000 OM  5.1 f00.000 R0.0000 AL      WI      MW  0.0 3
 GAP=276        3.40      21.9    35.1  0.0  0.5747E+03 -0.1827E+02  0.3717E+02E
 ACTION:UP  11-06-28 12:11 OP:gs   STATUS:               ID:20110602170342     I
 OLDACT:UP  11-06-02 22:28 OP:mape STATUS:               ID:20110602170237     3
 SPEC PLCABH Z MO 14.1 ST  5.2 OM  2.7 f0 2.96 R0.4753 AL 2.33 WI 39.9 MW  3.3 3
 SPEC PLCABH Z T17 416 K 0.040 GD  110 VS 4.02 DE 3.40 Q0400.0 QA 0.70 VS 4.02 3
 OLDACT:UP  11-06-02 17:14 OP:mape STATUS:               ID:20110602170237     3
 OLDACT:ARG 11-06-02 14:07 OP:auto STATUS:               ID:20110602170237     3
 2011-06-02-1702-37S.SUR___020                                                 6
 STAT SP IPHASW D HRMM SECON CODA AMPLIT PERI AZIMU VELO AIN AR TRES W  DIS CAZ7
 PLCA BZ EP       17 4  2.83                  293.6  7.1  54 15-0.7210  121 100 
 PLCA BZ ES       17 4 19.89                              54    0.3910  121 100 
 PLCA BZ  IAML    17 4 23.21       416.1 0.50                           121 100 
 CANA SZ EP       17 4 28.56                              40   -1.3110  307  15 
 CANA SN ES       17 5  6.95                              40    1.6410  307  15 
                                                                                
 2011  6 2 1851 33.7 L -31.420 -68.589100.9  SJA  7 0.2 2.2LSJA 2.9WSJA        1
 SPEC AVERAGE  MO 13.4 ST  3.0 OM  9.3 f0 4.33 R0.3249 AL 1.48 WI 14.5 MW  2.9 3
 SPEC SD       MO  0.0 ST0.000 OM  7.8 f00.000 R0.0000 AL      WI      MW  0.0 3
 GAP=165        0.56       2.0     4.7  5.0 -0.3845E+01  0.4813E+00 -0.3805E+01E
 SPEC VCA EH Z MO 13.4 ST  3.0 OM  1.5 f0 4.33 R0.3249 AL 1.48 WI 14.5 MW  2.9 3
 SPEC VCA EH Z T185247 K 0.040 GD  316 VS 4.02 DE 3.40 Q0400.0 QA 0.70 VS 4.02 3
 ACTION:UP  11-06-28 12:11 OP:gs   STATUS:               ID:20110602185133     I
 OLDACT:UP  11-06-02 19:13 OP:mape STATUS:               ID:20110602185058     3
 OLDACT:ARG 11-06-02 15:55 OP:auto STATUS:               ID:20110602185058     3
 2011-06-02-1850-58S.NCU___033                                                 6
 STAT SP IPHASW D HRMM SECON CODA AMPLIT PERI AZIMU VELO AIN AR TRES W  DIS CAZ7
 RTCV SZ EP       1851 49.96                             150    0.1010 49.2 175 
 RTCV SZ ES       1852  1.82                             150   -0.0410 49.2 175 
 AMOG SZ EP       1851 49.90                             147   -0.2910 54.1  10 
 RTLS SZ EP       1851 52.58                             136   -0.2010 79.2 238 
 RTLS SZ ES       1852  7.24                             136    0.3110 79.2 238 
 AUSP SZ EP       1851 56.13                             122   -0.1610  117 220 
 AUSP SZ ES       1852 12.85                             122   -0.1910  117 220 
 ASAL SZ EP       1851 57.54                             118    0.2410  132 190 
 ASAL SZ ES       1852 14.86                             118    0.0710  132 190 
 AGUA SZ ES     D 1852 31.20                             103    0.1710  215   3 
 VCA  EZ EP   4   1852 19.79                              95    2.92 0  300   7 
 VCA  EZ  IAML    1852 54.51         8.3 0.28                           300   7 
                                                                                
 2011  6 2 1934 31.6 L -22.716 -68.978120.0  SJA  6 0.4 2.5LSJA 2.8WSJA        1
 SPEC AVERAGE  MO 13.3 ST0.268 OM 10.7 f0 1.97 R0.7142 AL 1.55 WI 34.2 MW  2.8 3
 SPEC SD       MO  0.0 ST0.000 OM  9.3 f00.000 R0.0000 AL      WI      MW  0.0 3
 GAP=249       12.54     205.5   129.6102.5  0.1018E+05 -0.5130E+04  0.7936E+04E
 SPEC YJA EH Z MO 13.3 ST0.268 OM  1.4 f0 1.97 R0.7142 AL 1.55 WI 34.2 MW  2.8 3
 SPEC YJA EH Z T193553 K 0.040 GD  381 VS 4.02 DE 3.40 Q0400.0 QA 0.70 VS 4.02 3
 ACTION:UP  11-06-28 12:11 OP:gs   STATUS:               ID:20110602193431     I
 OLDACT:UP  11-06-02 19:26 OP:mape STATUS:               ID:20110602193433     3
 OLDACT:ARG 11-06-02 16:37 OP:auto STATUS:               ID:20110602193433     3
 2011-06-02-1934-33S.NOA___031                                                 6
 STAT SP IPHASW D HRMM SECON CODA AMPLIT PERI AZIMU VELO AIN AR TRES W  DIS CAZ7
 LVC  BZ EP       1934 49.64                             173    0.5210 13.7  31 
 LVC  BZ ES       1935  1.68                             173   -0.3910 13.7  31 
 YJA  EZ EP   9   1935 20.86                             100   -2.60 0  362  81 
 YJA  EZ  IAML    1935 23.94        16.3 0.64                           362  81 
 YJA  EZ ES       1935 58.45                                   -0.77 9  362  81 
 HJA  EZ EP       1935 23.94                              99   -0.39 9  370  99 
 SLA  HZ EP   4 D 1935 32.62                              97    3.12 0  418 123 
 AZAP SZ EP       1935 32.01                              97    0.51 9  433 113 
 ASTB SZ EP       1935 36.96                              96   -0.24 8  482 107 
 FSA  SZ EP   9   1935 41.45                              96    4.03 0  484 142 
 FSA  SZ ES       1936 14.79                                   -15.3 8  484 142 
 FSA  SZ  IAML    1936 15.17         2.8 0.46                           484 142 
                                                                                
 2011  6 2 2027 58.7 L -31.926 -70.721 40.3  SJA  4 0.3 2.5LSJA 2.9WSJA        1
 SPEC AVERAGE  MO 13.5 ST  4.4 OM 12.2 f0 4.46 R0.3155 AL 2.14 WI 31.7 MW  2.9 3
 SPEC SD       MO  0.0 ST0.000 OM 10.7 f00.000 R0.0000 AL      WI      MW  0.0 3
 GAP=202        0.81       7.6     9.0999.9 -0.4784E+02  0.2297E+02 -0.1131E+05E
 ACTION:UP  11-06-28 12:11 OP:gs   STATUS:               ID:20110602202758     I
 OLDACT:UP  11-06-02 19:36 OP:mape STATUS:               ID:20110602202759     3
 SPEC VCA EH Z MO 13.5 ST  4.4 OM  1.5 f0 4.46 R0.3155 AL 2.14 WI 31.7 MW  2.9 3
 SPEC VCA EH Z T202941 K 0.040 GD  429 VS 4.02 DE 3.40 Q0400.0 QA 0.70 VS 4.02 3
 OLDACT:ARG 11-06-02 17:31 OP:auto STATUS:               ID:20110602202759     3
 2011-06-02-2027-59S.NCU___032                                                 6
 STAT SP IPHASW D HRMM SECON CODA AMPLIT PERI AZIMU VELO AIN AR TRES W  DIS CAZ7
 ROC1 HZ EP       2028 18.64                              90   -0.2110  120 193 
 AUSP SZ EP   4   2028 14.63                              90   -5.97 0  130 105 
 RTLS SZ EP   4   2028 14.52                              90   -6.80 0  136  84 
 ASAL SZ EP   4   2028 26.98                              90   -1.06 0  192 113 
 AAGR SZ EP   4   2028 32.30                              90    0.72 0  219 126 
 AMOG SZ EP   4   2028 29.42                              90   -4.44 0  238  63 
 AMOG SZ ES       2028 59.53                              90   -0.3510  238  63 
 ACAN SZ EP       2028 46.73                              90    0.4410  336  98 
 VCA  EZ EP       2028 58.50                              90    0.19 9  428  35 
 VCA  EZ  IAML    2029  1.32         8.0 0.24                           428  35 
                                                                                
 2011  6 2 2038 19.7 L -31.395 -64.572 22.0F SJA  2 0.1 1.2LSJA 2.1WSJA        1
 SPEC AVERAGE  MO 12.2 ST  1.3 OM  7.1 f0 7.32 R0.1960 AL 1.33 WI 13.1 MW  2.1 3
 SPEC SD       MO  0.2 ST0.850 OM  6.1 f0 1.02 R0.0273 AL      WI      MW  0.1 3
 GAP=242        0.35       2.1     0.9  0.0 -0.1812E+01  0.2297E+02 -0.1131E+05E
 ACTION:UP  11-06-28 12:11 OP:gs   STATUS:               ID:20110602203819     I
 OLDACT:UP  11-06-02 22:33 OP:mape STATUS:               ID:20110602203727     3
 SPEC TCA EH Z MO 12.0 ST0.420 OM  1.3 f0 6.30 R0.2233 AL 0.53 WI 11.6 MW  2.0 3
 SPEC TCA EH Z T203825 K 0.040 GD 23.0 VS 4.02 DE 3.40 Q0400.0 QA 0.70 VS 4.02 3
 SPEC MRA SH Z MO 12.4 ST  2.1 OM  0.8 f0 8.34 R0.1687 AL 2.13 WI 14.6 MW  2.2 3
 SPEC MRA SH Z T2039 3 K 0.040 GD  158 VS 4.02 DE 3.40 Q0400.0 QA 0.70 VS 4.02 3
 OLDACT:ARG 11-06-02 17:40 OP:auto STATUS:               ID:20110602203727     3
 2011-06-02-2037-27S.CBA___015                                                 6
 STAT SP IPHASW D HRMM SECON CODA AMPLIT PERI AZIMU VELO AIN AR TRES W  DIS CAZ7
 TCA  HZ EP       2038 23.80                  161.0  9.5 162  0-0.1910 6.79 341 
 TCA  EZ ES       2038 27.31                             162    0.1310 6.79 341 
 TCA  EZ  IAML    2038 30.89        28.0 0.56                          6.79 341 
 MRA  SZ EP       2038 46.30                              53    0.1110  157 223 
 MRA  SZ ES       2039  5.77                              53   -0.0510  157 223 
 MRA  SZ  IAML    2039 10.43         5.5 0.35                           157 223 
                                                                                
 2011  6 2 2116 49.0 L -29.229 -65.845 16.0  SJA  5 0.4 2.4LSJA 2.8WSJA        1
 SPEC AVERAGE  MO 13.3 ST118.6 OM  5.1 f0 14.6 R0.0979 AL 2.66 WI 21.5 MW  2.8 3
 SPEC SD       MO  0.0 ST 50.4 OM  3.6 f0 1.80 R0.0121 AL      WI      MW  0.0 3
 GAP=150        1.01       4.8     3.4  8.7  0.3026E+01  0.1658E+01  0.3523E+02E
 ACTION:UP  11-06-28 12:11 OP:gs   STATUS:               ID:20110602211649     I
 OLDACT:UP  11-06-02 22:44 OP:mape STATUS:               ID:20110602211636     3
 SPEC TCA HH Z MO 13.4 ST169.1 OM  1.6 f0 16.4 R0.0858 AL 2.38 WI 14.9 MW  2.9 3
 SPEC TCA HH Z T211756 K 0.040 GD  263 VS 4.02 DE 3.40 Q0400.0 QA 0.70 VS 4.02 3
 SPEC MRA SH Z MO 13.3 ST 68.2 OM  1.4 f0 12.8 R0.1099 AL 2.93 WI 28.1 MW  2.8 3
 SPEC MRA SH Z T211819 K 0.040 GD  354 VS 4.02 DE 3.40 Q0400.0 QA 0.70 VS 4.02 3
 OLDACT:ARG 11-06-02 18:19 OP:auto STATUS:               ID:20110602211636     3
 2011-06-02-2116-36S.CBA___020                                                 6
 STAT SP IPHASW D HRMM SECON CODA AMPLIT PERI AZIMU VELO AIN AR TRES W  DIS CAZ7
 CYA  EZ EP       2117  4.66                              95    0.3210 87.3   3 
 CYA  EZ ES       2117 15.47                              95   -0.2310 87.3   3 
 CYA  EZ  IAML    2117 17.43       117.6 0.14                          87.3   3 
 AANI PZ EP       2117  9.62                              93    0.5510  116 293 
 AANI PZ ES       2117 23.30                              93   -0.6310  116 293 
 AGUA SZ EP   4   2117 26.90                              53   -2.21 0  258 263 
 AGUA SZ ES       2117 59.04                              53    0.2410  258 263 
 TCA  HZ EP       2117 29.75                              53    0.0910  263 153 
 TCA  HZ ES       2117 59.44                              53   -0.3310  263 153 
 TCA  HZ  IAML    2118  1.90        18.2 0.26                           263 153 
 MRA  SZ EP   4   2117 36.27                              53   -5.08 0  354 178 
 MRA  SZ ES   4   2118 23.06                              53    2.96 0  354 178 
 MRA  SZ  IAML    2118 28.35        18.1 0.40                           354 178 
                                                                                
 2011  6 2 2207 50.6 L -33.224 -70.440 64.0  SJA  5 0.4 1.8LSJA 2.4WSJA        1
 SPEC AVERAGE  MO 12.7 ST0.718 OM  6.2 f0 4.60 R0.3059 AL 2.50 WI 14.3 MW  2.4 3
 SPEC SD       MO  0.0 ST0.000 OM  5.1 f00.000 R0.0000 AL      WI      MW  0.0 3
 GAP=223        1.16      11.2     7.6 19.4 -0.2103E+02 -0.1212E+03  0.4075E+02E
 ACTION:UP  11-06-28 12:11 OP:gs   STATUS:               ID:20110602220750     I
 OLDACT:UP  11-06-02 22:52 OP:mape STATUS:               ID:20110602220727     3
 SPEC ARCOEH Z MO 12.7 ST0.718 OM  1.1 f0 4.60 R0.3059 AL 2.50 WI 14.3 MW  2.4 3
 SPEC ARCOEH Z T22 828 K 0.040 GD  160 VS 4.02 DE 3.40 Q0400.0 QA 0.70 VS 4.02 3
 OLDACT:ARG 11-06-02 19:10 OP:auto STATUS:               ID:20110602220727     3
 2011-06-02-2207-27S.NCU___031                                                 6
 STAT SP IPHASW D HRMM SECON CODA AMPLIT PERI AZIMU VELO AIN AR TRES W  DIS CAZ7
 ROC1 HZ EP       22 8  3.68                             128   -0.7910 60.3 297 
 ROC1 HZ ES       22 8 15.21                             128    0.4810 60.3 297 
 ARCO EZ EP       22 8 14.70                             102    0.1810  147  74 
 ARCO EZ ES       22 8 32.28                             102    0.0510  147  74 
 ARCO EZ  IAML    22 8 37.70        13.5 0.52                           147  74 
 AUSP SZ EP   4   22 8 14.06                             102   -1.14 0  148  42 
 AUSP SZ ES       22 8 32.99                             102   -0.4110  148  42 
 ASAL SZ EP       22 8 16.74                             100   -0.0810  166  65 
 ASAL SZ ES   4   22 8 41.11                             100    4.89 0  166  65 
 RTLS SZ EP       22 8 21.15                              98    0.5710  191  35 
                                                                                
 2011  6 2 2224  3.6 L -31.343 -69.293101.5  SJA  8 0.4 2.1LSJA 2.6WSJA        1
 SPEC AVERAGE  MO 13.0 ST  6.5 OM  7.5 f0 7.65 R0.1839 AL 2.02 WI 10.6 MW  2.6 3
 SPEC SD       MO  0.0 ST0.000 OM  6.2 f00.000 R0.0000 AL      WI      MW  0.0 3
 GAP=196        1.07       3.1     8.4  7.4 -0.1236E+02  0.2805E+02 -0.7977E+01E
 ACTION:UP  11-06-28 12:11 OP:gs   STATUS:               ID:20110602222403     I
 OLDACT:UP  11-06-02 22:55 OP:mape STATUS:               ID:20110602222354     3
 SPEC ARCOEH Z MO 13.0 ST  6.5 OM  1.3 f0 7.65 R0.1839 AL 2.02 WI 10.6 MW  2.6 3
 SPEC ARCOEH Z T222450 K 0.040 GD  197 VS 4.02 DE 3.40 Q0400.0 QA 0.70 VS 4.02 3
 OLDACT:ARG 11-06-02 19:25 OP:auto STATUS:               ID:20110602222354     3
 2011-06-02-2223-54S.NCU___032                                                 6
 STAT SP IPHASW D HRMM SECON CODA AMPLIT PERI AZIMU VELO AIN AR TRES W  DIS CAZ7
 RTLS SZ EP       2224 20.37                             150   -0.2810 50.5 180 
 RTLS SZ ES       2224 33.74                             150    0.4410 50.5 180 
 RTLL SZ EP       2224 21.89                             136   -0.0410 77.9  89 
 RTLL SZ ES       2224 34.87                             136   -0.6610 77.9  89 
 AMOG SZ EP       2224 22.92                             132    0.0510 88.5  60 
 AMOG SZ ES       2224 37.05                             132   -0.1010 88.5  60 
 RTCV SZ ES       2224 37.85                             131    0.2210 91.7 129 
 AUSP SZ EP       2224 23.76                             129   -0.6410 98.0 185 
 AUSP SZ ES   4   2224 38.74                             129   -1.08 0 98.0 185 
 ASAL SZ EP       2224 28.47                             115   -0.1910  145 163 
 ASAL SZ ES       2224 47.84                             115    0.6110  145 163 
 ARCO EZ EP       2224 31.05                             110   -0.3910  170 169 
 ARCO EZ ES       2224 52.43                             110    0.3610  170 169 
 ARCO EZ  IAML    2224 54.19        20.0 0.42                           170 169 
 AGUA SZ EP       2224 37.25                             103    0.0810  220  21 
 AGUA SZ ES       2225  2.59                             103    0.5510  220  21 
                                                                                
