 2011  6 1 1206  5.5 L -32.896 -68.473  4.9  SJA 10 0.4 3.3LSJA 3.4WSJA        1
 SPEC AVERAGE  MO 14.2 ST  3.0 OM 11.8 f0 1.96 R0.8308 AL 5.85 WI 32.7 MW  3.4 3
 SPEC SD       MO  0.1 ST  2.6 OM  9.2 f00.715 R0.3039 AL      WI      MW  0.0 3
 GAP=232        0.96       6.1     4.1 10.8  0.9253E+01  0.3767E+01 -0.3101E+02E
 FELTINTE: La intensidad del sismo en la escala Mercalli Modificada            3
 FELTINTE: alcanzó el grado II a III (dos a tres) en los departamentos         3
 FELTINTE: del este de Mendoza, tales como San Martin, Palmira,                3
 FELTINTE: Rivadavia y Lavalle.                                                3
 LOCALITY: El epicentro se ubicó a 35 Km en dirección este de la ciudad        3
 LOCALITY: capital de Mendoza, en la localidad de Tres Porteñas,               3
 LOCALITY: provincia de Mendoza.                                               3
 FELTPROV: MENDOZA                                                             3
 SPEC SUCOSH Z MO 14.1 ST0.406 OM  2.5 f0 1.24 R1.1347 AL10.14 WI 40.3 MW  3.4 3
 SPEC SUCOSH Z T12 738 K 0.040 GD  184 VS 4.02 DE 3.40 Q0400.0 QA 0.70 VS 4.02 3
 SPEC MRA SH Z MO 14.3 ST  5.7 OM  2.7 f0 2.67 R0.5270 AL 1.56 WI 25.0 MW  3.5 3
 SPEC MRA SH Z T12 718 K 0.040 GD  162 VS 4.02 DE 3.40 Q0400.0 QA 0.70 VS 4.02 3
 ACTION:UP  11-06-28 12:11 OP:gs   STATUS:               ID:20110601120605     I
 OLDACT:UP  11-06-01 09:36 OP:cr   STATUS:               ID:20110601120533     3
 OLDACT:ARG 11-06-01 09:10 OP:auto STATUS:               ID:20110601120533     3
 2011-06-01-1205-33S.CBA___037                                                 6
                            3 M  -32.90  -68.47 3.3                    BSJA    2
 STAT SP IPHASW D HRMM SECON CODA AMPLIT PERI AZIMU VELO AIN AR TRES W  DIS CAZ7
 AUSP SZ EP       12 6 26.16                              54   -0.1710  114 311 
 AUSP SZ ES       12 6 41.48                              54   -0.2310  114 311 
 RTCV SZ EP       12 6 26.35                              54    0.4110  115 357 
 RTCV SZ ES       12 6 40.93                              54   -0.1010  115 357 
 ACAN SZ EP       12 6 29.09                              54   -0.7010  139  61 
 RTLS SZ EP       12 6 31.24                              54   -0.0310  144 327 
 RTLL SZ EP       12 6 35.45                              54    0.0110  174 360 
 AMOG SZ EP       12 6 42.25                              40    0.5710  217 359 
 ROC1 HZ EP   4   12 6 45.08                              40    0.50 0  238 267 
 MRA  SZ EP       12 6 47.96                              40    0.2410  264  79 
 MRA  SZ  IAML    12 7 20.13       158.6 0.25                           264  79 
 SUCO SZ EP   4   12 6 59.32                              40    2.05 0  339  99 
 SUCO SZ  IAML    12 7 39.91       117.2 0.26                           339  99 
 TCA  EZ EP   4   12 7  4.78                              40   -0.98 0  405  66 
 TCA  EZ  IAML    12 8  3.70        42.1 0.62                           405  66 
 VCA  EZ EP   4   12 7 19.04                              40    5.87 0  462   3 
 VCA  EZ  IAML    12 8 29.75        37.1 0.26                           462   3 
                                                                                
 2011  6 1 1255 26.3 D -37.550 -73.660 10.1FFPDE  8 6.7 5.2LSJA 6.1WSJA 6.4 PDE1
 SPEC AVERAGE  MO 18.2 ST 18.6 OM 18.3 f00.195 R7.2154 AL 3.39 WI342.5 MW  6.1 3
 SPEC SD       MO  0.0 ST0.000 OM 11.8 f00.000 R0.0000 AL      WI      MW  0.0 3
 GAP=242       13.03      90.1   136.7  0.0  0.4181E+04  0.3767E+01 -0.3101E+02E
 FELTPROV: Chile                                                               3
 SPEC PLCASH Z MO 18.2 ST 18.6 OM  6.5 f00.195 R7.2154 AL 3.39 WI342.5 MW  6.1 3
 SPEC PLCASH Z T125728 K 0.040 GD  216 VS 4.02 DE 3.40 Q0400.0 QA 0.70 VS 4.02 3
 ACTION:UP  11-06-28 12:11 OP:gs   STATUS:               ID:20110601125526     I
 OLDACT:UP  11-06-01 12:05 OP:cr   STATUS:               ID:20110601125533     3
 OLDACT:UP  11-06-01 12:04 OP:cr   STATUS:               ID:20110601125533     3
 OLDACT:UP  11-06-01 11:52 OP:cr   STATUS:               ID:20110601125533     3
 OLDACT:UP  11-06-01 11:51 OP:cr   STATUS:               ID:20110601125533     3
 2011-06-01-1255-33S.CBA___068                                                 6
 STAT SP IPHASW D HRMM SECON CODA AMPLIT PERI AZIMU VELO AIN AR TRES W  DIS CAZ7
 CANA SZ EP       1256  3.25                              46    1.7610  232 100 
 CANA SZ ES       1256 38.73                              48   10.2310  232 100 
 CANA SZ  IAML    1256 49.73     15270.2 0.65                           232 100 
 PLCA BZ EP       1256 22.43                              46   -5.1610  444 144 
 PLCA BZ  IAML    1258 11.14      1577.0 0.60                           444 144 
 ROC1 HZ EP       1256 35.46                              46   -6.8310  561  26 
 SJA  SZ  IAML    1257 19.81       254.0 0.46                           815  36 
 MRA  SZ  IAML    1257 39.78       152.0 0.55                           921  54 
 SUCO SZ  IAML    1257 40.16       203.1 0.62                           923  62 
 TCA  EZ  IAML    1257 53.77        79.8 0.54                          1080  53 
 VCA  EZ  IAML    1258 19.53       162.6 0.52                          1101  29 
                                                                                
 2011 0601 1347 29.0 D -37.460 -73.670 26.9FFPDE  0                     5.1 PDE1
 ACTION:UP  11-06-28 12:11 OP:gs   STATUS:               ID:20110601134729     I
 OLDACT:UP  11-06-01 13:08 OP:cr   STATUS:               ID:20110601134754     3
 OLDACT:ARG 11-06-01 10:52 OP:auto STATUS:               ID:20110601134754     3
 2011-06-01-1347-54S.CBA___056                                                 6
 STAT SP IPHASW D HRMM SECON CODA AMPLIT PERI AZIMU VELO AIN AR TRES W  DIS CAZ7
                                                                                
 2011  6 1 1506 38.5 L -31.521 -64.358  3.1  SJA  2 0.3 1.4LSJA 2.2WSJA        1
 SPEC AVERAGE  MO 12.3 ST  9.0 OM  9.5 f0 14.2 R0.1125 AL 2.65 WI 20.6 MW  2.2 3
 SPEC SD       MO  0.3 ST  4.0 OM  9.1 f0 4.90 R0.0388 AL      WI      MW  0.2 3
 GAP=280        1.10       6.2     7.6 10.6 -0.3753E+02 -0.5617E+02  0.5828E+02E
 ACTION:UP  11-06-28 12:11 OP:gs   STATUS:               ID:20110601150638     I
 SPEC MRA SH Z MO 12.6 ST  5.0 OM  0.3 f0 9.30 R0.1513 AL 2.88 WI 28.9 MW  2.3 3
 SPEC MRA SH Z T15 717 K 0.040 GD  163 VP 7.00 DE 3.40 Q0400.0 QA 0.70 VS 4.02 3
 SPEC TCA EH Z MO 12.1 ST 13.0 OM  0.5 f0 19.1 R0.0737 AL 2.42 WI 12.4 MW  2.0 3
 SPEC TCA EH Z T15 646 K 0.040 GD 30.6 VP 7.00 DE 3.40 Q0400.0 QA 0.70 VS 4.02 3
 2011-06-01-1505-48S.CBA___018                                                 6
 STAT SP IPHASW D HRMM SECON CODA AMPLIT PERI AZIMU VELO AIN AR TRES W  DIS CAZ7
 TCA  HZ EP       15 6 44.26                  132.2  8.8  98  0-0.4110 30.4 312 
 TCA  EZ EP       15 6 44.37                              98   -0.3010 30.4 312 
 TCA  EZ ES       15 6 49.62                              98    0.4110 30.4 312 
 TCA  EZ  IAML    15 6 50.90        60.0 0.90                          30.4 312 
 MRA  SZ EP       15 7  7.57                              54    0.7110  163 232 
 MRA  SZ ES       15 7 27.43                              54   -0.4110  163 232 
 MRA  SZ  IAML    15 7 29.81         5.8 0.30                           163 232 
                                                                                
 2011  6 1 1546 19.2 L -23.105 -64.695168.8  SJA  3 0.2 2.4LSJA 3.0WSJA        1
 SPEC AVERAGE  MO 13.6 ST0.038 OM 11.4 f00.851 R1.6533 AL 4.85 WI 62.9 MW  3.0 3
 SPEC SD       MO  0.0 ST0.000 OM  9.5 f00.000 R0.0000 AL      WI      MW  0.0 3
 GAP=236        0.52      18.0    93.9 36.9  0.1670E+04 -0.3381E+04 -0.6410E+03E
 SPEC YJA EH Z MO 13.6 ST0.038 OM  1.9 f00.851 R1.6533 AL 4.85 WI 62.9 MW  3.0 3
 SPEC YJA EH Z T1547 9 K 0.040 GD  214 VS 4.02 DE 3.40 Q0400.0 QA 0.70 VS 4.02 3
 ACTION:UP  11-06-28 12:11 OP:gs   STATUS:               ID:20110601154619     I
 2011-06-01-1545-51S.JUJ___027                                                 6
 STAT SP IPHASW D HRMM SECON CODA AMPLIT PERI AZIMU VELO AIN AR TRES W  DIS CAZ7
 HJA  EZ EP       1546 44.99                             154    0.0010 74.0 261 
 HJA  EZ  IAML    1546 46.32        46.6 0.40                          74.0 261 
 AZAP SZ EP       1546 48.49                             138    0.2410  130 197 
 AZAP SZ  IAML    1546 49.06        24.6 0.34                           130 197 
 AZAP SZ ES       1547  9.60                             138   -0.1410  130 197 
 YJA  EZ EP       1546 48.83                             138   -0.2410  133 321 
 YJA  EZ ES       1547 11.29                             138    0.1410  133 321 
                                                                                
 2011  6 1 1549 51.0 L -36.375 -71.220165.6  SJA 11 0.3 3.9LSJA 3.9WSJA        1
 SPEC AVERAGE  MO 14.9 ST0.849 OM  8.0 f00.873 R2.1805 AL 8.61 WI 45.6 MW  3.9 3
 SPEC SD       MO  0.2 ST0.686 OM  5.7 f00.447 R1.1146 AL      WI      MW  0.2 3
 GAP=301        0.69       9.8    15.2 31.4 -0.1249E+02 -0.2649E+03  0.2128E+03E
 SPEC VCA EH Z MO 15.1 ST0.163 OM  2.8 f00.427 R3.2951 AL 9.74 WI 60.3 MW  4.0 3
 SPEC VCA EH Z T1553 5 K 0.040 GD  908 VS 4.02 DE 3.40 Q0400.0 QA 0.70 VS 4.02 3
 SPEC SUCOSH Z MO 14.6 ST  1.5 OM  1.7 f0 1.32 R1.0659 AL 7.49 WI 30.9 MW  3.7 3
 SPEC SUCOSH Z T155128 K 0.040 GD  690 VP 7.00 DE 3.40 Q0400.0 QA 0.70 VS 4.02 3
 ACTION:UP  11-06-28 12:11 OP:gs   STATUS:               ID:20110601154951     I
 2011-06-01-1550-08S.NCU___032                                                 6
 STAT SP IPHASW D HRMM SECON CODA AMPLIT PERI AZIMU VELO AIN AR TRES W  DIS CAZ7
 ROC1 HZ EP       1550 44.95                             105   -0.1410  378   3 
 ROC1 HZ ES       1551 24.93                             105   -0.1610  378   3 
 AUSP SZ EP       1550 58.86                              98    0.31 9  490  21 
 RTLS SZ EP       1551  4.68                              96    0.57 9  538  20 
 RTLS SZ ES       1551 58.22                              96    0.03 9  538  20 
 RTCV SZ EP       1551  6.23                              95    0.39 8  558  27 
 ACAN SZ EP       1551  9.25                              94    0.06 8  587  40 
 RTLL SZ EP       1551 12.16                              93   -0.31 8  614  25 
 AMOG SZ EP       1551 16.47                              92   -0.64 8  654  24 
 MRA  SZ EP       1551 19.12                              92    0.10 7  670  51 
 MRA  SZ  IAML    1551 19.98        27.4 0.35                           670  51 
 SUCO SZ EP       1551 18.67                              92   -0.32 7  670  62 
 SUCO SZ  IAML    1551 29.78        17.6 0.48                           670  62 
 AGUA SZ EP       1551 34.70                              91   -0.32 6  805  19 
 TCA  EZ EP   4   1551 36.66                              91   -1.17 0  829  50 
 VCA  EZ EP       1551 45.76                              90    0.32 5  893  19 
 VCA  EZ  IAML    1553 16.05        29.5 0.30                           893  19 
                                                                                
 2011  6 1 1625  0.6 L -28.009 -71.026 54.2  SJA 12 0.4 3.6LSJA 4.2WSJA        1
 SPEC AVERAGE  MO 15.4 ST0.471 OM 11.6 f00.480 R2.9313 AL 5.90 WI 96.7 MW  4.2 3
 SPEC SD       MO  0.0 ST0.000 OM  8.0 f00.000 R0.0000 AL      WI      MW  0.0 3
 GAP=303        1.07      13.6    23.3 16.2 -0.2423E+03  0.2195E+03 -0.1385E+03E
 SPEC VCA EH Z MO 15.4 ST0.471 OM  3.6 f00.480 R2.9313 AL 5.90 WI 96.7 MW  4.2 3
 SPEC VCA EH Z T1626 4 K 0.040 GD  293 VS 4.02 DE 3.40 Q0400.0 QA 0.70 VS 4.02 3
 ACTION:UP  11-06-28 12:11 OP:gs   STATUS:               ID:20110601162500     I
 2011-06-01-1625-06S.CBA___038                                                 6
 STAT SP IPHASW D HRMM SECON CODA AMPLIT PERI AZIMU VELO AIN AR TRES W  DIS CAZ7
 LCO  BE EP       1625 20.27                             102   -0.1310  115 164 
 LCO  BE ES       1625 35.00                             102   -0.0610  115 164 
 VCA  EZ EP       1625 41.80                              93   -0.4610  288 107 
 VCA  EZ  IAML    1626 21.26       299.1 0.34                           288 107 
 AGUA SZ EP       1625 44.19                              93    0.8510  297 124 
 AMOG SZ EP       1625 57.31                              92   -0.12 9  407 144 
 RTLL SZ EP       1626  1.45                              72   -0.49 9  443 147 
 RTLS SZ EP       1626  3.76                              72    0.07 9  452 159 
 RTCV SZ EP       1626  7.36                              72   -0.26 8  490 151 
 AUSP SZ EP       1626  9.24                              72    0.58 8  493 162 
 CYA  EZ EP   4   1626  6.59                              72   -4.03 0  515  97 
 CYA  EZ  IAML    1626 27.30        34.7 0.32                           515  97 
 AHML EZ EP   4   1626 14.40                              72   -4.02 0  579  78 
 AHML EZ  IAML    1626 44.87        25.6 0.40                           579  78 
 ACAN SZ EP   4   1626 19.55                              72   -1.45 0  600 143 
 MRA  SZ EP   4   1626 31.53                              72   -2.57 0  707 135 
 MRA  SZ  IAML    1628  9.61        34.9 0.45                           707 135 
 TCA  EZ EP   4   1626 32.37                              72   -3.70 0  723 122 
 TCA  EZ  IAML    1627 48.96        16.1 0.66                           723 122 
                                                                                
 2011  6 1 1714 33.4 L -30.181 -71.494 41.1  SJA  9 0.3 3.1LSJA 3.4WSJA        1
 SPEC AVERAGE  MO 14.2 ST0.312 OM 13.9 f0 1.06 R1.3274 AL 9.56 WI 60.9 MW  3.4 3
 SPEC SD       MO  0.0 ST0.000 OM 11.6 f00.000 R0.0000 AL      WI      MW  0.0 3
 GAP=219        0.70      21.3    23.2 45.6 -0.4605E+03 -0.9655E+03  0.9656E+03E
 SPEC VCA EH Z MO 14.2 ST0.312 OM  2.3 f0 1.06 R1.3274 AL 9.56 WI 60.9 MW  3.4 3
 SPEC VCA EH Z T1716 3 K 0.040 GD  359 VS 4.02 DE 3.40 Q0400.0 QA 0.70 VS 4.02 3
 ACTION:UP  11-06-28 12:11 OP:gs   STATUS:               ID:20110601171433     I
 2011-06-01-1714-28S.NCU___031                                                 6
 STAT SP IPHASW D HRMM SECON CODA AMPLIT PERI AZIMU VELO AIN AR TRES W  DIS CAZ7
 LCO  BE EP       1714 57.55                              95   -0.0410  151  31 
 LCO  BE ES       1715 15.40                              95   -0.0710  151  31 
 RTLS SZ EP       1715 13.50                              53   -0.5710  276 131 
 AGUA SZ EP   4   1715 17.94                              53    1.39 0  300  76 
 AMOG SZ EP       1715 16.81                              53    0.3310  300 107 
 AUSP SZ EP       1715 17.43                              53   -0.0110  303 139 
 ROC1 HZ EP       1715 18.59                              53    0.1910  313 172 
 RTLL SZ EP       1715 18.68                              53    0.1710  316 115 
 RTCV SZ EP       1715 21.37                              53    0.0210  338 124 
 VCA  EZ EP   4   1715 25.06                              53    1.18 0  357  64 
 VCA  EZ  IAML    1715 30.00        54.1 0.28                           357  64 
 MRA  SZ EP   4   1715 50.65                              49   -4.18 0  603 116 
 MRA  SZ  IAML    1716 59.73         9.7 0.55                           603 116 
                                                                                
 2011  6 1 1844 49.4 L -31.577 -69.772118.4  SJA 10 0.3 2.9LSJA 3.1WSJA        1
 SPEC AVERAGE  MO 13.8 ST0.591 OM 15.7 f0 1.84 R0.7647 AL 3.98 WI 45.6 MW  3.1 3
 SPEC SD       MO  0.0 ST0.000 OM 13.9 f00.000 R0.0000 AL      WI      MW  0.0 3
 GAP=172        0.81       5.8     7.2  6.6 -0.2188E+02  0.1535E+02 -0.1675E+02E
 SPEC MRA SH Z MO 13.8 ST0.591 OM  1.8 f0 1.84 R0.7647 AL 3.98 WI 45.6 MW  3.1 3
 SPEC MRA SH Z T184621 K 0.040 GD  411 VS 4.02 DE 3.40 Q0400.0 QA 0.70 VS 4.02 3
 ACTION:UP  11-06-28 12:11 OP:gs   STATUS:               ID:20110601184449     I
 2011-06-01-1844-14S.NCU___033                                                 6
 STAT SP IPHASW D HRMM SECON CODA AMPLIT PERI AZIMU VELO AIN AR TRES W  DIS CAZ7
 RTLS SZ EP       1845  8.50                             154    0.1110 51.4 119 
 RTLS SZ ES       1845 22.18                             154   -0.2210 51.4 119 
 AUSP SZ EP       1845 10.68                             141    0.4410 80.4 153 
 SJA  SZ EP       1845 12.89                             130    0.4110  115  88 
 SJA  SZ  IAML    1845 13.03       210.6 0.12                           115  88 
 RTCV SZ EP       1845 13.29                             128    0.2410  121 105 
 RTLL SZ EP       1845 13.23                             127   -0.3410  126  78 
 AMOG SZ EP       1845 14.68                             123   -0.3510  141  60 
 ROC1 HZ EP       1845 20.74                             113   -0.2510  194 217 
 ACAN SZ EP       1845 27.53                             106   -0.2410  256 108 
 AGUA SZ EP       1845 28.74                             105    0.2010  262  28 
 MRA  SZ EP   4   1845 43.12                              98   -1.09 0  394 105 
 MRA  SZ  IAML    1846 24.72        12.7 0.40                           394 105 
                                                                                
 2011  6 1 1910 42.9 L -28.092 -71.472108.5  SJA  6 0.3 3.0LSJA 3.7WSJA        1
 SPEC AVERAGE  MO 14.6 ST0.120 OM 18.4 f00.574 R2.4512 AL 2.79 WI 68.9 MW  3.7 3
 SPEC SD       MO  0.0 ST0.000 OM 15.7 f00.000 R0.0000 AL      WI      MW  0.0 3
 GAP=307        0.78      13.6    18.5 11.6 -0.1603E+03  0.1230E+03 -0.1123E+03E
 SPEC VCA EH Z MO 14.6 ST0.120 OM  2.7 f00.574 R2.4512 AL 2.79 WI 68.9 MW  3.7 3
 SPEC VCA EH Z T191212 K 0.040 GD  345 VS 4.02 DE 3.40 Q0400.0 QA 0.70 VS 4.02 3
 ACTION:UP  11-06-28 12:11 OP:gs   STATUS:               ID:20110601191042     I
 2011-06-01-1910-55S.NCU___032                                                 6
 STAT SP IPHASW D HRMM SECON CODA AMPLIT PERI AZIMU VELO AIN AR TRES W  DIS CAZ7
 LCO  BZ EP       1911  6.72                             123    0.0810  127 144 
 LCO  BZ ES       1911 24.14                             123   -0.0710  127 144 
 VCA  EZ EP       1911 29.17                              98   -0.4210  328 103 
 VCA  EZ  IAML    1912 24.28        45.1 0.56                           328 103 
 AGUA SZ EP       1911 30.35                              97    0.6310  330 119 
 AMOG SZ EP       1911 41.36                              94   -0.14 9  428 138 
 RTLS SZ EP       1911 46.14                              93   -0.08 9  461 153 
 AUSP SZ EP       1911 50.80                              93   -0.05 8  500 157 
                                                                                
 2011  6 1 1925 32.6 L -31.978 -69.535106.2  SJA  6 0.1 2.4LSJA                1
 GAP=170        0.36       9.0    10.2  6.1 -0.8643E+02  0.5338E+02 -0.4830E+02E
 ACTION:UP  11-06-28 12:11 OP:gs   STATUS:               ID:20110601192532     I
 2011-06-01-1923-57S.CBA___036                                                 6
 STAT SP IPHASW D HRMM SECON CODA AMPLIT PERI AZIMU VELO AIN AR TRES W  DIS CAZ7
 RTLS SZ EP       1925 49.29                             162    0.1010 30.1  49 
 AUSP SZ EP       1925 49.29                             162    0.1210 30.6 153 
 AUSP SZ ES       1926  1.35                             162   -0.1010 30.6 153 
 RTLL SZ EP       1925 55.63                             123    0.0210  124  55 
 AMOG SZ EP       1925 58.51                             116   -0.1010  152  41 
 ROC1 HZ EP       1926  1.67                             111   -0.0410  178 231 
 VCA  EZ  IAML    1927  0.97         7.5 0.48                           381  20 
                                                                                
