 2011  6 3 1946 59.9 L -33.859 -66.682  2.2  SJA  9 0.5 3.4LSJA 3.3WSJA        1
 SPEC AVERAGE  MO 14.1 ST 90.1 OM  4.0 f0 5.63 R0.3090 AL 1.58 WI 29.5 MW  3.3 3
 SPEC SD       MO  0.1 ST133.7 OM  1.5 f0 2.76 R0.1275 AL      WI      MW  0.1 3
 GAP=221        1.39       6.2     3.7  8.7 -0.4320E+01  0.1111E+02 -0.1700E+02E
 ACTION:UP  11-06-28 12:11 OP:gs   STATUS:               ID:20110603194659     I
 SPEC VCA EH Z MO 14.0 ST  9.7 OM  2.3 f0 3.80 R0.3703 AL 2.28 WI 53.2 MW  3.3 3
 SPEC VCA EH Z T194936 K 0.040 GD  242 VS 4.02 DE 3.40 Q0400.0 QA 0.70 VS 4.02 3
 SPEC TCA EH Z MO 13.9 ST 24.7 OM  2.3 f0 5.68 R0.2477 AL 1.62 WI 22.6 MW  3.2 3
 SPEC TCA EH Z T194834 K 0.040 GD  184 VS 4.02 DE 3.40 Q0400.0 QA 0.70 VS 4.02 3
 SPEC MRA SH Z MO 14.3 ST321.3 OM  2.8 f0 10.1 R0.1393 AL 1.51 WI 17.1 MW  3.5 3
 SPEC MRA SH Z T194749 K 0.040 GD  135 VS 4.02 DE 3.40 Q0400.0 QA 0.70 VS 4.02 3
 SPEC ARCOEH Z MO 14.1 ST  4.5 OM  2.5 f0 2.94 R0.4786 AL 0.91 WI 24.9 MW  3.3 3
 SPEC ARCOEH Z T1948 4 K 0.040 GD  154 VS 4.02 DE 3.40 Q0400.0 QA 0.70 VS 4.02 3
 OLDACT:ARG 11-06-03 16:49 OP:auto STATUS:               ID:20110603194652     3
 2011-06-03-1946-52S.CBA___036                                                 6
 STAT SP IPHASW D HRMM SECON CODA AMPLIT PERI AZIMU VELO AIN AR TRES W  DIS CAZ7
 SUCO SZ EP       1947 30.74                              54    0.1610  176  72 
 SUCO SZ ES       1947 53.39                              54    0.1310  176  72 
 ACAN SZ EP       1947 32.09                              54    0.6310  182 345 
 ACAN SZ ES       1947 55.01                              54    0.2310  182 345 
 MRA  SZ EP       1947 31.82                              54    0.0910  183  30 
 MRA  SZ ES       1947 54.94                              54   -0.3210  183  30 
 MRA  SZ  IAML    1947 58.71       312.7 0.15                           183  30 
 AAGR SZ EP       1947 36.58                              40   -0.0810  217 293 
 AAGR SZ ES   4   1948  3.73                              40   -0.10 0  217 293 
 ARCO EZ EP       1947 39.99                              40    0.7210  238 298 
 ARCO EZ ES       1948  8.79                              40    0.4010  238 298 
 ARCO EZ  IAML    1948 12.61       182.3 0.42                           238 298 
 ASAL SZ EP   4 D 1947 41.47                              40    1.32 0  245 304 
 RTCV SZ EP   4 D 1947 46.85                              40    2.11 0  282 321 
 RTCV SZ ES   4 D 1948 20.49                              40    2.58 0  282 321 
 AUSP SZ EP     D 1947 48.53                              40   -0.6210  311 305 
 AUSP SZ ES       1948 25.43                              40   -0.1510  311 305 
 RTLL SZ EP       1947 49.32                              40   -1.2710  327 329 
 RTLS SZ EP   4   1947 51.39                              40   -0.84 0  335 312 
 RTLS SZ ES   4 D 1948 36.09                              40    5.17 0  335 312 
 TCA  EZ EP   4   1947 50.70                              40   -1.76 0  341  36 
 TCA  EZ ES   4   1948 38.72                              40    7.40 0  341  36 
 TCA  EZ  IAML    1948 41.45       109.6 0.38                           341  36 
 AMOG SZ EP   4   1947 53.77                              40   -1.80 0  366 332 
 VCA  EZ  IAML    1949 50.94        29.1 0.26                           586 345 
                                                                                
 2011  6 3 2100 30.5 L -28.839 -70.002 65.4  SJA  6 0.5 3.4CSJA                1
 GAP=222        1.27      22.2    10.2 23.9 -0.5493E+02 -0.1796E+03  0.3700E+03E
 ACTION:UP  11-06-28 12:11 OP:gs   STATUS:               ID:20110603210030     I
 OLDACT:ARG 11-06-03 18:04 OP:auto STATUS:               ID:20110603210029     3
 2011-06-03-2100-29S.NCU___033                                                 6
 STAT SP IPHASW D HRMM SECON CODA AMPLIT PERI AZIMU VELO AIN AR TRES W  DIS CAZ7
 LCO  BE IP       21 0 45.61                             124    0.0810 70.6 254 
 LCO  BE IS       21 0 56.61                             124   -0.0510 70.6 254 
 AGUA SZ IP       21 0 56.34  124                        101   -0.0810  164 116 
 AMOG SZ IP       21 1  9.76  136                         94   -0.6710  275 148 
 RTLL SZ IP       21 1 16.34                              93    1.0710  313 152 
 RTLS SZ IP       21 1 18.48                              93   -0.2810  335 168 
 AUSP SZ IP       21 1 24.25                              73   -0.08 9  380 171 
                                                                                
 2011  6 3 2122  2.7 L -27.318 -66.529  4.0F SJA  5 0.4 1.9LSJA 2.3WSJA        1
 SPEC AVERAGE  MO 12.6 ST  2.5 OM  2.1 f0 6.67 R0.2454 AL 1.50 WI 19.9 MW  2.3 3
 SPEC SD       MO  0.3 ST  2.6 OM  1.0 f0 2.69 R0.0873 AL      WI      MW  0.2 3
 GAP=156        0.89       4.1     4.8  0.0 -0.1362E+02 -0.1796E+03  0.3700E+03E
 ACTION:UP  11-06-28 12:11 OP:gs   STATUS:               ID:20110603212202     I
 SPEC VCA EH Z MO 13.0 ST  1.5 OM  1.5 f0 4.38 R0.3212 AL 1.66 WI 20.7 MW  2.6 3
 SPEC VCA EH Z T2123 4 K 0.040 GD  150 VS 4.02 DE 3.40 Q0400.0 QA 0.70 VS 4.02 3
 SPEC FSA SH Z MO 12.3 ST  1.4 OM  0.9 f0 7.34 R0.1917 AL 1.02 WI  9.7 MW  2.2 3
 SPEC FSA SH Z T212243 K 0.040 GD  119 VS 4.02 DE 3.40 Q0400.0 QA 0.70 VS 4.02 3
 SPEC CYA EH Z MO 12.5 ST  7.0 OM  1.1 f0 10.8 R0.1303 AL 2.00 WI 22.5 MW  2.3 3
 SPEC CYA EH Z T212239 K 0.040 GD  119 VS 4.02 DE 3.40 Q0400.0 QA 0.70 VS 4.02 3
 SPEC AHMLEH Z MO 12.3 ST0.240 OM  0.9 f0 4.16 R0.3382 AL 1.33 WI 26.7 MW  2.2 3
 SPEC AHMLEH Z T212239 K 0.040 GD  114 VS 4.02 DE 3.40 Q0400.0 QA 0.70 VS 4.02 3
 OLDACT:ARG 11-06-03 18:25 OP:auto STATUS:               ID:20110603212131     3
 2011-06-03-2121-31S.NOA___028                                                 6
 STAT SP IPHASW D HRMM SECON CODA AMPLIT PERI AZIMU VELO AIN AR TRES W  DIS CAZ7
 AHML EZ EP       2122 26.59                              54    0.5910  132  64 
 AHML EZ  IAML    2122 31.84        25.6 0.18                           132  64 
 AHML EZ ES   4   2122 51.43                              54    8.18 0  132  64 
 CYA  EZ ES   4   2122 45.15                              54   -1.20 0  144 150 
 CYA  EZ  IAML    2122 50.73        15.2 0.34                           144 150 
 FSA  SZ EP       2122 27.93                              54   -0.3510  144  22 
 FSA  SZ ES   4   2122 45.66                              54   -1.57 0  144  22 
 FSA  SZ  IAML    2122 47.64        12.9 0.66                           144  22 
 CYA  EZ EP       2122 27.34                              54   -0.4410  144 150 
 VCA  EZ EP       2122 40.28                              40   -0.1610  228 226 
 VCA  EZ ES       2123  8.19                              40   -0.1910  228 226 
 VCA  EZ  IAML    2123 11.37        16.5 0.36                           228 226 
 AGUA SZ EP   4   2122 51.67                              40    1.04 0  308 218 
 AGUA SZ ES       2123 26.66                              40    0.5410  308 218 
                                                                                
 2011  6 3 2126 32.4 L -31.919 -70.430  5.0F SJA  7 0.3 2.2LSJA 2.5WSJA        1
 SPEC AVERAGE  MO 12.8 ST0.873 OM  2.3 f0 4.46 R0.3163 AL 2.28 WI 33.7 MW  2.5 3
 SPEC SD       MO  0.2 ST0.247 OM  1.1 f00.230 R0.0163 AL      WI      MW  0.1 3
 GAP=190        0.77       2.9     2.9  0.0 -0.3672E+01 -0.1796E+03  0.3700E+03E
 ACTION:UP  11-06-28 12:11 OP:gs   STATUS:               ID:20110603212632     I
 SPEC VCA EH Z MO 13.0 ST  1.1 OM  1.3 f0 4.23 R0.3326 AL 1.93 WI 39.7 MW  2.6 3
 SPEC VCA EH Z T212815 K 0.040 GD  202 VS 4.02 DE 3.40 Q0400.0 QA 0.70 VS 4.02 3
 SPEC ARCOEH Z MO 12.6 ST0.626 OM  1.1 f0 4.69 R0.3000 AL 2.63 WI 27.6 MW  2.3 3
 SPEC ARCOEH Z T212726 K 0.040 GD  131 VS 4.02 DE 3.40 Q0400.0 QA 0.70 VS 4.02 3
 OLDACT:ARG 11-06-03 18:28 OP:auto STATUS:               ID:20110603212609     3
 2011-06-03-2126-09S.NCU___033                                                 6
 STAT SP IPHASW D HRMM SECON CODA AMPLIT PERI AZIMU VELO AIN AR TRES W  DIS CAZ7
 AUSP SZ EP       2126 51.47                              54   -0.1310  104 109 
 AUSP SZ ES       2127  5.66                              54   -0.1610  104 109 
 RTLS SZ EP       2126 51.57                              54   -0.7010  108  83 
 RTLS SZ ES       2127  7.36                              54    0.3710  108  83 
 ROC1 HZ ES       2127 12.38                              54    0.0810  130 205 
 ASAL SZ EP   4   2127  3.70                              54    2.31 0  168 117 
 ASAL SZ ES       2127 23.09                              54    0.2410  168 117 
 ARCO EZ EP   4   2127  4.56                              54    2.13 0  174 126 
 ARCO EZ  IAML    2127  6.37        12.3 0.58                           174 126 
 AAGR SZ EP   4   2127  8.92                              40    2.64 0  198 131 
 AMOG SZ EP   4   2127  5.90                              40   -2.19 0  214  60 
 AGUA SZ EP       2127 23.00                              40    0.3210  327  35 
 VCA  EZ  IAML    2127 39.42         9.7 0.24                           412  32 
                                                                                
 2011  6 3 2158 38.3 L -31.665 -68.231 33.0  SJA  7 0.3 1.9LSJA 2.6WSJA        1
 SPEC AVERAGE  MO 13.0 ST  6.2 OM  2.5 f0 6.41 R0.2439 AL 0.94 WI 29.3 MW  2.6 3
 SPEC SD       MO  0.1 ST  5.0 OM  1.1 f0 2.03 R0.0774 AL      WI      MW  0.0 3
 GAP=127        0.91       2.6     3.2  2.8 -0.2637E+01 -0.4489E+01  0.3823E+01E
 ACTION:UP  11-06-28 12:11 OP:gs   STATUS:               ID:20110603215838     I
 SPEC MRA SH Z MO 13.1 ST 11.2 OM  1.3 f0 8.45 R0.1665 AL 0.93 WI 32.7 MW  2.7 3
 SPEC MRA SH Z T215935 K 0.040 GD  254 VS 4.02 DE 3.40 Q0400.0 QA 0.70 VS 4.02 3
 SPEC ARCOEH Z MO 12.9 ST  1.2 OM  1.4 f0 4.38 R0.3212 AL 0.95 WI 25.8 MW  2.6 3
 SPEC ARCOEH Z T215912 K 0.040 GD  149 VS 4.02 DE 3.40 Q0400.0 QA 0.70 VS 4.02 3
 OLDACT:ARG 11-06-03 19:01 OP:auto STATUS:               ID:20110603215720     3
 2011-06-03-2157-20S.NCU___032                                                 6
 STAT SP IPHASW D HRMM SECON CODA AMPLIT PERI AZIMU VELO AIN AR TRES W  DIS CAZ7
 RTCV SZ EP       2158 46.52                             129   -0.3410 36.5 233 
 RTCV SZ ES       2158 53.68                             129    0.4610 36.5 233 
 AMOG SZ EP       2158 54.00                             108    0.2710 84.3 343 
 AMOG SZ ES       2159  5.18                             108    0.0010 84.3 343 
 RTLS SZ EP       2158 56.76                             105   -0.3210  102 261 
 RTLS SZ ES       2159 10.76                             105   -0.2410  102 261 
 ASAL SZ EP       2158 58.01                              53   -0.6710  117 209 
 ASAL SZ ES       2159 13.84                              53    0.0610  117 209 
 AUSP SZ EP       2159  0.35                              53    0.0810  126 240 
 AUSP SZ ES       2159 16.75                              53    0.2010  126 240 
 ARCO EZ EP       2159  2.93                              53    0.5310  146 207 
 ARCO EZ ES   4   2159 18.75                              53   -1.52 0  146 207 
 ARCO EZ  IAML    2159 22.37        13.2 0.26                           146 207 
 MRA  SZ EP   4   2159 13.91                              53   -1.95 0  252 110 
 MRA  SZ ES       2159 43.63                              53   -0.0410  252 110 
 MRA  SZ  IAML    2159 46.02        11.8 0.60                           252 110 
                                                                                
 2011  6 3 2220 11.0 L -31.289 -68.564100.0  SJA  7 0.3 1.8LSJA 2.3WSJA        1
 SPEC AVERAGE  MO 12.6 ST0.748 OM  3.4 f0 5.03 R0.2797 AL 0.92 WI 12.0 MW  2.3 3
 SPEC SD       MO  0.0 ST0.000 OM  2.5 f00.000 R0.0000 AL      WI      MW  0.0 3
 GAP=139        0.92       3.9     4.3  6.4 -0.3985E+01 -0.6631E+01  0.1104E+02E
 ACTION:UP  11-06-28 12:11 OP:gs   STATUS:               ID:20110603222011     I
 SPEC ARCOEH Z MO 12.6 ST0.748 OM  0.9 f0 5.03 R0.2797 AL 0.92 WI 12.0 MW  2.3 3
 SPEC ARCOEH Z T2221 0 K 0.040 GD  202 VS 4.02 DE 3.40 Q0400.0 QA 0.70 VS 4.02 3
 OLDACT:ARG 11-06-03 19:22 OP:auto STATUS:               ID:20110603221942     3
 2011-06-03-2219-42S.NCU___031                                                 6
 STAT SP IPHASW D HRMM SECON CODA AMPLIT PERI AZIMU VELO AIN AR TRES W  DIS CAZ7
 AMOG SZ EP       2220 26.74                             155    0.1410 39.4  10 
 AMOG SZ ES       2220 38.14                             155    0.0010 39.4  10 
 RTCV SZ ES       2220 40.86                             142    0.1110 63.5 178 
 RTLS SZ EP       2220 30.85                             132   -0.1310 89.6 231 
 RTLS SZ ES       2220 45.80                             132    0.0410 89.6 231 
 AUSP SZ EP       2220 34.56                             119   -0.3710  130 217 
 AUSP SZ ES       2220 52.16                             119   -0.4710  130 217 
 ASAL SZ EP       2220 36.35                             115    0.1510  147 190 
 ASAL SZ ES       2220 55.47                             115    0.6310  147 190 
 ACAN SZ EP       2220 39.12                             110    0.4210  170 130 
 ACAN SZ ES       2220 58.59                             110   -0.6110  170 130 
 ARCO EZ EP       2220 39.59                             110    0.0810  176 191 
 ARCO EZ  IAML    2221  3.61         9.2 0.28                           176 191 
                                                                                
 2011  6 3 2301 15.0 L -40.730 -70.551146.9  SJA  2 0.3 2.4LSJA 2.8WSJA        1
 SPEC AVERAGE  MO 13.2 ST  2.1 OM  5.1 f0 4.29 R0.3280 AL 2.55 WI 22.2 MW  2.8 3
 SPEC SD       MO  0.0 ST0.000 OM  3.4 f00.000 R0.0000 AL      WI      MW  0.0 3
 GAP=234        1.80     999.9   999.9 21.3  0.1803E+09  0.8274E+05  0.8698E+04E
 ACTION:UP  11-06-28 12:11 OP:gs   STATUS:               ID:20110603230115     I
 SPEC PLCABH Z MO 13.2 ST  2.1 OM  1.7 f0 4.29 R0.3280 AL 2.55 WI 22.2 MW  2.8 3
 SPEC PLCABH Z T23 145 K 0.040 GD  146 VS 4.02 DE 3.40 Q0400.0 QA 0.70 VS 4.02 3
 OLDACT:ARG 11-06-03 20:04 OP:auto STATUS:               ID:20110603230109     3
 2011-06-03-2301-09S.SUR___014                                                 6
 STAT SP IPHASW D HRMM SECON CODA AMPLIT PERI AZIMU VELO AIN AR TRES W  DIS CAZ7
 PLCA BZ EP       23 1 34.59                  303.1  5.5 180  5-0.6810 0.11 118 
 PLCA BZ ES       23 1 50.46                             180    0.2210 0.11 118 
 PLCA BZ  IAML    23 1 55.74        59.8 0.25                          0.11 118 
 CANA SZ EP       23 2  1.18                             106   -0.4710  319 352 
 CANA SZ ES       23 2 37.08                             106    0.9410  319 352 
                                                                                
 2011  6 3 2321 21.1 L -33.637 -73.536  4.0F SJA  8 0.7 3.3LSJA 3.1WSJA        1
 SPEC AVERAGE  MO 13.8 ST0.830 OM  4.5 f0 2.04 R0.7888 AL 1.12 WI 27.7 MW  3.1 3
 SPEC SD       MO  0.1 ST0.552 OM  2.5 f00.715 R0.2771 AL      WI      MW  0.1 3
 GAP=336        1.42      34.0    17.2  0.0 -0.2635E+03  0.8274E+05  0.8698E+04E
 ACTION:UP  11-06-28 12:11 OP:gs   STATUS:               ID:20110603232121     I
 SPEC PLCASH Z MO 13.6 ST  1.4 OM  1.8 f0 2.75 R0.5116 AL 0.51 WI 17.4 MW  3.0 3
 SPEC PLCASH Z T232239 K 0.040 GD  288 VS 4.02 DE 3.40 Q0400.0 QA 0.70 VS 4.02 3
 SPEC ARCOEH Z MO 13.9 ST0.279 OM  2.2 f0 1.32 R1.0659 AL 1.73 WI 37.9 MW  3.2 3
 SPEC ARCOEH Z T232247 K 0.040 GD  209 VS 4.02 DE 3.40 Q0400.0 QA 0.70 VS 4.02 3
 OLDACT:ARG 11-06-03 20:25 OP:auto STATUS:               ID:20110603232138     3
 2011-06-03-2321-38S.NCU___032                                                 6
 STAT SP IPHASW D HRMM SECON CODA AMPLIT PERI AZIMU VELO AIN AR TRES W  DIS CAZ7
 ROC1 HZ EP       2321 59.89                              40   -1.3710  246  73 
 ROC1 HZ ES       2322 30.91                              40   -0.0910  246  73 
 AUSP SZ EP       2322 23.52                              40   -0.27 9  418  69 
 AUSP SZ ES   4   2323  7.62                              40   -2.58 0  418  69 
 ARCO EZ EP       2322 26.33                              40    0.54 9  438  80 
 ARCO EZ  IAML    2322 33.06        46.3 0.40                           438  80 
 AAGR SZ EP       2322 27.27                              40    0.88 9  442  83 
 RTLS SZ EP       2322 27.79                              40    0.36 9  447  64 
 RTLS SZ ES   4   2323 22.52                              40    5.98 0  447  64 
 ASAL SZ EP       2322 26.97                              40   -0.81 9  454  76 
 ASAL SZ ES       2323 17.34                              40    0.19 9  454  76 
 AMOG SZ EP       2322 42.37                              40    0.89 8  561  59 
 ACAN SZ EP       2322 48.07                              37    0.40 7  612  77 
 AGUA SZ EP   4   2322 51.25                              37   -2.78 0  664  47 
 PLCA SZ EP   4   2322 21.54                              37   -52.8 0  831 162 
                                                                                
 2011  6 3 2350  6.2 L -33.326 -73.800196.8  SJA  6 0.6 3.0LSJA 2.8WSJA        1
 SPEC AVERAGE  MO 13.3 ST0.549 OM  5.7 f0 2.67 R0.5270 AL 1.98 WI 41.3 MW  2.8 3
 SPEC SD       MO  0.0 ST0.000 OM  4.5 f00.000 R0.0000 AL      WI      MW  0.0 3
 GAP=327        1.30      45.5    57.7177.2 -0.1407E+04  0.9412E+04 -0.5383E+04E
 ACTION:UP  11-06-28 12:11 OP:gs   STATUS:               ID:20110603235006     I
 SPEC ARCOEH Z MO 13.3 ST0.549 OM  1.2 f0 2.67 R0.5270 AL 1.98 WI 41.3 MW  2.8 3
 SPEC ARCOEH Z T235136 K 0.040 GD  498 VS 4.02 DE 3.40 Q0400.0 QA 0.70 VS 4.02 3
 OLDACT:ARG 11-06-03 20:52 OP:auto STATUS:               ID:20110603235017     3
 2011-06-03-2350-17S.NCU___031                                                 6
 STAT SP IPHASW D HRMM SECON CODA AMPLIT PERI AZIMU VELO AIN AR TRES W  DIS CAZ7
 ROC1 HZ EP   4   2350 38.84                             121   -10.3 0  263  82 
 ROC1 HZ ES   4   2350 58.89                             121   -22.1 0  263  82 
 AUSP SZ EP       2351  6.77                             107   -0.9010  431  75 
 AUSP SZ ES   4   2351 45.24                             107   -7.95 0  431  75 
 RTLS SZ EP       2351 11.41                             105    0.9610  456  69 
 RTLS SZ ES   4   2351 55.87                             105   -2.16 0  456  69 
 ARCO EZ EP       2351 10.21                             105    0.0710  458  85 
 ARCO EZ  IAML    2351 14.27        14.1 0.44                           458  85 
 ASAL SZ EP       2351 11.95                             104    0.3010  471  81 
 ASAL SZ ES       2352  0.12                             104    0.0110  471  81 
 AMOG SZ EP       2351 21.72                             100   -0.71 9  566  64 
 AGUA SZ EP       2351 33.59                              97    0.27 8  660  51 
                                                                                
