 2011  6 2 2322 40.3 L -30.428 -71.686 24.4  SJA  7 0.3 2.6LSJA 2.9WSJA        1
 SPEC AVERAGE  MO 13.4 ST  6.6 OM  5.2 f0 4.94 R0.2875 AL 5.60 WI 24.0 MW  2.9 3
 SPEC SD       MO  0.3 ST  4.7 OM  3.7 f00.480 R0.0279 AL      WI      MW  0.2 3
 GAP=289        0.90       7.2    50.5 43.4 -0.3030E+03 -0.2128E+04  0.2531E+03E
 ACTION:UP  11-06-28 12:11 OP:gs   STATUS:               ID:20110602232240     I
 OLDACT:UP  11-06-03 00:15 OP:mape STATUS:               ID:20110602232240     3
 SPEC VCA EH Z MO 13.7 ST 11.3 OM  1.7 f0 5.42 R0.2596 AL 7.12 WI 19.5 MW  3.0 3
 SPEC VCA EH Z T232414 K 0.040 GD  386 VS 4.02 DE 3.40 Q0400.0 QA 0.70 VS 4.02 3
 SPEC ARCOEH Z MO 13.1 ST  1.9 OM  1.2 f0 4.46 R0.3155 AL 4.08 WI 28.6 MW  2.7 3
 SPEC ARCOEH Z T232412 K 0.040 GD  374 VS 4.02 DE 3.40 Q0400.0 QA 0.70 VS 4.02 3
 OLDACT:ARG 11-06-02 20:25 OP:auto STATUS:               ID:20110602232240     3
 2011-06-02-2322-40S.NCU___031                                                 6
 STAT SP IPHASW D HRMM SECON CODA AMPLIT PERI AZIMU VELO AIN AR TRES W  DIS CAZ7
 RTLS SZ EP       2323 22.29                              53    0.0610  274 124 
 AUSP SZ EP       2323 24.47                              53   -0.5210  296 133 
 AUSP SZ ES       2323 58.25                              53    0.2110  296 133 
 AMOG SZ EP       2323 26.01                              53   -0.3310  311 101 
 AGUA SZ EP       2323 28.85                              53    0.6210  326  72 
 ASAL SZ EP       2323 33.13                              53    0.22 9  362 132 
 ASAL SZ ES   4   2324 14.48                              53    2.67 0  362 132 
 ARCO EZ  IAML    2323 40.02         7.4 0.26                           374 136 
 VCA  EZ EP       2323 36.01                              53   -0.01 9  386  62 
 VCA  EZ ES       2324 16.98                              53   -0.25 9  386  62 
 VCA  EZ  IAML    2324 30.90        24.6 0.34                           386  62 
                                                                                
 2011  6 2 2335 15.7 L -35.611 -71.562333.6  SJA  6 0.1 3.4LSJA 3.1WSJA        1
 SPEC AVERAGE  MO 13.8 ST  2.8 OM  6.9 f0 3.10 R0.4539 AL 2.91 WI 40.9 MW  3.1 3
 SPEC SD       MO  0.0 ST0.000 OM  5.2 f00.000 R0.0000 AL      WI      MW  0.0 3
 GAP=346        0.42      16.7    52.4 30.8 -0.7505E+03  0.1510E+04 -0.3709E+03E
 ACTION:UP  11-06-28 12:11 OP:gs   STATUS:               ID:20110602233515     I
 OLDACT:UP  11-06-03 00:22 OP:mape STATUS:               ID:20110602233530     3
 SPEC ARCOEH Z MO 13.8 ST  2.8 OM  1.7 f0 3.10 R0.4539 AL 2.91 WI 40.9 MW  3.1 3
 SPEC ARCOEH Z T233649 K 0.040 GD  513 VS 4.02 DE 3.40 Q0400.0 QA 0.70 VS 4.02 3
 OLDACT:ARG 11-06-02 20:37 OP:auto STATUS:               ID:20110602233530     3
 2011-06-02-2335-30S.NCU___031                                                 6
 STAT SP IPHASW D HRMM SECON CODA AMPLIT PERI AZIMU VELO AIN AR TRES W  DIS CAZ7
 ARCO EZ EP   4   2336 26.92                             126    7.51 0  391  39 
 ARCO EZ  IAML    2336 28.59        31.8 0.50                           391  39 
 ASAL SZ EP   4   2336 29.24                             124    7.31 0  419  38 
 ASAL SZ ES       2337 10.93                             124    0.0110  419  38 
 AUSP SZ EP       2336 23.00                             123   -0.1810  426  29 
 AUSP SZ ES   4   2337  1.24                             123   -11.9 0  426  29 
 RTLS SZ EP       2336 27.85                             120    0.2210  472  27 
 RTLS SZ ES   4   2337  7.63                             120   -13.2 0  472  27 
 AMOG SZ EP       2336 39.00                             114   -0.03 8  592  30 
 AMOG SZ ES   4   2337 42.45                             114    1.79 0  592  30 
 AGUA SZ EP   4   2336 52.21                             108   -2.30 0  738  24 
 AGUA SZ ES       2338  7.57                             108   -0.03 7  738  24 
                                                                                
 2011  6 3 0005  5.8 D  37.290 143.910 31.0FFPDE 20 2.8                 6.3 PDE1
 GAP=326        6.57     780.1   999.9  0.0  0.1652E+07  0.1510E+04 -0.3709E+03E
 2011  6 3 0021 53.7 L -31.406 -85.410 70.0  SJA 20 3.2                        3
 ACTION:UP  11-06-28 12:11 OP:gs   STATUS:               ID:20110603000505     I
 OLDACT:UP  11-06-03 12:27 OP:mape STATUS:               ID:20110603002352     3
 OLDACT:UP  11-06-03 07:34 OP:mape STATUS:               ID:20110603002352     3
 OLDACT:ARG 11-06-02 21:31 OP:auto STATUS:               ID:20110603002352     3
 2011-06-03-0023-52S.CBA___058                                                 6
 STAT SP IPHASW D HRMM SECON CODA AMPLIT PERI AZIMU VELO AIN AR TRES W  DIS CAZ7
 LCO  BE EP        024 50.49                               5    2.681016677  84 
 YJA  EZ EP        024 48.95                               5   -0.421016732  68 
 HJA  EZ EP        024 49.72                               5   -0.571016809  69 
 ROC1 HZ EP        024 47.55                               5   -2.131016813  92 
 VCA  EZ EP        024 55.55                               5    5.031016884  82 
 AGUA SZ EP        024 55.60                               5    5.011016894  83 
 AZAP SZ EP        024 56.03                               5    4.871016902  71 
 RTLS SZ EP        024 50.10                               5   -1.491016921  89 
 AUSP SZ EP        024 49.81                               5   -1.861016930  89 
 ASTB SZ EP        024 49.86                               5   -1.521016936  69 
 FSA  SZ EP        024 50.73                               5   -0.761016938  75 
 CANA SZ EP        024 49.04                               5   -2.281016941 102 
 AMOG SZ EP        024 49.86                               5   -1.541016958  86 
 ALOL SZ EP        024 57.14                               5    5.721016966  69 
 RTCV SZ EP        024 49.86                               5   -1.961016991  88 
 ASAL SZ EP        024 49.96                               5   -1.971016992  90 
 AANI PZ EP     D  024 50.78                               5   -1.251016999  81 
 AHML EZ EP        024 51.02                               5   -1.311017032  75 
 ACAN SZ EP        024 51.36                               5   -2.191017126  88 
 TCA  EZ EP        024 53.96                               4   -2.051017319  84 
                                                                                
 2011  6 3 0006 50.1 L -34.687 -73.517 44.0  SJA  8 0.3 3.3LSJA 3.2WSJA        1
 SPEC AVERAGE  MO 13.8 ST  2.0 OM  8.7 f0 2.65 R0.5309 AL 2.58 WI 25.7 MW  3.2 3
 SPEC SD       MO  0.0 ST0.000 OM  6.9 f00.000 R0.0000 AL      WI      MW  0.0 3
 GAP=335        0.71      18.2    15.5 16.9 -0.1496E+03 -0.1586E+03  0.1403E+02E
 ACTION:UP  11-06-28 12:11 OP:gs   STATUS:               ID:20110603000650     I
 OLDACT:UP  11-06-03 00:31 OP:mape STATUS:               ID:20110603000709     3
 SPEC ARCOEH Z MO 13.8 ST  2.0 OM  1.8 f0 2.65 R0.5309 AL 2.58 WI 25.7 MW  3.2 3
 SPEC ARCOEH Z T 0 835 K 0.040 GD  473 VS 4.02 DE 3.40 Q0400.0 QA 0.70 VS 4.02 3
 OLDACT:ARG 11-06-02 21:10 OP:auto STATUS:               ID:20110603000709     3
 2011-06-03-0007-09S.NCU___033                                                 6
 STAT SP IPHASW D HRMM SECON CODA AMPLIT PERI AZIMU VELO AIN AR TRES W  DIS CAZ7
 ROC1 HZ EP        0 7 33.41                              92    0.1410  299  51 
 ROC1 HZ ES   4    0 7 59.52                              92   -5.72 0  299  51 
 AUSP SZ EP        0 7 55.43                              72   -0.27 9  471  56 
 AUSP SZ ES        0 8 44.24                              72   -0.02 9  471  56 
 ARCO EZ EP        0 7 55.29                              72    0.06 9  471  66 
 ARCO EZ  IAML     0 8  1.18        30.7 0.46                           471  66 
 ASAL SZ EP        0 7 58.25                              72    0.34 8  493  63 
 ASAL SZ ES        0 8 48.19                              72    0.08 8  493  63 
 RTLS SZ EP        0 8  0.42                              72    0.13 8  507  52 
 RTLS SZ ES   4    0 8 49.79                              72   -2.46 0  507  52 
 RTLL SZ EP        0 8 10.30                              72   -0.66 7  600  53 
 RTLL SZ ES   4    0 9  8.81                              72   -2.00 0  600  53 
 AMOG SZ EP        0 8 13.88                              72   -0.41 7  628  50 
 AGUA SZ EP        0 8 29.39                              72    0.62 6  746  41 
                                                                                
 2011  6 3 0057 39.5 L -31.919 -69.372114.5  SJA  4 0.3 2.5CSJA                1
 GAP=325        0.76       7.3    24.3 10.5 -0.2630E+02 -0.1647E+03 -0.3241E+02E
 ACTION:UP  11-06-28 12:11 OP:gs   STATUS:               ID:20110603005739     I
 OLDACT:UP  11-06-03 07:37 OP:mape STATUS:               ID:20110603005723     3
 OLDACT:ARG 11-06-02 22:01 OP:auto STATUS:               ID:20110603005723     3
 2011-06-03-0057-23S.NCU___032                                                 6
 STAT SP IPHASW D HRMM SECON CODA AMPLIT PERI AZIMU VELO AIN AR TRES W  DIS CAZ7
 RTLS SZ EP        057 56.74   59                        172    0.1210 15.2  28 
 RTLS SZ ES        058  9.26                             172   -0.0610 15.2  28 
 RTCV SZ ES   4    058 20.01                             141    6.40 0 79.0  86 
 RTLL SZ EP        058  1.83                             131    0.3410  107  53 
 RTLL SZ ES   4    058 18.58                             131    0.78 0  107  53 
 AMOG SZ EP        058  3.89                             123   -0.5110  137  38 
 AMOG SZ ES   4    058 21.18                             123   -1.68 0  137  38 
 AGUA SZ ES        058 51.53                             102    0.1110  283  18 
                                                                                
 2011  6 3 0234 42.8 L -31.763 -69.226106.0  SJA  6 0.3 2.4CSJA                1
 GAP=159        0.73       3.1     5.5  5.3 -0.8667E+01 -0.1596E+01 -0.2512E+01E
 ACTION:UP  11-06-28 12:11 OP:gs   STATUS:               ID:20110603023442     I
 OLDACT:UP  11-06-03 07:39 OP:mape STATUS:               ID:20110603023413     3
 OLDACT:ARG 11-06-02 23:37 OP:auto STATUS:               ID:20110603023413     3
 2011-06-03-0234-13S.NCU___033                                                 6
 STAT SP IPHASW D HRMM SECON CODA AMPLIT PERI AZIMU VELO AIN AR TRES W  DIS CAZ7
 RTLS SZ EP        234 58.92   48                        175    0.1210 7.80 239 
 RTLS SZ ES        235 10.93                             175    0.2610 7.80 239 
 AUSP SZ EP        235  0.39   57                        150   -0.0610 53.3 197 
 AUSP SZ ES        235 13.23                             150   -0.3210 53.3 197 
 RTCV SZ ES        235 13.86                             143    0.0710 65.8 100 
 RTLL SZ EP        235  2.32                             135    0.1310 86.0  56 
 RTLL SZ ES        235 16.74                             135    0.1610 86.0  56 
 ASAL SZ EP        235  3.25                             130   -0.2010 99.0 158 
 ASAL SZ ES        235 18.86                             130    0.1010 99.0 158 
 AMOG SZ EP        235  5.24   54                        125    0.3510  115  38 
 AMOG SZ ES        235 20.68                             125   -0.6010  115  38 
                                                                                
 2011  6 3 0237 38.4 L -31.204 -68.722 99.6  SJA  6 0.2 2.4CSJA                1
 GAP=177        0.64       3.1     5.3  4.5 -0.7713E+01  0.6731E+01  0.3508E+01E
 ACTION:UP  11-06-28 12:11 OP:gs   STATUS:               ID:20110603023738     I
 OLDACT:UP  11-06-03 07:41 OP:mape STATUS:               ID:20110603023704     3
 OLDACT:ARG 11-06-02 23:40 OP:auto STATUS:               ID:20110603023704     3
 2011-06-03-0237-04S.NCU___034                                                 6
 STAT SP IPHASW D HRMM SECON CODA AMPLIT PERI AZIMU VELO AIN AR TRES W  DIS CAZ7
 RTLL SZ EP        237 53.37   47                        162   -0.0510 27.3 121 
 RTLL SZ ES        238  4.53                             162    0.0110 27.3 121 
 AMOG SZ EP        237 54.03   58                        157    0.2010 36.6  37 
 AMOG SZ ES        238  5.29                             157    0.0610 36.6  37 
 RTCV SZ EP        237 56.35                             137   -0.0310 75.0 167 
 RTCV SZ ES        238  9.27                             137   -0.4010 75.0 167 
 RTLS SZ EP        237 57.84   51                        133   -0.1610 85.6 219 
 RTLS SZ ES        238 12.72                             133    0.2310 85.6 219 
 AUSP SZ EP        238  2.01                             119   -0.2910  129 209 
 AUSP SZ ES        238 19.85                             119   -0.1210  129 209 
 ASAL SZ EP        238  4.50                             113    0.0610  154 184 
 ASAL SZ ES        238 24.18                             113    0.4810  154 184 
                                                                                
 2011  6 3 0255 43.6 L -31.268 -71.544  5.0F SJA  3 0.8 3.3CSJA                1
 GAP=323        1.61      20.4    23.8  0.0  0.2589E+03  0.6731E+01  0.3508E+01E
 ACTION:UP  11-06-28 12:11 OP:gs   STATUS:               ID:20110603025543     I
 OLDACT:UP  11-06-03 07:48 OP:mape STATUS:               ID:20110603025525     3
 OLDACT:ARG 11-06-02 23:58 OP:auto STATUS:               ID:20110603025525     3
 2011-06-03-0255-25S.NOA___028                                                 6
 STAT SP IPHASW D HRMM SECON CODA AMPLIT PERI AZIMU VELO AIN AR TRES W  DIS CAZ7
 RTLS SZ EP        256 19.56  104                         40   -1.4210  221 106 
 RTLS SZ ES        256 48.37                              40   -0.2410  221 106 
 AUSP SZ EP   4    256 20.02  128                         40   -2.05 0  230 118 
 AUSP SZ ES   4    256 49.01                              40   -1.50 0  230 118 
 AMOG SZ EP        256 30.32                              40    0.7710  293  84 
 ASAL SZ EP        256 30.39                              40    0.5210  295 121 
 ASAL SZ ES        257  4.45                              40    0.3710  295 121 
 PLCA SZ EP   4    256  3.73                              37   -99.9 0 1054 175 
 PLCA SZ ES   4    256 20.48                              37   -99.9 0 1054 175 
                                                                                
 2011  6 3 0727 15.8 D   9.660  92.530 35.0FFPDE 20 3.3                 5.6 PDE1
 GAP=328        7.72     999.9   999.9  0.0  0.1304E+08  0.6731E+01  0.3508E+01E
 2011  6 3 0727 59.7 D  10.222  83.178320.0  SJA 20 2.9                        3
 ACTION:UP  11-06-28 12:11 OP:gs   STATUS:               ID:20110603072715     I
 OLDACT:UP  11-06-03 12:28 OP:mape STATUS:               ID:20110603074600     3
 OLDACT:UP  11-06-03 07:50 OP:mape STATUS:               ID:20110603074600     3
 OLDACT:ARG 11-06-03 04:49 OP:auto STATUS:               ID:20110603074600     3
 2011-06-03-0746-00S.CBA___051                                                 6
 STAT SP IPHASW D HRMM SECON CODA AMPLIT PERI AZIMU VELO AIN AR TRES W  DIS CAZ7
 CANA SZ EP        746 49.95                               5   -4.341016501 205 
 MRA  SZ EP        746 53.59                               5   -2.951016665 218 
 ACAN SZ EP        747  0.28                               5    2.291016774 217 
 AAGR SZ EP     D  747  1.59                               5    2.891016812 214 
 ARCO EZ EP        747  1.69                               5    2.651016839 214 
 ASAL SZ EP        747  2.20                               5    3.001016854 214 
 RTCV SZ EP        747  2.61                               5    2.941016896 216 
 AUSP SZ EP        747  3.42                               5    2.771016919 214 
 RTLL SZ EP        747  3.42                               5    3.221016935 217 
 RTLS SZ EP        747  4.53                               5    3.461016949 215 
 ROC1 HZ EP        746 56.83                               5   -3.821016950 211 
 CYA  EZ EP        746 57.54                               5   -2.951016960 225 
 AMOG SZ EP        747  4.43                               5    3.791016967 217 
 AHML EZ EP        746 58.45                               5   -3.021017033 228 
 AGUA SZ EP        746 59.67                               5   -2.511017081 219 
 VCA  EZ EP        747  7.77                               5    5.041017118 221 
 FSA  SZ EP        746 59.87                               5   -3.221017128 228 
 AZAP SZ EP        746 59.77                               5   -3.921017163 233 
 HJA  EZ EP        747  2.71                               5   -2.461017249 235 
 YJA  EZ EP        747  3.21                               5   -2.871017313 237 
                                                                                
