 2011  6 1 1938 19.1 L -27.306 -66.542  9.9  SJA  4 0.3 2.1LSJA 2.5WSJA        1
 SPEC AVERAGE  MO 12.8 ST0.123 OM 19.8 f0 2.23 R0.6309 AL 5.09 WI 33.8 MW  2.5 3
 SPEC SD       MO  0.0 ST0.000 OM 18.4 f00.000 R0.0000 AL      WI      MW  0.0 3
 GAP=158        0.79       3.6     6.3 13.6 -0.1453E+02  0.3995E+02 -0.3251E+02E
 SPEC CYA EH Z MO 12.8 ST0.123 OM  1.4 f0 2.23 R0.6309 AL 5.09 WI 33.8 MW  2.5 3
 SPEC CYA EH Z T193859 K 0.040 GD  120 VS 4.02 DE 3.40 Q0400.0 QA 0.70 VS 4.02 3
 ACTION:UP  11-06-28 12:11 OP:gs   STATUS:               ID:20110601193819     I
 2011-06-01-1937-47S.NOA___023                                                 6
 STAT SP IPHASW D HRMM SECON CODA AMPLIT PERI AZIMU VELO AIN AR TRES W  DIS CAZ7
 AHML EZ EP       1938 42.36                              54    0.5010  133  65 
 AHML EZ  IAML    1938 48.41        29.4 0.18                           133  65 
 FSA  SZ EP       1938 43.83                              54   -0.1010  144  23 
 FSA  SZ ES       1939  2.04                              54   -0.2310  144  23 
 CYA  EZ EP       1938 43.52                              54   -0.3310  145 150 
 VCA  EZ EP       1938 56.15                              40    0.1510  228 226 
 VCA  EZ  IAML    1938 59.77        17.8 0.30                           228 226 
 AZAP SZ EP   4   1938 58.19                              40   -16.7 0  372  24 
                                                                                
 2011  6 1 2029 16.5 L -31.548 -64.724 18.3  SJA  2 0.0 1.1LSJA 2.2WSJA        1
 SPEC AVERAGE  MO 12.4 ST0.105 OM 20.7 f0 2.98 R0.4721 AL 7.17 WI 24.5 MW  2.2 3
 SPEC SD       MO  0.0 ST0.000 OM 19.8 f00.000 R0.0000 AL      WI      MW  0.0 3
 GAP=196        0.34       4.5     2.8 17.2  0.1193E+02  0.4560E+02  0.7552E+02E
 SPEC MRA SH Z MO 12.4 ST0.105 OM  0.9 f0 2.98 R0.4721 AL 7.17 WI 24.5 MW  2.2 3
 SPEC MRA SH Z T202958 K 0.040 GD  136 VS 4.02 DE 3.40 Q0400.0 QA 0.70 VS 4.02 3
 ACTION:UP  11-06-28 12:11 OP:gs   STATUS:               ID:20110601202916     I
 2011-06-01-2028-30S.CBA___017                                                 6
 STAT SP IPHASW D HRMM SECON CODA AMPLIT PERI AZIMU VELO AIN AR TRES W  DIS CAZ7
 TCA  EZ EP       2029 22.41                             118    0.0110 26.4  27 
 TCA  HZ EP       2029 22.47                  207.4  9.6 114  0        26.4  27 
 TCA  EZ ES       2029 26.79                             118   -0.0110 26.4  27 
 TCA  HZ ES       2029 26.80                             114           26.4  27 
 TCA  EZ  IAML    2029 30.43        24.4 0.50                          26.4  27 
 MRA  SZ EP       2029 39.55                              94    0.0110  135 224 
 MRA  SZ  IAML    2030  0.26         4.0 0.40                           135 224 
                                                                                
 2011  6 1 2229 49.3 L -27.100 -64.845 26.3  SJA  5 0.3 2.4LSJA 2.7WSJA        1
 SPEC AVERAGE  MO 13.2 ST0.032 OM 22.7 f0 1.10 R1.2791 AL 8.38 WI 48.3 MW  2.7 3
 SPEC SD       MO  0.0 ST0.000 OM 20.7 f00.000 R0.0000 AL      WI      MW  0.0 3
 GAP=216        0.88       4.8    11.9  9.4 -0.2014E+02 -0.9190E+02  0.2623E+02E
 SPEC AHMLEH Z MO 13.2 ST0.032 OM  2.0 f0 1.10 R1.2791 AL 8.38 WI 48.3 MW  2.7 3
 SPEC AHMLEH Z T2230 6 K 0.040 GD 65.4 VS 4.02 DE 3.40 Q0400.0 QA 0.70 VS 4.02 3
 ACTION:UP  11-06-28 12:11 OP:gs   STATUS:               ID:20110601222949     I
 2011-06-01-2229-19S.NOA___026                                                 6
 STAT SP IPHASW D HRMM SECON CODA AMPLIT PERI AZIMU VELO AIN AR TRES W  DIS CAZ7
 AHML EZ EP       2230  1.10                             109    0.4810 59.9 306 
 AHML EZ ES       2230  8.64                             109   -0.3810 59.9 306 
 FSA  SZ EP       2230 16.01                              53    0.3110  157 314 
 FSA  SZ  IAML    2230 35.58        43.3 0.32                           157 314 
 CYA  EZ EP       2230 17.40                              53   -0.3010  176 212 
 CYA  EZ  IAML    2230 39.01        65.1 0.36                           176 212 
 AZAP SZ EP       2230 36.34                              53   -0.2710  319 356 
 AZAP SZ  IAML    2231 36.51         9.5 0.30                           319 356 
 VCA  EZ EP       2230 43.83                              53    0.18 9  377 241 
                                                                                
 2011  6 1 2249 12.2 L -31.289 -67.973 17.8  SJA  9 0.2 2.1LSJA                1
 GAP=160        0.55       2.3     2.7  4.0  0.1907E+01 -0.5253E+01 -0.3242E+01E
 SPEC MRA SH Z MO  0.0 ST0.000 OM  1.7 f0 3.90 R0.3813 AL 3.01 WI 22.0 MW  0.0 3
 SPEC MRA SH Z T225021 K 0.040 GD    0 VS 4.02 DE 3.40 Q0400.0 QA 0.70 VS 4.02 3
 ACTION:UP  11-06-28 12:11 OP:gs   STATUS:               ID:20110601224912     I
 2011-06-01-2248-21S.JUJ___038                                                 6
 STAT SP IPHASW D HRMM SECON CODA AMPLIT PERI AZIMU VELO AIN AR TRES W  DIS CAZ7
 RTLL SZ EP       2249 21.60                             103    0.2210 48.0 264 
 RTLL SZ ES       2249 28.17                             103    0.0210 48.0 264 
 AMOG SZ EP       2249 23.45                              99   -0.3110 62.9 308 
 RTCV SZ EP       2249 27.20                              96    0.2010 83.3 220 
 ACAN SZ EP       2249 34.76                              94   -0.0610  132 146 
 RTLS SZ EP       2249 36.25                              94   -0.1010  138 245 
 AUSP SZ EP       2249 41.14                              53   -0.1910  169 232 
 AGUA SZ EP       2249 45.64                              53    0.2210  206 346 
 VCA  EZ  IAML    2250 34.96        10.4 0.26                           284 355 
 TCA  EZ  IAML    2250 44.55         5.4 0.22                           322  92 
                                                                                
 2011  6 1 2304 37.6 L -31.098 -67.463105.7  SJA 10 0.3 2.6LSJA 3.3WSJA        1
 SPEC AVERAGE  MO 14.0 ST0.166 OM 24.9 f00.996 R1.4127 AL12.14 WI 72.5 MW  3.3 3
 SPEC SD       MO  0.0 ST0.000 OM 22.7 f00.000 R0.0000 AL      WI      MW  0.0 3
 GAP=112        0.74       3.6     4.2  9.4  0.4634E+01 -0.2593E+02 -0.1280E+02E
 SPEC VCA EH Z MO 14.0 ST0.166 OM  2.2 f00.996 R1.4127 AL12.14 WI 72.5 MW  3.3 3
 SPEC VCA EH Z T23 541 K 0.040 GD  290 VS 4.02 DE 3.40 Q0400.0 QA 0.70 VS 4.02 3
 ACTION:UP  11-06-28 12:11 OP:gs   STATUS:               ID:20110601230437     I
 2011-06-01-2304-13S.CBA___048                                                 6
 STAT SP IPHASW D HRMM SECON CODA AMPLIT PERI AZIMU VELO AIN AR TRES W  DIS CAZ7
 RTLL SZ EP       23 4 58.08                             130   -0.1310 99.7 255 
 RTLL SZ ES       23 5 13.29                             130   -0.2010 99.7 255 
 AMOG SZ EP       23 4 58.35                             130    0.1110 99.9 280 
 ACAN SZ EP       23 5  2.10                             120    0.6210  133 169 
 RTCV SZ EP       23 5  1.56                             120    0.0610  133 230 
 RTLS SZ EP       23 5  8.51                             109   -0.0610  191 245 
 AGUA SZ EP       23 5  9.55                             107    0.0710  204 331 
 MRA  SZ EP       23 5 11.45                             105    0.0110  221 132 
 AUSP SZ EP       23 5 11.83                             105   -0.2110  221 235 
 VCA  EZ EP       23 5 17.68                             100    0.2110  271 345 
 VCA  EZ  IAML    23 5 51.84        34.9 0.46                           271 345 
 TCA  EZ EP       23 5 17.28                             100   -0.4810  275  96 
 TCA  EZ  IAML    23 5 44.04        15.0 0.42                           275  96 
                                                                                
 2011  6 2 0200 50.2 L -32.363 -69.715104.2  SJA  9 0.1 2.5LSJA                1
 GAP=152        0.44       3.4     3.6  3.4 -0.6635E+01 -0.1626E+01  0.2135E+01E
 ACTION:UP  11-06-28 12:11 OP:gs   STATUS:               ID:20110602020050     I
 OLDACT:UP  11-06-02 10:20 OP:cr   STATUS:               ID:20110602015926     3
 OLDACT:ARG 11-06-01 23:04 OP:auto STATUS:               ID:20110602015926     3
 2011-06-02-0159-26S.NCU___031                                                 6
 STAT SP IPHASW D HRMM SECON CODA AMPLIT PERI AZIMU VELO AIN AR TRES W  DIS CAZ7
 AUSP SZ EP        2 1  6.93                             159    0.2510 34.5  63 
 RTLS SZ EP        2 1  9.23                             139    0.0610 74.0  32 
 RTLS SZ ES        2 1 23.08                             139   -0.1510 74.0  32 
 RTCV SZ EP        2 1 13.16                             122    0.0810  124  64 
 ROC1 HZ EP        2 1 14.88                             118   -0.1110  140 241 
 SJA  SZ EP   4    2 1 19.41                             117    4.33 0  143  50 
 RTLL SZ EP        2 1 17.35                             113   -0.0510  164  46 
 AMOG SZ EP        2 1 20.87                             107   -0.1610  196  37 
 ACAN SZ EP        2 1 25.84                             102   -0.0810  238  88 
 AGUA SZ EP        2 1 38.32                              95    0.1810  340  20 
 MRA  SZ EP   4    2 1 41.22                              94   -1.33 0  376  92 
 MRA  SZ  IAML     2 2 25.24         8.9 0.55                           376  92 
 VCA  EZ EP   4    2 1 43.61                              92   -5.18 0  427  20 
                                                                                
 2011  6 2 0327 12.0 L -29.829 -69.715320.0  SJA  4 0.0 2.5LSJA                1
 GAP=237        0.30       3.5     8.3  0.0 -0.1960E+02 -0.1626E+01  0.2135E+01E
 ACTION:UPD 11-06-28 12:11 OP:gs   STATUS:               ID:20110602032712     I
 OLDACT:UP  11-06-02 15:42 OP:tit  STATUS:               ID:20110602032712d    3
 OLDACT:UP  11-06-02 15:40 OP:tito STATUS:               ID:20110602032712d    3
 OLDACT:UP  11-06-02 13:38 OP:tito STATUS:               ID:20110602032712d    3
 OLDACT:UP  11-06-02 13:37 OP:tito STATUS:               ID:20110602032712d    3
 OLDACT:UP  11-06-02 10:27 OP:cr   STATUS:               ID:20110602032711     3
 OLDACT:ARG 11-06-02 00:31 OP:auto STATUS:               ID:20110602032711     3
 2011-06-02-0327-11S.NCU___032                                                 6
 STAT SP IPHASW D HRMM SECON CODA AMPLIT PERI AZIMU VELO AIN AR TRES W  DIS CAZ7
 AMOG SZ ES        328 30.85                             150    0.0010  170 137 
 VCA  EZ ES        328 33.17                             147   -0.0010  190  51 
 AUSP SZ EP        328  4.63                             137   -0.0010  267 173 
 MRA  SZ EP   4    328 37.96                             118   14.93 0  477 128 
 MRA  SZ  IAML     329 37.32         2.5 0.55                           477 128 
                                                                                
 2011  6 2 0327 47.5 L -31.802 -69.662 98.0  SJA  7 0.2 1.9LSJA                1
 GAP=186        0.50       6.9     7.2  4.4 -0.4154E+02  0.1562E+02 -0.1281E+02E
 ACTION:UP  11-06-28 12:11 OP:gs   STATUS:               ID:20110602032747     I
 OLDACT:UP  11-06-02 10:27 OP:cr   STATUS:               ID:20110602032711     3
 OLDACT:ARG 11-06-02 00:31 OP:auto STATUS:               ID:20110602032711     3
 2011-06-02-0327-11S.NCU___032                                                 6
 STAT SP IPHASW D HRMM SECON CODA AMPLIT PERI AZIMU VELO AIN AR TRES W  DIS CAZ7
 RTLS SZ EP        328  3.57                             158    0.1910 34.7  89 
 RTLS SZ ES        328 14.97                             158   -0.1510 34.7  89 
 AUSP SZ EP        328  4.63                             147    0.2210 53.4 151 
 RTCV SZ EP        328  8.19                             125   -0.0610  106  94 
 RTLL SZ EP        328  9.89                             119   -0.2210  124  65 
 AMOG SZ EP        328 12.71                             114    0.1510  147  50 
 ROC1 HZ EP        328 16.68                             108   -0.1310  182 224 
 AGUA SZ EP   4    328  9.10                              98   -19.2 0  280  24 
 VCA  EZ EP   4    328 15.75                              95   -23.2 0  368  23 
 MRA  SZ EP   4    328 37.96                              95   -2.21 0  379 101 
 MRA  SZ  IAML     329 37.32         2.5 0.55                           379 101 
                                                                                
 2011  6 2 0327 47.1 L -31.766 -69.645 99.2  SJA  6 0.5 1.9LSJA                1
 GAP=203        1.33      12.6    11.0 10.7 -0.1185E+03  0.6870E+02 -0.6295E+02E
 ACTION:UP  11-06-28 12:11 OP:gs   STATUS:               ID:20110602032748d    I
 OLDACT:UP  11-06-02 16:18 OP:tit  STATUS:               ID:20110602032713d    3
 OLDACT:UP  11-06-02 13:38 OP:tito STATUS:               ID:20110602032712d    3
 OLDACT:UP  11-06-02 13:37 OP:tito STATUS:               ID:20110602032712d    3
 OLDACT:UP  11-06-02 10:27 OP:cr   STATUS:               ID:20110602032711     3
 OLDACT:ARG 11-06-02 00:31 OP:auto STATUS:               ID:20110602032711     3
 2011-06-02-0327-11S.NCU___032                                                 6
 STAT SP IPHASW D HRMM SECON CODA AMPLIT PERI AZIMU VELO AIN AR TRES W  DIS CAZ7
 RTLS SZ EP        328  3.58                             159    0.5810 33.3  96 
 RTLS SZ ES        328 14.97                             159    0.1810 33.3  96 
 AUSP SZ EP        328  4.63                             146    0.3610 56.3 154 
 AUSP SZ ES        328 16.80                             146   -0.1910 56.3 154 
 RTCV SZ EP        328  8.19                             126    0.4310  105  96 
 RTCV SZ ES        328 23.07                             126    0.0010  105  96 
 RTLL SZ EP        328  9.82                             121    0.4210  121  67 
 RTLL SZ ES        328 24.74                             121   -1.1810  121  67 
 AMOG SZ EP   4    328 12.71                             115    0.97 0  143  50 
 ROC1 HZ EP        328 16.68                             108   -0.1910  186 223 
 ROC1 HZ ES        328 38.49                             108   -0.4210  186 223 
 AGUA SZ EP   4    328  9.10                              99   -18.2 0  276  24 
 VCA  EZ EP   4    328 15.75                              95   -22.2 0  363  23 
 VCA  EZ ES   4    328 33.17                              95   -42.4 0  363  23 
 MRA  SZ EP   4    328 37.96                              95   -1.67 0  378 102 
 MRA  SZ  IAML     329 37.32         2.5 0.55                           378 102 
                                                                                
 2011  6 2 0540 25.1 L -27.658 -68.673131.1  SJA 12 0.2 2.9LSJA 3.4WSJA        1
 SPEC AVERAGE  MO 14.2 ST  8.3 OM 27.5 f0 3.15 R0.4467 AL 2.44 WI 27.9 MW  3.4 3
 SPEC SD       MO  0.0 ST0.000 OM 24.9 f00.000 R0.0000 AL      WI      MW  0.0 3
 GAP=202        0.67       5.3     5.3  6.4 -0.1362E+02  0.1310E+02 -0.1263E+02E
 SPEC VCA EH Z MO 14.2 ST  8.3 OM  2.6 f0 3.15 R0.4467 AL 2.44 WI 27.9 MW  3.4 3
 SPEC VCA EH Z T 541 6 K 0.040 GD  183 VS 4.02 DE 3.40 Q0400.0 QA 0.70 VS 4.02 3
 ACTION:UP  11-06-28 12:11 OP:gs   STATUS:               ID:20110602054025     I
 2011-06-02-0540-11S.NOA___047                                                 6
 STAT SP IPHASW D HRMM SECON CODA AMPLIT PERI AZIMU VELO AIN AR TRES W  DIS CAZ7
 VCA  EZ EP        540 50.71                             130    0.2210  128 159 
 VCA  EZ ES        541  9.06                             130   -0.2010  128 159 
 VCA  EZ  IAML     541  9.24       304.8 0.26                           128 159 
 AGUA SZ EP        540 58.73                             115    0.6410  204 175 
 AANI PZ EP        540 58.95                             114   -0.2410  213 127 
 LCO  BE EP        541  3.17                             110   -0.1710  249 233 
 AHML EZ EP        541 14.14                             102    0.0110  345  74 
 AMOG SZ EP        541 16.30                             101   -0.17 9  364 177 
 RTLL SZ EP        541 21.43                              99   -0.15 9  407 177 
 RTLS SZ EP        541 28.88                              96    0.01 9  463 187 
 RTCV SZ EP        541 28.71                              96    0.13 9  466 178 
 AUSP SZ EP        541 34.32                              95   -0.23 8  511 188 
 ACAN SZ EP        541 36.45                              95    0.10 8  531 165 
 TCA  EZ EP   4    541 39.42                              94   -1.38 0  568 137 
 TCA  EZ  IAML     542 51.58         3.6 0.60                           568 137 
 MRA  SZ EP   4    541 43.78                              93   -0.84 0  600 152 
                                                                                
 2011  6 2 0541 34.7 L -21.304 -66.033228.2  SJA  3 0.1 2.6LSJA 3.0WSJA        1
 SPEC AVERAGE  MO 13.6 ST 16.2 OM 29.3 f0 6.52 R0.2158 AL 2.91 WI 28.9 MW  3.0 3
 SPEC SD       MO  0.0 ST0.000 OM 27.5 f00.000 R0.0000 AL      WI      MW  0.0 3
 GAP=348        0.41      11.9    84.1 13.4  0.8708E+03  0.1069E+04  0.1284E+03E
 SPEC YJA EH E MO 13.6 ST 16.2 OM  1.8 f0 6.52 R0.2158 AL 2.91 WI 28.9 MW  3.0 3
 SPEC YJA EH E T 54230 K 0.040 GD  253 VS 4.02 DE 3.40 Q0400.0 QA 0.70 VS 4.02 3
 ACTION:UP  11-06-28 12:11 OP:gs   STATUS:               ID:20110602054134     I
 2011-06-02-0540-11S.NOA___047                                                 6
 STAT SP IPHASW D HRMM SECON CODA AMPLIT PERI AZIMU VELO AIN AR TRES W  DIS CAZ7
 YJA  EE EP        542  8.52                             151   -0.1510  110 151 
 YJA  EE ES        542 33.92                             151    0.0810  110 151 
 YJA  EE  IAML     542 37.29        48.6 0.48                           110 151 
 HJA  EZ EP        542 16.64                             131    0.1510  220 163 
 HJA  EZ ES        542 47.37                             131   -0.0810  220 163 
 HJA  EZ  IAML     542 51.50        17.8 0.56                           220 163 
 AZAP SZ EP        542 27.35                             117   -0.0010  338 163 
 AZAP SZ  IAML     543 11.16        10.8 0.24                           338 163 
                                                                                
