 2011  6 1 0014 36.7 L -21.654 -68.660109.3  SJA  9 0.3 3.6LSJA 4.1WSJA        1
 SPEC AVERAGE  MO 15.2 ST0.186 OM  3.3 f00.419 R3.3580 AL 4.43 WI 84.7 MW  4.1 3
 SPEC SD       MO  0.0 ST0.000 OM  0.0 f00.000 R0.0000 AL      WI      MW  0.0 3
 GAP=267        0.70      11.9    12.2 10.8 -0.9885E+02 -0.9203E+02  0.1666E+02E
 SPEC YJA EH Z MO 15.2 ST0.186 OM  3.3 f00.419 R3.3580 AL 4.43 WI 84.7 MW  4.1 3
 SPEC YJA EH Z T 01557 K 0.040 GD  347 VS 4.02 DE 3.40 Q0400.0 QA 0.70 VS 4.02 3
 ACTION:UP  11-06-28 12:11 OP:gs   STATUS:               ID:20110601001436     I
 OLDACT:UP  11-06-01 12:39 OP:cr   STATUS:               ID:20110601001442     3
 OLDACT:ARG 11-05-31 21:19 OP:auto STATUS:               ID:20110601001442     3
 2011-06-01-0014-42S.CBA___040                                                 6
 STAT SP IPHASW D HRMM SECON CODA AMPLIT PERI AZIMU VELO AIN AR TRES W  DIS CAZ7
 LVC  BZ EP        014 58.92                             128    0.0910  109 194 
 LVC  BZ ES     D  015 15.18                             128   -0.0610  109 194 
 YJA  EZ EP        015 24.40                              98   -0.1410  330 101 
 YJA  EZ  IAML     015 28.64        86.0 0.70                           330 101 
 HJA  EZ EP        015 30.09                              96    0.15 9  376 118 
 HJA  EZ  IAML     015 31.70       100.4 0.42                           376 118 
 AZAP SZ EP        015 39.93                              93   -0.40 9  466 128 
 AZAP SZ  IAML     015 43.48        28.3 0.50                           466 128 
 SLA  HZ EP        015 41.20                              93    0.70 9  469 137 
 SLA  HZ  IAML     015 43.02        67.6 0.76                           469 137 
 ASTB SZ EP   4    015 43.18                              93   -1.20 0  501 121 
 FSA  SZ EP        015 51.83                              92   -0.24 8  564 152 
 AHML EZ EP     D  016  3.24                              92   -0.16 7  661 150 
 AHML EZ  IAML     016  4.48        17.7 0.76                           661 150 
 VCA  EZ EP        016 18.60                              91   -0.04 6  786 177 
 VCA  EZ  IAML     017 16.85        30.2 0.56                           786 177 
 CYA  EZ  IAML     016 22.99         7.5 0.54                           805 160 
                                                                                
 2011  6 1 0056 52.5 L -30.480 -70.462128.1  SJA 12 0.4 3.9LSJA 4.0WSJA        1
 SPEC AVERAGE  MO 15.0 ST0.483 OM  4.7 f00.637 R2.2398 AL 6.80 WI 88.4 MW  4.0 3
 SPEC SD       MO  0.0 ST0.183 OM  1.7 f00.075 R0.2637 AL      WI      MW  0.0 3
 GAP=218        1.05       6.8    12.3 26.9 -0.4670E+02  0.2358E+03 -0.8192E+02E
 FELTPROV: CHILE                                                               3
 SPEC VCA EH Z MO 15.1 ST0.667 OM  3.2 f00.712 R1.9761 AL10.99 WI 59.4 MW  4.0 3
 SPEC VCA EH Z T 058 4 K 0.040 GD  318 VS 4.02 DE 3.40 Q0400.0 QA 0.70 VS 4.02 3
 SPEC TCA EH Z MO 15.0 ST0.300 OM  2.9 f00.562 R2.5036 AL 2.60 WI117.5 MW  4.0 3
 SPEC TCA EH Z T 05855 K 0.040 GD  583 VS 4.02 DE 3.40 Q0400.0 QA 0.70 VS 4.02 3
 ACTION:UP  11-06-28 12:11 OP:gs   STATUS:               ID:20110601005652     I
 OLDACT:UP  11-06-01 12:58 OP:cr   STATUS:               ID:20110601005631     3
 OLDACT:UP  11-06-01 12:58 OP:cr   STATUS:               ID:20110601005631     3
 OLDACT:ARG 11-05-31 22:01 OP:auto STATUS:               ID:20110601005631     3
 2011-06-01-0056-31S.CBA___049                                                 6
 STAT SP IPHASW D HRMM SECON CODA AMPLIT PERI AZIMU VELO AIN AR TRES W  DIS CAZ7
 RTLS SZ EP        057 23.95                             117    0.1810  184 143 
 AMOG SZ EP        057 24.21                             115   -0.1410  195 106 
 AMOG SZ ES        057 47.92                             115   -0.0210  195 106 
 RTLL SZ EP        057 25.37                             113   -0.7910  212 117 
 AUSP SZ EP        057 28.34                             112    0.7910  219 152 
 AGUA SZ EP        057 27.08                             112    0.0010  220  60 
 RTCV SZ EP        057 29.34                             110    0.1810  239 130 
 ROC1 HN EP        057 33.90                             105   -0.4210  282 191 
 VCA  EZ EP        057 35.56                             105    0.2010  292  49 
 VCA  EZ  IAML     058 11.96       504.7 0.56                           292  49 
 ACAN SZ EP        057 44.37                              99    0.03 9  369 123 
 AANI PZ EP   4    057 45.90                              99   -0.78 0  388  62 
 MRA  SZ EP   4    057 59.11                              94   -0.82 0  500 117 
 MRA  SZ  IAML     058 50.48       120.3 0.40                           500 117 
 CYA  EZ EP   4    057 58.93                              94   -1.58 0  505  65 
 CYA  EZ  IAML     058  1.18        70.9 0.68                           505  65 
 TCA  EZ EP   4    058  6.54                              93   -1.67 0  569 101 
 TCA  EZ  IAML     059  6.94        58.0 0.64                           569 101 
 FSA  SZ EP   4    058 19.67                              92    0.95 0  654  43 
                                                                                
 2011  6 1 0113 21.2 L -24.121 -67.119210.2  SJA  5 0.2 2.3LSJA 2.7WSJA        1
 SPEC AVERAGE  MO 13.1 ST0.073 OM  6.0 f0 1.51 R0.9318 AL 4.22 WI 50.8 MW  2.7 3
 SPEC SD       MO  0.0 ST0.000 OM  4.7 f00.000 R0.0000 AL      WI      MW  0.0 3
 GAP=245        0.49       4.4    25.0 23.6 -0.5891E+02  0.5433E+03 -0.3774E+02E
 SPEC HJA EH Z MO 13.1 ST0.073 OM  1.3 f0 1.51 R0.9318 AL 4.22 WI 50.8 MW  2.7 3
 SPEC HJA EH Z T 11425 K 0.040 GD  291 VS 4.02 DE 3.40 Q0400.0 QA 0.70 VS 4.02 3
 ACTION:UP  11-06-28 12:11 OP:gs   STATUS:               ID:20110601011321     I
 2011-06-01-0113-03S.JUJ___026                                                 6
 STAT SP IPHASW D HRMM SECON CODA AMPLIT PERI AZIMU VELO AIN AR TRES W  DIS CAZ7
 SLA  HZ EP        113 57.68                             135    0.3210  177 112 
 HJA  EZ EP        113 59.97                             131   -0.1010  202  60 
 HJA  EZ  IAML     114  2.88        12.7 0.50                           202  60 
 HJA  EZ ES        114 28.76                             131   -0.0510  202  60 
 AZAP SZ EP        114  0.23                             130   -0.0810  209  94 
 AZAP SZ  IAML     114  0.81        13.0 0.28                           209  94 
 FSA  SZ EP        114  3.66                             124   -0.1510  249 153 
 YJA  EZ EP        114  6.74                             122    0.0610  271  38 
                                                                                
 2011  6 1 0114 11.7 L -31.665 -69.856 89.3  SJA  3 0.2 2.0CSJA                1
 GAP=274        0.48       7.4    19.4 10.8 -0.1130E+03  0.1730E+03 -0.6960E+02E
 ACTION:UP  11-06-28 12:11 OP:gs   STATUS:               ID:20110601011411     I
 2011-06-01-0113-03S.JUJ___026                                                 6
 STAT SP IPHASW D HRMM SECON CODA AMPLIT PERI AZIMU VELO AIN AR TRES W  DIS CAZ7
 RTLS SZ EP        114 28.07                             143    0.2110 55.1 106 
 RTLS SZ ES        114 39.70                             143   -0.1210 55.1 106 
 AUSP SZ EP        114 29.35   35                        132   -0.2110 76.2 145 
 AUSP SZ ES        114 42.89                             132    0.1210 76.2 145 
 AMOG SZ EP        114 37.03                             108   -0.0010  153  59 
                                                                                
 2011  6 1 0506 22.7 L -31.236 -68.701101.5  SJA 13 0.3 2.8LSJA 3.4WSJA        1
 SPEC AVERAGE  MO 14.1 ST0.100 OM  8.3 f00.771 R1.8249 AL 3.65 WI 66.7 MW  3.4 3
 SPEC SD       MO  0.0 ST0.000 OM  6.0 f00.000 R0.0000 AL      WI      MW  0.0 3
 GAP=144        0.90       3.7     6.0  4.9 -0.5953E+00 -0.8646E+01 -0.5336E+01E
 SPEC VCA EH Z MO 14.1 ST0.100 OM  2.3 f00.771 R1.8249 AL 3.65 WI 66.7 MW  3.4 3
 SPEC VCA EH Z T 5 731 K 0.040 GD  298 VS 4.02 DE 3.40 Q0400.0 QA 0.70 VS 4.02 3
 ACTION:UP  11-06-28 12:11 OP:gs   STATUS:               ID:20110601050622     I
 2011-06-01-0505-45S.NCU___033                                                 6
 STAT SP IPHASW D HRMM SECON CODA AMPLIT PERI AZIMU VELO AIN AR TRES W  DIS CAZ7
 RTLL SZ EP        5 6 37.61                             165   -0.1410 23.8 116 
 RTLL SZ ES        5 6 48.60                             165   -0.3210 23.8 116 
 SJA  SZ EP        5 6 38.55                             158    0.4010 35.0 158 
 SJA  SZ  IAML     5 6 38.90       452.8 0.12                          35.0 158 
 AMOG SZ EP        5 6 38.65                             156    0.2910 38.4  31 
 RTCV SZ EP        5 6 40.53                             139    0.0710 71.1 168 
 RTLS SZ EP        5 6 41.97                             134   -0.3010 84.2 222 
 AUSP SZ EP        5 6 46.23                             120   -0.1910  127 211 
 ACAN SZ EP        5 6 52.56                             108    0.5710  184 129 
 AGUA SZ EP        5 6 53.69                             106    0.3310  195   6 
 VCA  EZ EP        5 7  3.78                              97    0.1410  281  10 
 VCA  EZ  IAML     5 7 40.72        48.8 0.26                           281  10 
 MRA  SZ EP        5 7  7.28                              95    0.0710  311 116 
 MRA  SZ  IAML     5 7 41.96        61.4 0.45                           311 116 
 AANI PZ EP        5 7  7.59                              95   -0.4610  318  33 
 AANI PZ  IAML     5 7 51.93        29.4 0.55                           318  33 
 TCA  EZ EP        5 7 16.26                              91   -0.55 9  391  93 
 TCA  EZ  IAML     5 7 57.68         6.6 0.34                           391  93 
 CYA  EZ EP   4    5 7 18.47                              91   -1.46 0  418  43 
 CYA  EZ  IAML     5 8  2.17         8.5 0.44                           418  43 
                                                                                
 2011  6 1 0707  2.2 L -31.262 -68.941 93.3  SJA  8 0.1 2.0LSJA                1
 GAP=163        0.31       2.6     5.4  4.8 -0.1017E+02  0.2135E+02 -0.8583E+01E
 ACTION:UP  11-06-28 12:11 OP:gs   STATUS:               ID:20110601070702     I
 2011-06-01-0706-23S.NCU___032                                                 6
 STAT SP IPHASW D HRMM SECON CODA AMPLIT PERI AZIMU VELO AIN AR TRES W  DIS CAZ7
 RTLL SZ EP        7 7 17.38                             150   -0.0210 45.0 100 
 RTLL SZ ES        7 7 28.56                             150   -0.0510 45.0 100 
 AMOG SZ EP        7 7 18.26                             144    0.1310 55.7  50 
 RTLS SZ EP        7 7 19.79                             138   -0.0110 68.5 209 
 RTCV SZ EP        7 7 19.79                             134    0.0010 76.6 150 
 AUSP SZ EP        7 7 24.18                             120    0.0110  115 202 
 AGUA SZ EP        7 7 33.39                             102   -0.0610  201  13 
 VCA  EZ  IAML     7 8 18.33         4.1 0.30                           289  14 
 TCA  EZ  IAML     7 8 19.13         3.8 0.18                           414  92 
                                                                                
 2011  6 1 0838 52.0 L -31.350 -69.116111.8  SJA 10 0.2 1.7LSJA 2.2WSJA        1
 SPEC AVERAGE  MO 12.4 ST0.247 OM  8.8 f0 3.90 R0.3608 AL 9.64 WI 18.8 MW  2.2 3
 SPEC SD       MO  0.0 ST0.000 OM  8.3 f00.000 R0.0000 AL      WI      MW  0.0 3
 GAP=152        0.50       3.6     5.5  4.7 -0.1385E+02  0.1281E+02 -0.1152E+02E
 SPEC MRA SH Z MO 12.4 ST0.247 OM  0.5 f0 3.90 R0.3608 AL 9.64 WI 18.8 MW  2.2 3
 SPEC MRA SH Z T 84012 K 0.040 GD  360 VS 4.02 DE 3.40 Q0400.0 QA 0.70 VS 4.02 3
 ACTION:UP  11-06-28 12:11 OP:gs   STATUS:               ID:20110601083852     I
 2011-06-01-0838-14S.NCU___035                                                 6
 STAT SP IPHASW D HRMM SECON CODA AMPLIT PERI AZIMU VELO AIN AR TRES W  DIS CAZ7
 RTLS SZ EP        839 10.37                             152    0.0410 52.6 199 
 RTLS SZ ES        839 23.89                             152    0.0110 52.6 199 
 SJA  SZ EP        839  9.77                             149   -0.0410 56.4 111 
 SJA  SZ  IAML     839 11.89        25.9 0.12                          56.4 111 
 RTLL SZ EP        839  9.87                             147   -0.2610 61.1  88 
 AMOG SZ EP        839 10.98                             141   -0.1410 74.9  53 
 RTCV SZ EP        839 11.57                             140    0.1710 78.8 136 
 AUSP SZ EP        839 14.14                             132    0.2610  100 195 
 AGUA SZ EP        839 25.64                             108    0.2110  215  16 
 ROC1 HZ EP        839 29.94                             104   -0.2310  254 224 
 VCA  EZ EP        839 35.78                             100   -0.0110  303  17 
 VCA  EZ  IAML     840 16.89         2.3 0.20                           303  17 
 MRA  SZ EP   4    839 43.37                              98    2.86 0  343 111 
 MRA  SZ  IAML     840 14.97         1.5 0.65                           343 111 
                                                                                
 2011  6 1 0920 13.8 L -29.749 -68.664106.4  SJA  7 0.2 2.2LSJA 2.9WSJA        1
 SPEC AVERAGE  MO 13.5 ST0.291 OM 10.7 f0 1.84 R0.7647 AL 5.49 WI 23.7 MW  2.9 3
 SPEC SD       MO  0.0 ST0.000 OM  8.8 f00.000 R0.0000 AL      WI      MW  0.0 3
 GAP=187        0.49       3.5    13.5  4.7 -0.2581E+02  0.1777E+02  0.7298E+01E
 SPEC VCA EH Z MO 13.5 ST0.291 OM  1.9 f0 1.84 R0.7647 AL 5.49 WI 23.7 MW  2.9 3
 SPEC VCA EH Z T 92052 K 0.040 GD  161 VS 4.02 DE 3.40 Q0400.0 QA 0.70 VS 4.02 3
 ACTION:UP  11-06-28 12:11 OP:gs   STATUS:               ID:20110601092013     I
 2011-06-01-0919-53S.NCU___033                                                 6
 STAT SP IPHASW D HRMM SECON CODA AMPLIT PERI AZIMU VELO AIN AR TRES W  DIS CAZ7
 AGUA SZ EP        920 30.03                             160    0.1310 33.5  30 
 AGUA SZ ES        920 41.77                             160   -0.0310 33.5  30 
 VCA  EZ EP        920 36.63                             124   -0.0610  121  22 
 VCA  EZ  IAML     920 55.61        36.6 0.22                           121  22 
 AMOG SZ EP        920 37.59                             120   -0.2210  133 173 
 RTLL SZ EP        920 42.58                             111    0.0710  176 174 
 RTLS SZ EP        920 50.19                             104    0.1910  235 195 
 RTCV SZ EP        920 49.42                             104    0.1710  235 177 
 AUSP SZ EP        920 55.37                             100   -0.2510  283 194 
                                                                                
 2011  6 1 1114 52.8 L -43.164 -72.042170.6FFGUC  4 1.1 4.3WSJA         4.4 PDE1
 SPEC AVERAGE  MO 15.6 ST  2.4 OM 14.4 f00.725 R1.9407 AL 2.60 WI109.2 MW  4.3 3
 SPEC SD       MO  0.0 ST0.000 OM 10.7 f00.000 R0.0000 AL      WI      MW  0.0 3
 GAP=343        0.92      28.0    51.0  0.0 -0.1122E+04  0.1777E+02  0.7298E+01E
 FELTINFO: Fuente: GUC                                                         3
 LOCALITY: El epicentro se ubicó al oeste de  la ciudad de Esquel              3
 LOCALITY: en la provincia de Chubut, en las cercanías del límite con Chile    3
 FELTPROV:                                                                     3
 SPEC PLCASH Z MO 15.6 ST  2.4 OM  3.7 f00.725 R1.9407 AL 2.60 WI109.2 MW  4.3 3
 SPEC PLCASH Z T1116 8 K 0.040 GD  342 VS 4.02 DE 3.40 Q0400.0 QA 0.70 VS 4.02 3
 ACTION:UP  11-06-28 12:11 OP:gs   STATUS:               ID:20110601111452     I
 OLDACT:UP  11-06-01 12:33 OP:cr   STATUS:               ID:20110601111400     3
 OLDACT:UP  11-06-01 12:32 OP:cr   STATUS:               ID:20110601111400     3
 OLDACT:UP  11-06-01 12:28 OP:cr   STATUS:               ID:20110601111400     3
 OLDACT:UP  11-06-01 12:26 OP:cr   STATUS:               ID:20110601111400     3
 2011-06-01-1114-00S.MAN___088                                                 6
 STAT SP IPHASW D HRMM SECON CODA AMPLIT PERI AZIMU VELO AIN AR TRES W  DIS CAZ7
 PLCA SZ EP       1115 37.75                             112   -0.1510  297  25 
 PLCA SZ ES       1116 11.26                             112    0.0110  297  25 
 CANA SZ EP       1116 12.43                              96    0.65 8  592   8 
 AUSP SZ EP       1117 25.00                              79   -2.94 2 1236  12 
 RTLS SZ EP       1117 30.59                              79   -2.92 2 1284  12 
                                                                                
 2011  6 1 1118 30.3 L -26.455 -65.029  7.1  SJA  4 0.2 2.5LSJA 3.1WSJA        1
 SPEC AVERAGE  MO 13.7 ST0.220 OM 16.3 f0 1.44 R0.9771 AL 7.06 WI 23.2 MW  3.1 3
 SPEC SD       MO  0.0 ST0.000 OM 14.4 f00.000 R0.0000 AL      WI      MW  0.0 3
 GAP=221        0.57       3.1     6.6  8.8 -0.1522E+02 -0.1079E+02  0.1086E+02E
 SPEC AHMLEH Z MO 13.7 ST0.220 OM  1.9 f0 1.44 R0.9771 AL 7.06 WI 23.2 MW  3.1 3
 SPEC AHMLEH Z T111841 K 0.040 GD 48.1 VP 7.00 DE 3.40 Q0400.0 QA 0.70 VS 4.02 3
 ACTION:UP  11-06-28 12:11 OP:gs   STATUS:               ID:20110601111830     I
 2011-06-01-1118-12S.JUJ___024                                                 6
 STAT SP IPHASW D HRMM SECON CODA AMPLIT PERI AZIMU VELO AIN AR TRES W  DIS CAZ7
 AHML EZ EP       1118 39.59                              54    0.0410 47.6 220 
 AHML EZ ES       1118 46.39                              54   -0.0210 47.6 220 
 FSA  SZ EP       1118 48.64                              54   -0.0710  102 292 
 SLA  HZ EP       1119  4.24                              40    0.3310  198 346 
 SLA  HZ  IAML    1119  6.65        50.9 0.58                           198 346 
 CYA  EZ EP   4   1118 23.70                              40   -44.4 0  233 199 
 AZAP SZ EP       1119 10.14                              40   -0.2810  247 359 
 AZAP SZ  IAML    1119 10.83        23.4 0.78                           247 359 
 HJA  EZ EP   4   1119 20.17                              40   -5.31 0  362 354 
 YJA  EZ EP   4   1119 30.49                              40   -9.84 0  476 354 
                                                                                
 2011  6 1 1145 31.5 L -30.736 -64.876  8.0F SJA  3 0.3 2.3LSJA 3.0WSJA        1
 SPEC AVERAGE  MO 13.5 ST0.324 OM 18.3 f0 1.84 R0.7647 AL 9.64 WI 29.9 MW  3.0 3
 SPEC SD       MO  0.0 ST0.000 OM 16.3 f00.000 R0.0000 AL      WI      MW  0.0 3
 GAP=178        0.57       2.1     4.5  0.0  0.3929E+01 -0.1079E+02  0.1086E+02E
 SPEC MRA SH Z MO 13.5 ST0.324 OM  2.0 f0 1.84 R0.7647 AL 9.64 WI 29.9 MW  3.0 3
 SPEC MRA SH Z T114634 K 0.040 GD  142 VS 4.02 DE 3.40 Q0400.0 QA 0.70 VS 4.02 3
 ACTION:UP  11-06-28 12:11 OP:gs   STATUS:               ID:20110601114531     I
 2011-06-01-1144-48S.CBA___017                                                 6
 STAT SP IPHASW D HRMM SECON CODA AMPLIT PERI AZIMU VELO AIN AR TRES W  DIS CAZ7
 TCA  EZ EP       1145 44.43                              54   -0.2210 71.8 158 
 TCA  EZ ES       1145 54.56                              54    0.2010 71.8 158 
 MRA  SZ EP       1146  5.04                              40   -0.3910  203 203 
 MRA  SZ ES       1146 30.74                              40    0.2310  203 203 
 MRA  SZ  IAML    1146 35.99        31.1 0.30                           203 203 
 CYA  EZ EP       1146 14.05                              40    0.1710  270 340 
                                                                                
