 2011  6 3 0806 33.3 L -31.276 -68.635 97.7  SJA 11 0.3 2.2LSJA 2.8WSJA        1
 SPEC AVERAGE  MO 13.2 ST  6.4 OM  5.8 f0 6.24 R0.2278 AL 1.23 WI 17.6 MW  2.8 3
 SPEC SD       MO  0.0 ST  1.3 OM  4.3 f00.655 R0.0239 AL      WI      MW  0.0 3
 GAP=137        0.93       2.4     8.5  4.4 -0.9281E+01  0.9073E+01  0.5447E-01E
 ACTION:UP  11-06-28 12:11 OP:gs   STATUS:               ID:20110603080633     I
 OLDACT:UP  11-06-03 07:58 OP:mape STATUS:               ID:20110603080554     3
 SPEC MRA SH Z MO 13.2 ST  7.6 OM  1.3 f0 6.90 R0.2039 AL 1.34 WI 18.8 MW  2.7 3
 SPEC MRA SH Z T 8 735 K 0.040 GD  319 VS 4.02 DE 3.40 Q0400.0 QA 0.70 VS 4.02 3
 SPEC ARCOEH Z MO 13.3 ST  5.1 OM  1.6 f0 5.59 R0.2517 AL 1.11 WI 16.5 MW  2.8 3
 SPEC ARCOEH Z T 8 720 K 0.040 GD  201 VS 4.02 DE 3.40 Q0400.0 QA 0.70 VS 4.02 3
 OLDACT:ARG 11-06-03 05:10 OP:auto STATUS:               ID:20110603080554     3
 2011-06-03-0805-54S.NCU___032                                                 6
 STAT SP IPHASW D HRMM SECON CODA AMPLIT PERI AZIMU VELO AIN AR TRES W  DIS CAZ7
 RTLL SZ EP     D  8 6 47.52                             169   -0.2510 16.3 111 
 RTLL SZ ES        8 6 58.23                             169   -0.2210 16.3 111 
 SJA  SZ EP        8 6 48.33                             161    0.2010 28.8 166 
 AMOG SZ EP        8 6 48.83                             154    0.1510 39.8  20 
 AMOG SZ ES        8 7  0.28                             154    0.2410 39.8  20 
 RTCV SZ EP        8 6 50.01                             141   -0.3510 65.6 172 
 RTCV SZ ES        8 7  3.13                             141    0.1810 65.6 172 
 RTLS SZ EP   4    8 6 53.67                             132    0.93 0 85.5 227 
 RTLS SZ ES        8 7  6.69                             132   -0.4110 85.5 227 
 AUSP SZ EP        8 6 57.36                             119    0.5310  127 214 
 AUSP SZ ES   4    8 7 15.86                             119    1.65 0  127 214 
 ASAL SZ EP        8 6 58.48                             114    0.0210  147 187 
 ASAL SZ ES   4    8 7 18.17                             114    1.12 0  147 187 
 ACAN SZ EP   4    8 6 59.86                             108   -1.78 0  176 129 
 ACAN SZ ES   4    8 7 18.26                             108   -4.32 0  176 129 
 ARCO EZ EP        8 7  1.67                             108   -0.1010  176 189 
 ARCO EZ ES        8 7 23.60                             108    0.7910  176 189 
 ARCO EZ  IAML     8 7 24.89        31.2 0.24                           176 189 
 AGUA SZ EP        8 7  4.10                             105   -0.2710  199   4 
 AGUA SZ ES        8 7 27.52                             105    0.1910  199   4 
 AAGR SZ EP        8 7  4.45                             105   -0.3410  201 185 
 AAGR SZ ES        8 7 27.69                             105   -0.3710  201 185 
 MRA  SZ EP   4    8 7 13.66                              97   -3.27 0  304 115 
 MRA  SZ ES   4    8 7 39.26                              97   -9.93 0  304 115 
 MRA  SZ  IAML     8 7 48.00         7.3 0.65                           304 115 
                                                                                
 2011  6 3 0837  2.4 L -40.599 -70.856128.4  SJA  2 0.2 2.7LSJA 3.3WSJA        1
 SPEC AVERAGE  MO 14.1 ST  2.9 OM  8.4 f0 2.46 R0.5720 AL 2.10 WI 18.3 MW  3.3 3
 SPEC SD       MO  0.0 ST0.000 OM  5.8 f00.000 R0.0000 AL      WI      MW  0.0 3
 GAP=237        1.10       8.5    20.6 17.0 -0.1621E+03  0.2980E+03 -0.1250E+03E
 ACTION:UP  11-06-28 12:11 OP:gs   STATUS:               ID:20110603083702     I
 OLDACT:UP  11-06-03 08:27 OP:mape STATUS:               ID:20110603083651     3
 SPEC PLCABH Z MO 14.1 ST  2.9 OM  2.6 f0 2.46 R0.5720 AL 2.10 WI 18.3 MW  3.3 3
 SPEC PLCABH Z T 83732 K 0.040 GD  131 VS 4.02 DE 3.40 Q0400.0 QA 0.70 VS 4.02 3
 OLDACT:ARG 11-06-03 05:40 OP:auto STATUS:               ID:20110603083651     3
 2011-06-03-0836-51S.SUR___017                                                 6
 STAT SP IPHASW D HRMM SECON CODA AMPLIT PERI AZIMU VELO AIN AR TRES W  DIS CAZ7
 PLCA BZ EP        837 20.27                  299.3  7.7 165  0-0.5910 29.7 119 
 PLCA BZ ES        837 34.87                             165    0.3410 29.7 119 
 PLCA BZ  IAML     837 41.34       141.2 0.60                          29.7 119 
 CANA SZ EP        837 47.03                             104    0.5910  301 357 
 CANA SZ ES        838 18.70                             104   -0.3410  301 357 
                                                                                
 2011  6 3 0850 17.1 L -32.890 -68.343  3.1  SJA  9 0.4 2.1LSJA 2.6WSJA        1
 SPEC AVERAGE  MO 13.0 ST194.2 OM  5.9 f0 19.8 R0.0867 AL 2.53 WI  9.1 MW  2.6 3
 SPEC SD       MO  0.0 ST167.0 OM  4.2 f0 8.40 R0.0368 AL      WI      MW  0.0 3
 GAP=166        1.02       3.5     2.4  4.8  0.1022E+01 -0.3006E+01 -0.9598E+01E
 ACTION:UP  11-06-28 12:11 OP:gs   STATUS:               ID:20110603085017     I
 OLDACT:UP  11-06-03 08:37 OP:mape STATUS:               ID:20110603084930     3
 SPEC MRA SH Z MO 13.1 ST 27.2 OM  1.5 f0 11.4 R0.1234 AL 2.72 WI 14.5 MW  2.7 3
 SPEC MRA SH Z T 85125 K 0.040 GD  158 VS 4.02 DE 3.40 Q0400.0 QA 0.70 VS 4.02 3
 SPEC ARCOEH Z MO 13.0 ST361.2 OM  1.9 f0 28.2 R0.0499 AL 2.35 WI  3.7 MW  2.6 3
 SPEC ARCOEH Z T 85035 K 0.040 GD 55.5 VS 4.02 DE 3.40 Q0400.0 QA 0.70 VS 4.02 3
 OLDACT:ARG 11-06-03 05:52 OP:auto STATUS:               ID:20110603084930     3
 2011-06-03-0849-30S.JUJ___038                                                 6
 STAT SP IPHASW D HRMM SECON CODA AMPLIT PERI AZIMU VELO AIN AR TRES W  DIS CAZ7
 AAGR SZ EP        850 26.90                              95   -0.3710 50.3 244 
 AAGR SZ ES   4 D  850 32.16                              95   -2.65 0 50.3 244 
 ARCO EZ EP        850 28.53                              54    0.3410 55.4 275 
 ARCO EZ  IAML     850 28.75        92.0 0.32                          55.4 275 
 ARCO EZ ES        850 36.61                              54    0.1910 55.4 275 
 ASAL SZ EP        850 28.92                              54    0.5210 56.8 306 
 ASAL SZ ES     D  850 36.72                              54   -0.0610 56.8 306 
 AUSP SZ EP        850 39.06                              54   -0.4710  123 307 
 AUSP SZ ES   4    850 54.11                              54   -2.04 0  123 307 
 ACAN SZ EP        850 39.27                              54   -0.5310  128  58 
 ACAN SZ ES   4    850 55.33                              54   -1.29 0  128  58 
 RTLS SZ EP        850 43.93                              54   -0.1110  151 323 
 RTLS SZ ES        851  3.32                              54   -0.6810  151 323 
 RTLL SZ EP        850 47.50                              54    0.3510  173 356 
 RTLL SZ ES        851  9.49                              54    0.0910  173 356 
 AMOG SZ EP        850 53.82                              40    0.3610  217 356 
 AMOG SZ ES        851 20.62                              40    0.2310  217 356 
 MRA  SZ EP        850 58.41                              40    0.4210  252  79 
 MRA  SZ ES        851 28.00                              40   -0.2710  252  79 
 MRA  SZ  IAML     851 29.06        18.0 0.50                           252  79 
                                                                                
 2011  6 3 0859 25.0 L -31.241 -69.093 99.1  SJA  8 0.4 1.9LSJA 2.6WSJA        1
 SPEC AVERAGE  MO 13.0 ST  2.1 OM  4.1 f0 5.16 R0.2776 AL 1.44 WI 16.0 MW  2.6 3
 SPEC SD       MO  0.0 ST0.857 OM  2.9 f00.690 R0.0371 AL      WI      MW  0.0 3
 GAP=180        1.06       3.4    10.0  8.7 -0.2051E+02  0.5415E+02 -0.1085E+02E
 ACTION:UP  11-06-28 12:11 OP:gs   STATUS:               ID:20110603085925     I
 OLDACT:UP  11-06-03 08:40 OP:mape STATUS:               ID:20110603085849     3
 SPEC VCA EH Z MO 13.0 ST  1.3 OM  1.1 f0 4.47 R0.3148 AL 1.50 WI 16.1 MW  2.6 3
 SPEC VCA EH Z T 9 034 K 0.040 GD  306 VS 4.02 DE 3.40 Q0400.0 QA 0.70 VS 4.02 3
 SPEC ARCOEH Z MO 13.0 ST  3.0 OM  1.3 f0 5.85 R0.2405 AL 1.38 WI 15.9 MW  2.6 3
 SPEC ARCOEH Z T 9 011 K 0.040 GD  203 VS 4.02 DE 3.40 Q0400.0 QA 0.70 VS 4.02 3
 OLDACT:ARG 11-06-03 06:01 OP:auto STATUS:               ID:20110603085849     3
 2011-06-03-0858-49S.NCU___032                                                 6
 STAT SP IPHASW D HRMM SECON CODA AMPLIT PERI AZIMU VELO AIN AR TRES W  DIS CAZ7
 RTLL SZ EP        859 41.28                             144   -0.4310 59.7 100 
 RTLL SZ ES     D  859 53.74                             144   -0.3510 59.7 100 
 RTLS SZ EP        859 42.54                             142   -0.2610 64.8 197 
 RTLS SZ ES   4 D  859 58.10                             142    2.11 0 64.8 197 
 AMOG SZ EP        859 42.16                             141   -0.0610 66.3  60 
 AMOG SZ ES        859 54.75                             141   -0.2210 66.3  60 
 RTCV SZ EP        859 43.85                             132   -0.0510 86.6 143 
 RTCV SZ ES        859 58.70                             132    0.8010 86.6 143 
 AUSP SZ EP        859 46.74                             124   -0.3210  112 194 
 AUSP SZ ES        9 0  3.97                             124    0.5710  112 194 
 ASAL SZ EP        859 50.76                             113    0.0610  152 171 
 ASAL SZ ES     D  9 0  9.94                             113    0.2110  152 171 
 ARCO EZ EP        859 53.27                             109   -0.4710  178 175 
 ARCO EZ ES        9 0 14.93                             109   -0.0910  178 175 
 ARCO EZ  IAML     9 0 18.83         8.5 0.50                           178 175 
 VCA  EZ ES        9 0 38.80                              98    0.6110  290  17 
 VCA  EZ  IAML     9 0 42.10         5.6 0.22                           290  17 
                                                                                
 2011  6 3 1339 46.3 L -31.358 -64.505 20.0  SJA  1 0.0 0.8LSJA 1.8WSJA        1
 SPEC AVERAGE  MO 11.8 ST0.246 OM  4.5 f0 6.14 R0.2292 AL 2.53 WI  7.6 MW  1.8 3
 SPEC SD       MO  0.0 ST0.000 OM  4.1 f00.000 R0.0000 AL      WI      MW  0.0 3
 GAP=360        0.30       2.1     9.1  0.0 -0.1942E+02  0.5415E+02 -0.1085E+02E
 ACTION:UP  11-06-28 12:11 OP:gs   STATUS:               ID:20110603133946     I
 OLDACT:UP  11-06-03 11:08 OP:mape STATUS:               ID:20110603133857     3
 SPEC TCA HH Z MO 11.8 ST0.246 OM  0.4 f0 6.14 R0.2292 AL 2.53 WI  7.6 MW  1.8 3
 SPEC TCA HH Z T133951 K 0.040 GD 21.9 VP 7.00 DE 3.40 Q0400.0 QA 0.70 VS 4.02 3
 OLDACT:UP  11-06-03 11:06 OP:mape STATUS:               ID:20110603133857     3
 OLDACT:ARG 11-06-03 10:40 OP:auto STATUS:               ID:20110603133857     3
 2011-06-03-1338-57S.CBA___015                                                 6
 STAT SP IPHASW D HRMM SECON CODA AMPLIT PERI AZIMU VELO AIN AR TRES W  DIS CAZ7
 TCA  HZ EP       1339 50.47                  105.3 11.0 154  0 0.0110 8.96 285 
 TCA  HZ ES       1339 53.51                             154   -0.0110 8.96 285 
 TCA  HZ  IAML    1339 56.45        22.4 0.68                          8.96 285 
                                                                                
 2011  6 3 1600 18.8 D  37.060 140.950 24.5FFPDE 16 3.6                 5.6 PDE1
 GAP=334        8.30     999.9   999.9  0.0  0.3487E+07  0.5415E+02 -0.1085E+02E
 2011  6 3 1601 34.2 D  37.736 141.157700.0  SJA 16 3.6                        3
 ACTION:UP  11-06-28 12:11 OP:gs   STATUS:               ID:20110603160018     I
 OLDACT:UP  11-06-04 09:32 OP:mape STATUS:               ID:20110603161915     3
 OLDACT:UP  11-06-04 09:31 OP:mape STATUS:               ID:20110603161915     3
 OLDACT:ARG 11-06-03 13:22 OP:auto STATUS:               ID:20110603161915     3
 2011-06-03-1619-15S.NOA___050                                                 6
 STAT SP IPHASW D HRMM SECON CODA AMPLIT PERI AZIMU VELO AIN AR TRES W  DIS CAZ7
 YJA  EZ EP       1620  5.44                               5   -1.301016983  64 
 HJA  EZ EP       1620  6.86                               5   -0.771017062  66 
 ROC1 HZ EP       1620  7.09                               5   -0.051017075  91 
 VCA  EZ EP       1620  6.62                               5   -1.321017147  80 
 AZAP SZ EP       1620  5.91                               5   -2.541017157  67 
 AGUA SZ EP       1620  6.11                               5   -1.891017158  82 
 RTLS SZ EP       1620 11.59                               5    2.611017185  87 
 AUSP SZ EP       1620  4.73                               5   -4.321017193  88 
 FSA  SZ EP       1620  7.09                               5   -1.721017198  72 
 ALOL SZ EP       1620 15.98                               5    7.351017218  65 
 AMOG SZ EP       1620  8.73                               5   -0.031017222  85 
 RTLL SZ EP       1620  5.91                               5   -3.051017240  85 
 RTCV SZ EP       1620 15.21                               5    6.061017255  87 
 ASAL SZ EP       1620 15.94                               5    6.691017256  89 
 CYA  EZ EP       1620  7.57                               4   -2.591017342  77 
 SUCO SZ EP       1620 10.41                               4   -3.141017633  88 
                                                                                
 2011  6 3 1602 33.7 L -31.501 -68.762102.1  SJA 10 0.4 2.8LSJA 2.9WSJA        1
 SPEC AVERAGE  MO 13.5 ST  4.7 OM  4.0 f0 4.48 R0.3148 AL 1.56 WI 17.1 MW  2.9 3
 SPEC SD       MO  0.1 ST  1.5 OM  2.3 f00.210 R0.0148 AL      WI      MW  0.1 3
 GAP=133        1.02       2.8     5.0  4.5 -0.5942E+01  0.5715E+01 -0.2773E+01E
 ACTION:UP  11-06-28 12:11 OP:gs   STATUS:               ID:20110603160233     I
 OLDACT:UP  11-06-03 13:12 OP:mape STATUS:               ID:20110603160222     3
 SPEC VCA EH Z MO 13.6 ST  6.2 OM  1.7 f0 4.69 R0.3000 AL 2.33 WI 20.9 MW  3.0 3
 SPEC VCA EH Z T16 349 K 0.040 GD  327 VS 4.02 DE 3.40 Q0400.0 QA 0.70 VS 4.02 3
 SPEC ARCOEH Z MO 13.4 ST  3.2 OM  1.8 f0 4.27 R0.3295 AL 0.79 WI 13.3 MW  2.9 3
 SPEC ARCOEH Z T16 315 K 0.040 GD  180 VS 4.02 DE 3.40 Q0400.0 QA 0.70 VS 4.02 3
 OLDACT:ARG 11-06-03 13:04 OP:auto STATUS:               ID:20110603160222     3
 2011-06-03-1602-22S.CBA___034                                                 6
 STAT SP IPHASW D HRMM SECON CODA AMPLIT PERI AZIMU VELO AIN AR TRES W  DIS CAZ7
 RTLL SZ EP       16 2 49.40                             159    0.2010 33.3  55 
 RTLL SZ ES       16 2 59.86                             159   -0.8210 33.3  55 
 RTCV SZ EP       16 2 49.99                             152    0.2010 45.2 152 
 RTCV SZ ES       16 3  1.72                             152    0.0110 45.2 152 
 RTLS SZ EP       16 2 51.95                             145    0.4610 60.5 237 
 RTLS SZ ES       16 3  4.83                             145    0.1810 60.5 237 
 AUSP SZ EP     D 16 2 54.79                             129    0.0810 99.6 216 
 ASAL SZ EP       16 2 56.46                             122    0.1910  121 183 
 ASAL SZ ES       16 3 13.51                             122    0.5310  121 183 
 ARCO EZ EP       16 2 59.29                             115   -0.0610  149 186 
 ARCO EZ ES       16 3 18.51                             115    0.1810  149 186 
 ARCO EZ  IAML    16 3 19.39        95.5 0.22                           149 186 
 ACAN SZ EP       16 3  1.27                             110   -0.4010  172 120 
 AAGR SZ EP       16 3  1.99                             110   -0.3410  176 182 
 AAGR SZ ES   4   16 3 21.87                             110   -1.65 0  176 182 
 ROC1 HZ EP       16 3 12.90                              99   -0.3410  268 232 
 ROC1 HZ ES       16 3 41.95                              99   -0.5610  268 232 
 VCA  EZ EP       16 3 18.81                              95    0.5210  311  10 
 VCA  EZ ES       16 3 51.28                              95   -0.0110  311  10 
 VCA  EZ  IAML    16 3 55.81        34.7 0.42                           311  10 
                                                                                
 2011  6 3 1815 46.4 L -31.553 -68.804100.1  SJA  8 0.4 2.3CSJA                1
 GAP=144        1.18       4.0     5.7  7.0 -0.6390E+01 -0.8984E+01  0.1260E+02E
 ACTION:UP  11-06-28 12:11 OP:gs   STATUS:               ID:20110603181546     I
 OLDACT:UP  11-06-04 09:36 OP:mape STATUS:               ID:20110603181504     3
 OLDACT:ARG 11-06-03 15:19 OP:auto STATUS:               ID:20110603181504     3
 2011-06-03-1815-04S.NCU___032                                                 6
 STAT SP IPHASW D HRMM SECON CODA AMPLIT PERI AZIMU VELO AIN AR TRES W  DIS CAZ7
 RTLL SZ EP       1816  2.08   48                        155    0.0710 39.9  52 
 RTLL SZ ES       1816 13.78                             155    0.2210 39.9  52 
 RTCV SZ EP       1816  2.61   41                        153    0.4810 42.4 144 
 RTCV SZ ES       1816 14.32                             153    0.5410 42.4 144 
 RTLS SZ EP       1816  3.27                             147   -0.2910 54.0 240 
 RTLS SZ ES       1816 15.76                             147   -0.5110 54.0 240 
 AMOG SZ EP       1816  4.64                             137    0.2810 74.3  24 
 AMOG SZ ES       1816 17.20                             137   -0.4510 74.3  24 
 AUSP SZ EP       1816  6.29                             130   -0.3210 92.6 216 
 ASAL SZ EP       1816  8.66   46                        122    0.4210  115 181 
 ASAL SZ ES       1816 24.60                             122    0.2010  115 181 
 AAGR SZ EP       1816 14.41                             110    0.1310  170 181 
 AAGR SZ ES       1816 34.68                             110   -0.2410  170 181 
 ACAN SZ EP       1816 14.85                             109    0.4810  172 118 
 ACAN SZ ES       1816 34.07                             109   -1.0110  172 118 
                                                                                
 2011  6 3 1940 33.2 L -40.473 -71.945  4.0F SJA  2 0.4 2.6LSJA 2.9WSJA        1
 SPEC AVERAGE  MO 13.5 ST  2.0 OM  6.1 f0 3.38 R0.4163 AL 2.31 WI 21.7 MW  2.9 3
 SPEC SD       MO  0.0 ST0.000 OM  4.0 f00.000 R0.0000 AL      WI      MW  0.0 3
 GAP=271        1.69      10.4    18.0  0.0  0.1415E+03 -0.8984E+01  0.1260E+02E
 ACTION:UP  11-06-28 12:11 OP:gs   STATUS:               ID:20110603194033     I
 SPEC PLCABH Z MO 13.5 ST  2.0 OM  2.1 f0 3.38 R0.4163 AL 2.31 WI 21.7 MW  2.9 3
 SPEC PLCABH Z T1941 7 K 0.040 GD  110 VS 4.02 DE 3.40 Q0400.0 QA 0.70 VS 4.02 3
 OLDACT:ARG 11-06-03 18:19 OP:auto STATUS:               ID:20110603194024     3
 2011-06-03-1940-24S.SUR___018                                                 6
 STAT SP IPHASW D HRMM SECON CODA AMPLIT PERI AZIMU VELO AIN AR TRES W  DIS CAZ7
 PLCA BZ EP       1940 53.61                  289.1  5.0  54  6-1.1710  121 104 
 PLCA BZ  IAML    1940 54.74       151.7 0.25                           121 104 
 PLCA BZ ES       1941 11.43                              54    0.6610  121 104 
 CANA SZ EP       1941 19.91                              40    0.0810  297  15 
 CANA SZ ES       1941 54.78                              40    0.4310  297  15 
                                                                                
