 2008 11 2 1051 47.2 L -30.856 -71.071 55.1  SJA  6 0.2 3.3LSJA                1
 GAP=334        0.51       7.5     9.6 10.1  0.4206E+02  0.7151E+01 -0.3487E+02E
 ACTION:UPD 09-04-21 08:38 OP:    STATUS:               ID:20081102105147 L   I
 2008-11-02-1051-31S.NCU___025                                                 6
 STAT SP IPHASW D HRMM SECON CODA AMPLIT PERI AZIMU VELO AIN AR TRES W  DIS CAZ7
 RTLS PZ IS       1052 42.81                              92   -0.2210  199 122 
 RTLS PZ  AML     1052 45.56      74.9e4 1.55                           199 122 
 RTUM PZ IP       1052 21.40                              91   -0.1810  221 134 
 RTUM PZ IS       1052 47.25                              91    0.2210  221 134 
 RTLL PZ  AML     1052 58.46      47.2e4 0.52                           253 103 
 RTCV PZ IP       1052 27.84                              91    0.0810  265 116 
 CFAA BZ IP       1052 30.03                              81    0.1710  283 108 
 RTCT PZ IP       1052 44.78                              60   -0.0710  401 114 
 RTCT PZ  AML     1053 31.74      18.4e4 2.58                           401 114 
                                                                                
 2008 11 2 1211 27.8 L -31.244 -68.175 95.5  SJA 11 0.2 3.1LSJA                1
 GAP=249        0.54       4.6     3.8  3.4 -0.4532E+01  0.1530E+01  0.4126E+00E
 ACTION:UPD 09-04-21 08:38 OP:    STATUS:               ID:20081102121128 L   I
 2008-11-02-1210-46S.CAT___026                                                 6
 STAT SP IPHASW D HRMM SECON CODA AMPLIT PERI AZIMU VELO AIN AR TRES W  DIS CAZ7
 RTLL PZ IP       1211 43.37                             159    0.0010 30.1 252 
 CFAA BZ IP       1211 43.97                             153    0.3110 40.1 188 
 CFAA BZ IS       1211 55.56                             153    0.2010 40.1 188 
 INPC PZ IP       1211 44.61                             148   -0.2210 48.3 229 
 INPC PZ  AML     1211 56.40      3227.1 1.92                          48.3 229 
 RTCV PZ IP       1211 46.36                             133   -0.1610 76.8 207 
 RTCV PZ IS       1212  0.02                             133   -0.3210 76.8 207 
 RTLS PZ IP       1211 51.54                             116   -0.0410  123 240 
 RTCT PZ IP       1211 53.67                             108    0.0010  148 141 
 RTUM PZ IP       1211 54.98                             106    0.0510  158 226 
 RTUM PZ IS       1212 15.22                             106    0.2510  158 226 
 SALAGPZ IP       1211 55.11                             105   -0.0610  162 202 
 SALAGPZ  AML     1212 14.96      29.9e4 1.28                           162 202 
 ARCO PZ  AML     1212 22.32       307.2 1.92                           191 202 
 AGRELPZ  AML     1212 25.21      37.1e4 0.00                           213 197 
 CYA  PZ  AML     1213 27.93        65.0 2.56                           386  37 
                                                                                
 2008 11 2 1804 33.6 L -32.785 -69.186 30.4  SJA  8 0.3 2.3LSJA                1
 GAP=208        0.70       2.6     4.0  3.3  0.4878E+01  0.2158E+00 -0.3417E+01E
 ACTION:UPD 09-04-21 08:38 OP:    STATUS:               ID:20081102180433 L   I
 2008-11-02-1803-46S.NCU___025                                                 6
 STAT SP IPHASW D HRMM SECON CODA AMPLIT PERI AZIMU VELO AIN AR TRES W  DIS CAZ7
 ARCO PZ IP       18 4 41.02                             141   -0.0810 24.5 105 
 ARCO PZ IS       18 4 46.54                             141   -0.1310 24.5 105 
 ARCO PZ  AML     18 4 47.92      1291.8 1.59                          24.5 105 
 SALAGPZ IP       18 4 43.04                             126    0.6110 39.3  57 
 SALAGPZ  AML     18 4 54.03      18.3e4 1.59                          39.3  57 
 AGRELPZ IP       18 4 43.62                             121   -0.1810 47.3 135 
 AGRELPZ  AML     18 4 52.17      84.0e4 0.00                          47.3 135 
 RTUM PZ IP       18 4 46.33                             113    0.1910 64.9 343 
 RTUM PZ IS       18 4 55.30                             113   -0.1410 64.9 343 
 RTLS PZ IP       18 4 53.41                             101   -0.1210  110 355 
 RTCV PZ IP       18 4 54.94                              99    0.3310  119  31 
 RTCV PZ IS       18 5  9.98                              99   -0.2110  119  31 
 CFAA BZ IP       18 5  0.50                              94   -0.1710  159  35 
 RTLL PZ IP       18 5  2.96                              59   -0.0810  175  23 
                                                                                
 2008 11 3 0154 22.9 L -31.322 -68.605101.5  SJA  9 0.2 2.7LSJA                1
 GAP=223        0.66       5.0     5.4  5.4 -0.5230E+01  0.8625E+01  0.1459E+02E
 ACTION:UPD 09-04-21 08:38 OP:    STATUS:               ID:20081103015423 L   I
 2008-11-03-0153-46S.CAT___026                                                 6
 STAT SP IPHASW D HRMM SECON CODA AMPLIT PERI AZIMU VELO AIN AR TRES W  DIS CAZ7
 RTLL PZ IP        154 38.35                             172   -0.2610 12.4  94 
 INPC PZ  AML      154 50.89      1765.1 2.60                          23.2 169 
 CFAA BZ IP        154 39.87                             150    0.1110 47.2 131 
 CFAA BZ IS        154 52.28                             150    0.0610 47.2 131 
 RTCV PZ IP        154 40.83                             142    0.0210 60.2 174 
 RTLS PZ IP        154 42.86                             131   -0.3610 84.3 231 
 RTUM PZ IP        154 46.76                             114    0.2310  124 216 
 RTUM PZ IS        155  4.14                             114    0.1410  124 216 
 SALAGPZ IP        154 48.63                             108    0.3810  142 189 
 ARCO PZ IP        154 51.98                              97    0.0910  171 190 
 ARCO PZ  AML      155 14.25        90.5 0.65                           171 190 
 AGRELPZ IP        154 54.76                              92    0.0010  197 186 
 AGRELPZ IS        155 17.92                              92   -0.4110  197 186 
 AGRELPZ  AML      155 27.55      16.6e4 1.30                           197 186 
                                                                                
 2008 11 3 0230 29.3 L -31.553 -68.691 95.9  SJA 10 0.1 2.9LSJA                1
 GAP=155        0.28       2.0     2.0  2.1 -0.2309E+01  0.4521E-01  0.1079E+01E
 ACTION:UPD 09-04-21 08:38 OP:    STATUS:               ID:20081103023029 L   I
 2008-11-03-0229-49S.NCU___025                                                 6
 STAT SP IPHASW D HRMM SECON CODA AMPLIT PERI AZIMU VELO AIN AR TRES W  DIS CAZ7
 INPC PZ IP        230 44.79                             171   -0.0510 12.7  77 
 RTLL PZ IP        230 45.05                             158    0.0710 32.2  40 
 RTLL PZ IS        230 56.47                             158   -0.1010 32.2  40 
 RTCV PZ IP        230 45.30                             155    0.0810 37.1 157 
 RTCV PZ IS        230 57.04                             155    0.0610 37.1 157 
 CFAA BZ IP        230 45.40                             151    0.0110 43.9  97 
 RTLS PZ IP        230 47.50                             140    0.0810 63.5 244 
 RTLS PZ IS        231  0.82                             140    0.0010 63.5 244 
 RTUM PZ IP        230 49.99                             124   -0.0210 99.3 221 
 RTUM PZ IS        231  5.29                             124   -0.0210 99.3 221 
 SALAGPZ IP        230 51.40                             118   -0.1010  116 187 
 SALAGPZ  AML      231  8.96      29.7e4 0.00                           116 187 
 ARCO PZ  AML      231 14.71       364.9 0.00                           145 189 
 AGRELPZ  AML      231 18.63      29.2e4 1.57                           170 184 
 CYA  PZ  AML      232 14.30        33.0 1.05                           444  40 
                                                                                
 2008 11 4 0515 54.6 L -32.110 -69.686103.5  SJA  9 0.2 2.4LSJA                1
 GAP=263        0.53       3.7    12.9  5.4 -0.2740E+02 -0.4214E+02  0.1030E+02E
 ACTION:UPD 09-04-21 08:38 OP:    STATUS:               ID:20081104051554 L   I
 2008-11-04-0515-19S.NCU___025                                                 6
 STAT SP IPHASW D HRMM SECON CODA AMPLIT PERI AZIMU VELO AIN AR TRES W  DIS CAZ7
 RTUM PZ IP        516 11.03                             160    0.0710 31.0 114 
 RTLS PZ IP        516 12.58                             149    0.0310 50.5  47 
 RTLS PZ IS        516 25.69                             149   -0.1310 50.5  47 
 SALAGPZ IP        516 15.61                             126    0.3110 96.3 124 
 SALAGPZ  AML      516 32.48      40.2e4 0.00                          96.3 124 
 ARCO PZ IP        516 16.76                             122   -0.0110  108 139 
 RTCV PZ IP        516 17.38                             120    0.2210  112  76 
 INPC PZ IP        516 18.79                             115   -0.1710  125  59 
 INPC PZ  AML      516 36.94       340.3 0.00                           125  59 
 AGRELPZ IP        516 19.23                             112   -0.3010  135 144 
 RTLL PZ IP        516 20.66                             109    0.1310  144  53 
 CFAA BZ IP        516 20.70                             107   -0.1610  149  68 
 CFAA BZ  AML      516 41.78       509.4 0.61                           149  68 
 CFAA BZ  AML      516 42.70       111.6 0.31                           149  68 
                                                                                
 2008 11 4 1031 57.0 L -27.968 -71.032  0.6  SJA 13 0.6 4.7LSJA                1
 GAP=240        1.55       9.5    43.3 29.6 -0.3106E+03 -0.1034E+04  0.2143E+03E
 ACTION:UPD 09-04-21 08:38 OP:    STATUS:               ID:20081104103157 L   I
 2008-11-04-1032-09S.JUJ___036                                                 6
 STAT SP IPHASW D HRMM SECON CODA AMPLIT PERI AZIMU VELO AIN AR TRES W  DIS CAZ7
 RTLL PZ IP       1033  5.75                              47    0.0210  447 147 
 RTLS PZ IP       1033  6.97                              41   -0.3410  457 159 
 INPC PZ  AML     1034 14.67      2192.1 2.30                           461 149 
 CFAA BZ IP       1033  9.95                              41   -0.0510  485 147 
 CFAA BZ IS       1034  4.04                              41    0.0010  485 147 
 CFAA BZ  AML     1034 21.95      6309.3 3.83                           485 147 
 RTCV PZ IP       1033 10.79                              41   -0.4310  494 151 
 RTUM PZ IP       1033 12.15                              41    0.6810  498 162 
 SALAGPZ  AML     1034 45.70     159.2e4 0.00                           554 158 
 ARCO PZ  AML     1034 36.89      1071.3 0.77                           577 160 
 RTCT PZ IP       1033 23.77                              41    0.0510  604 143 
 AGRELPZ  AML     1035 12.14     118.7e4 0.77                           606 160 
 SLA  PZ IP       1033 30.59                              41    1.2610  658  58 
 SB   PZ IP       1033 43.77                              41   -1.0110  792  57 
 YAVI PZ IP       1033 51.41                              41   -0.1910  849  42 
                                                                                
 2008 11 4 1741 53.5 L -28.457 -71.674 39.9  SJA  9 0.7 3.6LSJA                1
 GAP=298        1.91      19.3    23.5 17.6 -0.6666E+02 -0.1234E+02  0.1290E+03E
 ACTION:UPD 09-04-21 08:38 OP:    STATUS:               ID:20081104174153 L   I
 2008-11-04-1742-00S.CAT___026                                                 6
 STAT SP IPHASW D HRMM SECON CODA AMPLIT PERI AZIMU VELO AIN AR TRES W  DIS CAZ7
 LCO  BE IP       1742 13.00                              94    0.1810  113 123 
 RTLS PZ IP       1742 56.66                              53   -0.3610  436 149 
 RTLL PZ IP       1742 56.25                              53   -1.2510  444 137 
 RTUM PZ IP       1743  1.06                              53    0.4410  472 153 
 CFAA BZ IP       1743  0.77                              53   -0.9010  481 137 
 CFAA BZ IS       1743 52.37                              53    0.2710  481 137 
 CFAA BZ  AML     1744  9.60       419.0 0.62                           481 137 
 RTCV PZ IP       1743  1.41                              53   -0.6810  483 142 
 ARCO PZ IP       1743 10.67                              53    0.5710  552 152 
 ARCO PZ  AML     1744 19.76        66.0 1.85                           552 152 
 ARCO PZ  AML     1744 22.53        68.0 5.54                           552 152 
 CYA  PZ IP       1743 11.14                              53    0.5610  576  91 
 AGRELPZ IP       1743 14.50                              53    1.1610  581 153 
 AGRELPZ  AML     1744 41.92      10.8e4 1.85                           581 153 
                                                                                
 2008 11 4 1828 20.9 L -23.972 -67.717  8.9  SJA  4 2.7 3.1LSJA                1
 GAP=298        6.68     129.6   571.6563.7  0.6371E+05 -0.3135E+06 -0.5577E+05E
 ACTION:UPD 09-04-21 08:38 OP:    STATUS:               ID:20081104182825 L   I
 2008-11-04-1828-10S.JUJ___019                                                 6
 STAT SP IPHASW D HRMM SECON CODA AMPLIT PERI AZIMU VELO AIN AR TRES W  DIS CAZ7
 SLA  PZ IP       1829  3.47                              54    3.3910  239 111 
 SLA  PZ IS       1829 29.97                              54    0.9210  239 111 
 SLA  PZ  AML     1829 30.88       245.7 0.56                           239 111 
 ZA   PZ IP       1829  4.03                              54   -3.5010  271  96 
 YAVI PZ IP       1829 10.67                              54    2.0810  301  49 
 YAVI PZ  AML     1829 43.11        38.5 1.11                           301  49 
 SB   PZ IP       1829  9.29                              52   -2.8810  329  90 
                                                                                
 2008 11 5 0006 41.9 L -27.549 -71.433 19.7  SJA 11 0.4 3.9LSJA                1
 GAP=302        1.07       9.9    12.4  8.6 -0.7010E+02 -0.6653E+02  0.3596E+02E
 ACTION:UPD 09-04-21 08:38 OP:    STATUS:               ID:20081105000642 L   I
 2008-11-05-0007-00S.CAT___026                                                 6
 STAT SP IPHASW D HRMM SECON CODA AMPLIT PERI AZIMU VELO AIN AR TRES W  DIS CAZ7
 LCO  BE IP        0 7 11.08                              84    0.0710  177 156 
 LCO  BE  AML      0 7 28.25     31361.0 0.58                           177 156 
 RTLL PZ IP        0 7 54.68                              46   -0.7610  508 146 
 RTLS PZ IP        0 7 56.32                              46   -0.3310  515 157 
 INPC PZ  AML      0 9 16.86       937.3 0.58                           522 148 
 CFAA BZ  AML      0 9 10.76       367.7 5.24                           546 146 
 RTCV PZ IP        0 8  0.38                              46   -0.3910  554 150 
 RTUM PZ IP        0 8  1.25                              46    0.5610  555 160 
 RTUM PZ IS        0 8 58.75                              46   -0.2410  555 160 
 CYA  PZ IS        0 8 57.30                              46    0.1310  563 101 
 CYA  PZ  AML      0 9  3.77        71.1 2.33                           563 101 
 SALAGPZ IP        0 8  7.71                              46    0.5310  613 156 
 SALAGPZ IS        0 9 10.47                              46    0.1910  613 156 
 SALAGPZ  AML      0 9 33.77     83808.8 1.16                           613 156 
 ARCO PZ IP        0 8 10.29                              46    0.2410  634 158 
 ARCO PZ  AML      0 9 28.51        44.0 1.16                           634 158 
 AGRELPZ  AML      0 9 54.43     66175.8 0.00                           663 158 
                                                                                
 2008 11 5 0303  5.1 L -28.477 -71.490 43.8  SJA  8 0.2 3.7LSJA                1
 GAP=297        0.63       7.2    10.4  8.6 -0.3777E+02  0.7587E+02 -0.3993E+02E
 ACTION:UPD 09-04-21 08:38 OP:    STATUS:               ID:20081105030305 L   I
 2008-11-05-0303-09S.CAT___026                                                 6
 STAT SP IPHASW D HRMM SECON CODA AMPLIT PERI AZIMU VELO AIN AR TRES W  DIS CAZ7
 LCO  BE IP        3 3 22.19                             103   -0.0110 97.1 128 
 LCO  BE IS        3 3 34.86                             103    0.0210 97.1 128 
 LCO  BE  AML      3 3 37.02     92518.8 1.83                          97.1 128 
 GUANDPZ IP        3 3 51.62                              67   -0.0810  313 112 
 INPC PZ  AML      3 5 16.59       379.6 1.22                           441 141 
 CFAA BZ  AML      3 5 18.11       424.2 1.22                           468 139 
 SALAGPZ IP        3 4 17.35                              53   -0.1510  522 151 
 SALAGPZ  AML      3 5 37.91      10.9e4 3.05                           522 151 
 ARCO PZ IP        3 4 19.86                              53   -0.3110  542 154 
 ARCO PZ  AML      3 5 28.77        61.0 0.00                           542 154 
 CYA  PZ IP        3 4 19.80                              53    0.0610  558  91 
 AGRELPZ IP        3 4 23.90                              53    0.4710  571 154 
 AGRELPZ  AML      3 5 51.61     92086.9 2.44                           571 154 
                                                                                
 2008 11 5 0510 15.5 L -31.309 -69.220 97.0  SJA  6 0.2 2.2LSJA                1
 GAP=263        0.48       2.9     3.1  3.7 -0.4844E+01  0.1572E+01 -0.9411E-01E
 ACTION:UPD 09-04-21 08:38 OP:    STATUS:               ID:20081105051015 L   I
 2008-11-05-0509-40S.NCU___025                                                 6
 STAT SP IPHASW D HRMM SECON CODA AMPLIT PERI AZIMU VELO AIN AR TRES W  DIS CAZ7
 RTLS PZ IP        510 33.03                             146   -0.0310 54.8 188 
 RTLS PZ IS        510 45.81                             146   -0.2610 54.8 188 
 RTLS PZ  AML      510 46.15      49.5e4 2.02                          54.8 188 
 RTLL PZ IP        510 34.02                             137    0.2310 71.0  92 
 RTLL PZ IS        510 47.38                             137    0.0410 71.0  92 
 RTCV PZ IP        510 35.39                             129    0.0010 89.0 134 
 RTCV PZ IS        510 50.36                             129    0.2410 89.0 134 
 RTCV PZ  AML      510 50.94      18.1e4 1.51                          89.0 134 
 CFAA BZ IP        510 36.01                             125   -0.1810 99.4 109 
 CFAA BZ IS        510 51.35                             125   -0.1610 99.4 109 
 CFAA BZ  AML      510 51.70       549.8 0.00                          99.4 109 
 RTUM PZ IP        510 36.63                             124    0.0510  103 189 
 RTUM PZ IS        510 52.43                             124    0.2410  103 189 
 RTUM PZ  AML      510 52.46      10.9e4 1.01                           103 189 
 SALAGPZ IP        510 41.06                             110   -0.0610  147 166 
 SALAGPZ IS        510 60.00                             110   -0.1010  147 166 
 SALAGPZ  AML      511  1.04     32207.4 0.50                           147 166 
                                                                                
