 2008 11 9 2328 14.2 L -30.724 -71.007 26.3  SJA 11 0.6 4.3LSJA                1
 GAP=228        1.67      10.8    28.1 46.8  0.2097E+03 -0.2742E+03 -0.3539E+03E
 ACTION:UPD 09-04-21 08:38 OP:    STATUS:               ID:20081109232813 L   I
 2008-11-09-2327-57S.NCU___025                                                 6
 STAT SP IPHASW D HRMM SECON CODA AMPLIT PERI AZIMU VELO AIN AR TRES W  DIS CAZ7
 LCO  BE IP       2328 45.24                              58   -0.1710  192   9 
 LCO  BE IS       2329  8.67                              58    0.1510  192   9 
 LCO  BE  AML     2329 10.08      12.1e4 1.59                           192   9 
 RTLS PZ IP       2328 48.56                              58    0.4810  202 127 
 RTLS PZ  AML     2330 14.13     170.8e4 2.13                           202 127 
 RTUM PZ IP       2328 50.98                              58    0.1610  227 138 
 INPC PZ  AML     2329 37.45      7382.4 1.06                           250 112 
 RTLL PZ IP       2328 54.68                              58    0.3910  251 106 
 RTCV PZ IP       2328 56.88                              58    0.4610  267 119 
 CFAA BZ IP       2328 58.56                              58    0.2710  282 111 
 CFAA BZ  AML     2329 35.06     14266.7 0.53                           282 111 
 SALAGPZ IP       2328 59.46                              58   -0.0410  292 136 
 ARCO PZ IP       2329  1.82                              57    0.0910  306 141 
 AGRELPZ  AML     2329 48.88     157.8e4 2.66                           333 142 
 RTCT PZ IP       2329 12.39                              56   -1.8010  402 116 
                                                                                
 2008 1110 0539 52.2 L -31.607 -68.712100.4  SJA  8 0.2 2.7LSJA                1
 GAP=147        0.51       3.9     3.4  3.6 -0.4181E+01  0.1354E+01  0.4697E+01E
 ACTION:UPD 09-04-21 08:38 OP:    STATUS:               ID:20081110053952 L   I
 2008-11-10-0539-15S.NCU___025                                                 6
 STAT SP IPHASW D HRMM SECON CODA AMPLIT PERI AZIMU VELO AIN AR TRES W  DIS CAZ7
 INPC PZ IP        540  8.14                             169   -0.1810 16.9  59 
 RTCV PZ IP        540  8.55                             159    0.1910 32.6 150 
 RTCV PZ IS        540 20.23                             159   -0.1110 32.6 150 
 RTCV PZ  AML      540 20.44     105.1e4 0.00                          32.6 150 
 RTLL PZ IP        540  8.59                             156   -0.0310 38.2  36 
 CFAA BZ IP        540  8.89                             151    0.0810 45.6  90 
 CFAA BZ IS        540 21.18                             151    0.0510 45.6  90 
 RTLS PZ IP        540 10.31                             144   -0.0910 59.3 249 
 RTLS PZ IS        540 23.86                             144   -0.0210 59.3 249 
 RTLS PZ  AML      540 25.62      90.1e4 1.48                          59.3 249 
 RTUM PZ IP        540 12.82                             129    0.2010 93.5 223 
 RTUM PZ  AML      540 29.08      23.4e4 0.49                          93.5 223 
 SALAGPZ IP        540 14.26                             123    0.2710  110 186 
 AGRELPZ IP        540 19.91                             108   -0.3610  164 184 
 AGRELPZ  AML      540 41.18      17.8e4 0.49                           164 184 
                                                                                
 2008 1110 0917 28.4 L -31.633 -66.301  0.0  SJA  6 0.4 2.5LSJA                1
 GAP=227        1.05      19.8    31.8 26.6 -0.5979E+03  0.6932E+03 -0.3717E+03E
 ACTION:UPD 09-04-21 08:38 OP:    STATUS:               ID:20081110091727 L   I
 2008-11-10-0917-20S.CAT___026                                                 6
 STAT SP IPHASW D HRMM SECON CODA AMPLIT PERI AZIMU VELO AIN AR TRES W  DIS CAZ7
 SALAGPZ IS        918 44.53                              50    0.1710  262 245 
 SALAGPZ  AML      918 48.69     26982.9 1.24                           262 245 
 ARCO PZ IP        918 15.80                              50    0.6310  282 241 
 RTLS PZ  AML      918 52.42     73804.5 0.62                           284 266 
 AGRELPZ IP        918 15.45                              50   -0.3910  287 235 
 AGRELPZ  AML      918 47.44     75458.2 0.62                           287 235 
 RTUM PZ IP        918 16.79                              50   -0.5010  299 257 
 CYA  PZ IP        918 23.16                              49    0.0910  357   8 
                                                                                
 2008 1110 0917 28.6 L -31.611 -66.337  0.0  SJA  6 0.2                        1
 GAP=226        0.57       6.1    10.2 12.8 -0.5321E+02  0.1154E+03 -0.5331E+02E
 ACTION:UPD 09-04-21 08:38 OP:    STATUS:               ID:20081110091730 L   I
 2008-11-10-0917-20S.CAT___026                                                 6
 STAT SP IPHASW D HRMM SECON CODA AMPLIT PERI AZIMU VELO AIN AR TRES W  DIS CAZ7
 SALAGPZ IS        918 44.29                              50    0.2110  260 245 
 ARCO PZ IP        918 15.36                              50    0.2410  280 240 
 RTLS PZ IS        918 50.41                              50   -0.1210  281 265 
 AGRELPZ IP        918 15.52                              50   -0.3310  286 234 
 RTUM PZ IP        918 17.06                              50   -0.0510  296 256 
 CYA  PZ IP        918 23.05                              49    0.0610  355   9 
                                                                                
 2008 1110 2044 50.3 R -32.450 -71.919 48.6  SJA 11 0.5 4.1LSJA                1
 GAP=278        1.41      15.0    10.7 30.9  0.5059E+01  0.2647E+02 -0.2512E+03E
 ACTION:UPD 09-04-21 08:38 OP:    STATUS:               ID:20081110204448 L   I
 2008-11-10-2042-48S.CAT___036                                                 6
 STAT SP IPHASW D HRMM SECON CODA AMPLIT PERI AZIMU VELO AIN AR TRES W  DIS CAZ7
 RTUM PZ IP       2045 27.43                              81    0.1510  240  85 
 RTUM PZ  AML     2046  7.53     158.3e4 3.07                           240  85 
 RTLS PZ  AML     2046 31.07     159.5e4 2.05                           258  74 
 ARCO PZ IP       2045 33.92                              81    0.6110  283 100 
 ARCO PZ  AML     2046 18.79      1890.0 1.02                           283 100 
 SALAGPZ  AML     2046 20.33     171.9e4 1.02                           290  94 
 AGRELPZ  AML     2046 20.84     180.5e4 0.00                           298 105 
 RTCV PZ  AML     2046 27.49     117.8e4 1.02                           325  79 
 INPC PZ IP       2045 41.00                              77    0.5610  333  73 
 INPC PZ  AML     2046 46.93      2392.0 1.02                           333  73 
 RTLL PZ IP       2045 41.30                              77   -0.6510  349  70 
 RTLL PZ IS       2046 19.98                              77   -0.2310  349  70 
 RTLL PZ  AML     2046 28.51     172.6e4 1.02                           349  70 
 CFAA BZ IP       2045 42.39                              77   -0.9410  361  76 
 CFAA BZ IS       2046 23.10                              77    0.4910  361  76 
 CFAA BZ  AML     2046 33.63      4092.9 2.05                           361  76 
 LCO  BE IP       2045 47.79                              59    0.3810  399  17 
 LCO  BE  AML     2046 45.40     12331.1 0.00                           399  17 
 RTCT PZ IP       2045 53.19                              59   -0.3610  446  89 
 RTCT PZ  AML     2046 46.93      91.7e4 2.05                           446  89 
                                                                                
 2008 1111 0618 46.9 L -31.743 -69.818106.5  SJA  4 0.1 2.1LSJA                1
 GAP=302        0.40       3.6     6.8  3.8  0.5805E+01  0.1023E+01  0.2075E+01E
 ACTION:UPD 09-04-21 08:38 OP:    STATUS:               ID:20081111061847 L   I
 2008-11-11-0618-16S.NCU___025                                                 6
 STAT SP IPHASW D HRMM SECON CODA AMPLIT PERI AZIMU VELO AIN AR TRES W  DIS CAZ7
 RTLS PZ IP        619  5.13                             150    0.0410 49.8  97 
 RTLS PZ IS        619 18.48                             150   -0.0810 49.8  97 
 RTLS PZ  AML      619 21.71      18.3e4 1.02                          49.8  97 
 RTUM PZ IP        619  5.73                             141    0.1210 67.1 143 
 RTUM PZ  AML      619 21.20      17.9e4 0.00                          67.1 143 
 SALAGPZ IP        619 11.11                             115   -0.2110  132 136 
 SALAGPZ IS        619 29.49                             115    0.0810  132 136 
 SALAGPZ  AML      619 31.65     36159.6 1.02                           132 136 
 CFAA BZ IP        619 13.57                             109    0.0510  151  85 
                                                                                
 2008 1111 0814 50.1 R -32.095 -71.960  0.0  SJA  6 0.1 2.8LSJA                1
 GAP=331        0.45       8.0     8.4  7.4 -0.1861E+02 -0.4322E+02  0.3493E+02E
 ACTION:UPD 09-04-21 08:38 OP:    STATUS:               ID:20081111081450 L   I
 2008-11-11-0813-34S.NCU___025                                                 6
 STAT SP IPHASW D HRMM SECON CODA AMPLIT PERI AZIMU VELO AIN AR TRES W  DIS CAZ7
 RTUM PZ IP        815 30.93                              65   -0.1910  243  94 
 RTUM PZ  AML      816  7.94      13.7e4 4.48                           243  94 
 RTLS PZ IP        815 33.63                              65    0.1810  254  83 
 RTLS PZ  AML      816 12.10      34.0e4 2.56                           254  83 
 ARCO PZ IP        815 38.70                              50   -0.1110  296 107 
 SALAGPZ IS        816 14.94                              50    0.0110  299 101 
 AGRELPZ IP        815 41.31                              50    0.1710  314 111 
 CFAA BZ IP        815 46.71                              49   -0.0610  357  82 
                                                                                
 2008 1111 0950 59.7 R -32.461 -71.925  8.1  SJA  6 0.1 2.6LSJA                1
 GAP=330        0.46       7.0     9.6  7.1 -0.3240E+02 -0.3676E+02 -0.5130E+01E
 ACTION:UPD 09-04-21 08:38 OP:    STATUS:               ID:20081111095100 L   I
 2008-11-11-0950-52S.NCU___025                                                 6
 STAT SP IPHASW D HRMM SECON CODA AMPLIT PERI AZIMU VELO AIN AR TRES W  DIS CAZ7
 RTUM PZ IP        951 39.72                              72    0.0110  240  84 
 RTUM PZ  AML      952 14.45      10.5e4 1.01                           240  84 
 RTLS PZ IP        951 42.77                              54   -0.0610  259  74 
 RTLS PZ IS        952 14.76                              54    0.0010  259  74 
 RTLS PZ  AML      952 24.26      24.4e4 0.50                           259  74 
 ARCO PZ IP        951 45.52                              54   -0.3010  284  99 
 ARCO PZ  AML      952 22.00        54.9 0.00                           284  99 
 SALAGPZ IP        951 46.47                              54    0.0810  291  94 
 SALAGPZ  AML      952 30.54     37791.6 2.01                           291  94 
 AGRELPZ IP        951 47.93                              54    0.1910  298 104 
 AGRELPZ  AML      952 30.04     86544.3 1.01                           298 104 
 CFAA BZ IP        951 56.13                              52    0.0810  362  76 
                                                                                
 2008 1111 1030  4.6 L -31.197 -68.448 93.6  SJA  6 0.2 2.0LSJA                1
 GAP=285        0.67       4.5     5.0  5.2 -0.6391E+01  0.1174E+02  0.6136E+00E
 ACTION:UPD 09-04-21 08:38 OP:    STATUS:               ID:20081111103004 L   I
 2008-11-11-1029-37S.NCU___025                                                 6
 STAT SP IPHASW D HRMM SECON CODA AMPLIT PERI AZIMU VELO AIN AR TRES W  DIS CAZ7
 RTLL PZ IP       1030 19.49                             169    0.0910 14.8 190 
 RTLL PZ  AML     1030 34.38     57975.1 6.19                          14.8 190 
 CFAA BZ IP       1030 20.95                             147    0.1810 49.5 155 
 CFAA BZ IS       1030 32.81                             147    0.0710 49.5 155 
 RTCV PZ IP       1030 22.62                             134   -0.2610 74.2 187 
 RTCV PZ IS       1030 36.32                             134   -0.1010 74.2 187 
 RTCV PZ  AML     1030 38.43      28.0e4 2.86                          74.2 187 
 RTLS PZ IP       1030 26.41                             121    0.1510  105 230 
 RTLS PZ IS       1030 41.95                             121   -0.3510  105 230 
 RTLS PZ  AML     1030 46.52     91368.7 0.00                           105 230 
 RTUM PZ IP       1030 30.21                             108    0.1810  144 218 
 RTUM PZ IS       1030 49.21                             108    0.3510  144 218 
 RTUM PZ  AML     1030 52.00     69919.6 3.33                           144 218 
 SALAGPZ IP       1030 31.06                             103   -0.4410  159 193 
 SALAGPZ IS       1030 51.55                             103    0.1410  159 193 
 SALAGPZ  AML     1030 52.95     23250.2 3.81                           159 193 
                                                                                
 2008 1111 1204 36.7 R -30.104 -71.553 32.8  SJA  5 0.0 3.0LSJA                1
 GAP=263        0.35     150.0   161.6316.7 -0.2420E+05 -0.5109E+05  0.4749E+05E
 ACTION:UPD 09-04-21 08:38 OP:    STATUS:               ID:20081111120436 L   I
 2008-11-11-1204-41S.NCU___025                                                 6
 STAT SP IPHASW D HRMM SECON CODA AMPLIT PERI AZIMU VELO AIN AR TRES W  DIS CAZ7
 LCO  BE IP       12 5  1.16                              98   -0.0110  147  34 
 LCO  BE IS       12 5 19.26                              98    0.0110  147  34 
 LCO  BE  AML     12 5 22.88      4468.0 1.32                           147  34 
 RTLS PZ IP       12 5 21.52                              58    0.0610  286 132 
 RTLS PZ  AML     12 6  4.32      76.1e4 0.00                           286 132 
 RTUM PZ  AML     12 6 10.90      18.4e4 0.44                           313 139 
 RTLL PZ  AML     12 6 20.77     32875.4 0.00                           325 116 
 RTCV PZ IP       12 5 29.19                              58   -0.0610  348 125 
 RTCV PZ  AML     12 6 21.86      11.0e4 2.19                           348 125 
                                                                                
 2008 1111 1231  8.9 L -31.584 -67.907 20.6  SJA  6 0.2 2.4LSJA                1
 GAP=280        0.57       4.0     7.8  8.0 -0.1471E+02 -0.4795E+02  0.1806E+02E
 ACTION:UPD 09-04-21 08:38 OP:    STATUS:               ID:20081111123109 L   I
 2008-11-11-1230-19S.NCU___025                                                 6
 STAT SP IPHASW D HRMM SECON CODA AMPLIT PERI AZIMU VELO AIN AR TRES W  DIS CAZ7
 CFAA BZ IP       1231 16.19                             121    0.2410 31.0 266 
 CFAA BZ IS       1231 21.09                             121   -0.0910 31.0 266 
 CFAA BZ  AML     1231 22.93      6333.0 1.02                          31.0 266 
 RTLL PZ IP       1231 20.57                             104   -0.0110 60.9 297 
 RTLL PZ  AML     1231 35.16     24610.2 0.51                          60.9 297 
 RTCV PZ IP       1231 21.19                             102   -0.4210 67.5 243 
 RTCV PZ IS       1231 31.12                             102    0.1010 67.5 243 
 MOGNAPZ  AML     1231 39.23      23.2e4 0.00                          90.6 322 
 SALAGPZ IP       1231 33.05                              91    0.0510  142 218 
 RTUM PZ IP       1231 35.64                              91    0.1410  157 243 
                                                                                
 2008 1111 1331 45.0 R -31.746 -71.326 63.4  SJA  6 0.1 2.9LSJA                1
 GAP=325        0.32       4.9     4.6 11.9  0.2081E+00  0.1735E+02 -0.2974E+02E
 ACTION:UPD 09-04-21 08:38 OP:    STATUS:               ID:20081111133144 L   I
 2008-11-11-1331-28S.NCU___025                                                 6
 STAT SP IPHASW D HRMM SECON CODA AMPLIT PERI AZIMU VELO AIN AR TRES W  DIS CAZ7
 RTUM PZ IP       1332 15.33                              94   -0.1410  191 107 
 RTUM PZ IS       1332 38.02                              94    0.0010  191 107 
 RTUM PZ  AML     1332 40.11      47.6e4 0.00                           191 107 
 RTLS PZ IP       1332 16.29                              94    0.0110  192  92 
 RTLS PZ  AML     1332 42.33      46.8e4 2.47                           192  92 
 ARCO PZ IP       1332 24.32                              92    0.0910  256 119 
 ARCO PZ  AML     1333  0.85        65.7 0.49                           256 119 
 RTCV PZ IP       1332 25.37                              92    0.0810  264  94 
 RTCV PZ  AML     1332 42.58      15.8e4 0.99                           264  94 
 AGRELPZ IP       1332 27.06                              91   -0.0210  278 123 
 AGRELPZ  AML     1333  2.09      12.1e4 0.99                           278 123 
 CFAA BZ IP       1332 28.95                              78   -0.0210  294  88 
                                                                                
 2008 1111 1351 34.1 L -31.214 -68.973 94.7  SJA  4 0.1 1.9LSJA                1
 GAP=282        0.35       3.4     3.7  5.3 -0.7179E+01  0.1051E+02 -0.3024E+01E
 ACTION:UPD 09-04-21 08:38 OP:    STATUS:               ID:20081111135134 L   I
 2008-11-11-1350-59S.NCU___025                                                 6
 STAT SP IPHASW D HRMM SECON CODA AMPLIT PERI AZIMU VELO AIN AR TRES W  DIS CAZ7
 RTLS PZ  AML     1352  7.16      22.8e4 0.49                          71.7 205 
 CFAA BZ IP       1351 53.00                             130    0.0210 82.6 122 
 CFAA BZ IS       1352  6.97                             130   -0.0110 82.6 122 
 RTUM PZ IP       1351 56.78                             117    0.1110  119 199 
 RTUM PZ IS       1352 13.34                             117   -0.0610  119 199 
 RTUM PZ  AML     1352 13.78     42980.9 0.38                           119 199 
 SALAGPZ IP       1352  0.22                             106   -0.1310  153 175 
 SALAGPZ IS       1352 19.88                             106    0.0710  153 175 
 SALAGPZ  AML     1352 21.48     30287.0 0.49                           153 175 
                                                                                
 2008 1111 1740 44.5 L -32.009 -70.182101.5  SJA  3 0.1 2.0LSJA                1
 GAP=317        0.36       4.3     6.4  5.4  0.1465E+02  0.1977E+02  0.1383E+02E
 ACTION:UPD 09-04-21 08:38 OP:    STATUS:               ID:20081111174044 L   I
 2008-11-11-1740-39S.NCU___025                                                 6
 STAT SP IPHASW D HRMM SECON CODA AMPLIT PERI AZIMU VELO AIN AR TRES W  DIS CAZ7
 RTUM PZ IP       1741  3.86                             133    0.1210 78.8 108 
 RTUM PZ IS       1741 17.89                             133   -0.0710 78.8 108 
 RTLS PZ IP       1741  4.93                             129   -0.1310 87.0  75 
 RTLS PZ IS       1741 20.33                             129    0.0710 87.0  75 
 RTLS PZ  AML     1741 21.32      12.6e4 1.32                          87.0  75 
 SALAGPZ IP       1741  9.86                             108    0.0110  142 117 
 SALAGPZ IS       1741 28.60                             108    0.0010  142 117 
 SALAGPZ  AML     1741 30.97     55803.2 0.00                           142 117 
                                                                                
