 2008 11 8 1145 45.1 L -33.340 -68.902  8.0  SJA  7 0.1 2.1LSJA                1
 GAP=286        0.44       5.5     4.1  6.9  0.9725E+01  0.1433E+02  0.3056E+02E
 ACTION:UPD 09-04-21 08:38 OP:    STATUS:               ID:20081108114545 L   I
 2008-11-08-1145-17S.NCU___025                                                 6
 STAT SP IPHASW D HRMM SECON CODA AMPLIT PERI AZIMU VELO AIN AR TRES W  DIS CAZ7
 AGRELPZ IP       1145 51.30                             101    0.0110 29.0  14 
 AGRELPZ IS       1145 55.88                             101   -0.0110 29.0  14 
 AGRELPZ  AML     1145 57.57     131.4e4 1.42                          29.0  14 
 ARCO PZ  AML     1146  4.88       625.1 3.77                          55.4 357 
 SALAGPZ IP       1145 59.78                              72   -0.0510 83.2   4 
 SALAGPZ  AML     1146 17.61     72346.5 1.42                          83.2   4 
 RTUM PZ IP       1146  7.89                              72    0.1710  132 340 
 RTUM PZ  AML     1146 29.88     86266.8 1.89                           132 340 
 RTCV PZ IP       1146 13.84                              72    0.1710  167  12 
 RTLS PZ IP       1146 14.94                              72   -0.2710  175 348 
 RTLS PZ  AML     1146 40.26      10.4e4 1.89                           175 348 
 RTCT PZ IP       1146 18.54                              72   -0.0310  199  54 
                                                                                
 2008 11 8 1536 22.3 L -31.411 -68.529 98.7  SJA  6 0.3 2.3LSJA                1
 GAP=150        0.83       7.3     6.6  7.4 -0.2415E+02  0.6112E+01 -0.2035E+01E
 ACTION:UPD 09-04-21 08:38 OP:    STATUS:               ID:20081108153622 L   I
 2008-11-08-1535-42S.NCU___025                                                 6
 STAT SP IPHASW D HRMM SECON CODA AMPLIT PERI AZIMU VELO AIN AR TRES W  DIS CAZ7
 RTLL PZ IP       1536 37.53                             173   -0.0510 10.5  30 
 CFAA BZ IP       1536 38.48                             157    0.3210 35.3 127 
 CFAA BZ  AML     1536 51.44       855.7 0.00                          35.3 127 
 RTCV PZ IP       1536 39.34                             148    0.1610 50.0 181 
 RTCV PZ IS       1536 51.56                             148   -0.1510 50.0 181 
 RTCV PZ  AML     1536 52.48      44.3e4 0.00                          50.0 181 
 RTLS PZ IP       1536 42.22                             132   -0.1310 84.5 239 
 RTLS PZ IS       1536 56.91                             132   -0.3110 84.5 239 
 RTUM PZ IP       1536 45.57                             118    0.2010  121 222 
 RTUM PZ IS       1537  2.98                             118    0.5010  121 222 
 SALAGPZ IP       1536 46.00                             114   -0.5410  134 192 
 SALAGPZ  AML     1537  6.21     46051.6 0.00                           134 192 
                                                                                
 2008 11 8 1806 22.9 L -31.484 -68.608 99.1  SJA  9 0.4 2.9LSJA                1
 GAP=155        0.96       5.7     5.1  5.7 -0.1183E+02 -0.2753E+01  0.1072E+02E
 ACTION:UPD 09-04-21 08:38 OP:    STATUS:               ID:20081108180623 L   I
 2008-11-08-1805-42S.NCU___025                                                 6
 STAT SP IPHASW D HRMM SECON CODA AMPLIT PERI AZIMU VELO AIN AR TRES W  DIS CAZ7
 RTLL PZ IP       18 6 38.12                             166   -0.3510 21.3  36 
 CFAA BZ IP       18 6 39.04                             155    0.1010 38.0 110 
 CFAA BZ IS       18 6 50.86                             155    0.0210 38.0 110 
 CFAA BZ  AML     18 6 51.57      2395.1 0.95                          38.0 110 
 RTCV PZ IP       18 6 39.53                             153    0.1610 42.4 171 
 RTCV PZ IS       18 6 51.48                             153   -0.1110 42.4 171 
 RTCV PZ  AML     18 6 52.16     119.9e4 0.72                          42.4 171 
 RTLS PZ IP       18 6 41.94                             137   -0.1410 74.0 242 
 RTLS PZ IS       18 6 56.09                             137   -0.2110 74.0 242 
 RTLS PZ  AML     18 6 56.46      86.6e4 0.48                          74.0 242 
 RTUM PZ IP       18 6 45.28                             122    0.4310  110 222 
 RTUM PZ IS       18 7  1.76                             122    0.6310  110 222 
 SALAGPZ IP       18 6 46.07                             117   -0.0710  125 190 
 SALAGPZ  AML     18 7  4.92      29.6e4 1.19                           125 190 
 ARCO PZ IS       18 7  9.36                             109   -0.2410  154 191 
 ARCO PZ  AML     18 7 10.29       182.5 0.48                           154 191 
 RTCT PZ IP       18 6 50.77                             108    0.4910  160 123 
 AGRELPZ IP       18 6 51.87                             104   -0.7110  179 187 
 AGRELPZ  AML     18 7 14.82      42.2e4 0.48                           179 187 
                                                                                
 2008 11 8 1829  5.6 L -29.706 -72.722  0.0  SJA  5 0.5 4.2LSJA                1
 GAP=303        1.22      12.1    16.5 24.9 -0.1563E+03 -0.3044E+03  0.2511E+03E
 ACTION:UPD 09-04-21 08:38 OP:    STATUS:               ID:20081108182905 L   I
 2008-11-08-1829-12S.CAT___026                                                 6
 STAT SP IPHASW D HRMM SECON CODA AMPLIT PERI AZIMU VELO AIN AR TRES W  DIS CAZ7
 LCO  BE IP       1829 40.84                              65    0.1610  211  69 
 LCO  BE IS       1830  6.40                              65   -0.2510  211  69 
 LCO  BE  AML     1830  8.64     44261.9 1.92                           211  69 
 RTLS PZ IP       1830  9.00                              49    0.1710  402 126 
 RTLS PZ IS       1830 56.01                              49    0.3810  402 126 
 RTLL PZ IP       1830 13.42                              47   -0.7710  446 115 
 RTCV PZ IP       1830 16.26                              41   -0.4110  466 122 
 RTCV PZ  AML     1831 14.57      42.0e4 0.00                           466 122 
 CYA  PZ IP       1830 40.91                              41    0.7210  689  80 
 CYA  PZ  AML     1831 55.21        68.8 1.28                           689  80 
                                                                                
 2008 11 8 2033 47.9 L -25.642 -67.638  2.1  SJA  5 1.2 3.7LSJA                1
 GAP=272        3.00      28.0    75.3 61.1 -0.1278E+04 -0.1986E+04  0.1442E+04E
 ACTION:UPD 09-04-21 08:38 OP:    STATUS:               ID:20081108203348 L   I
 2008-11-08-2033-46S.JUJ___022                                                 6
 STAT SP IPHASW D HRMM SECON CODA AMPLIT PERI AZIMU VELO AIN AR TRES W  DIS CAZ7
 SLA  PZ IP       2034 28.55                              65    1.3310  238  65 
 THA  PZ IP       2034 28.23                              50   -2.1410  263 119 
 THA  PZ  AML     2035  6.09        68.5 3.26                           263 119 
 ZA   PZ  AML     2035 19.11        30.7 0.65                           304  59 
 CYA  PZ IP       2034 43.39                              49    0.7110  360 150 
 CYA  PZ IS       2035 23.84                              49    0.5910  360 150 
 CYA  PZ  AML     2035 26.27       281.5 0.00                           360 150 
 LO   PZ IP       2034 51.66                              48   -0.5010  423  62 
                                                                                
 2008 11 8 2054 46.3 L -30.533 -69.228 23.0  SJA  7 0.1 2.3LSJA                1
 GAP=316        0.46       4.3     6.0  6.0 -0.1915E+02  0.1523E+02 -0.1320E+02E
 ACTION:UPD 09-04-21 08:38 OP:    STATUS:               ID:20081108205446 L   I
 2008-11-08-2054-16S.NCU___025                                                 6
 STAT SP IPHASW D HRMM SECON CODA AMPLIT PERI AZIMU VELO AIN AR TRES W  DIS CAZ7
 RTLL PZ IP       2055  6.33                              96   -0.0310  114 141 
 RTLL PZ  AML     2055 24.07      30.6e4 0.50                           114 141 
 RTLS PZ IP       2055 10.66                              94   -0.2610  141 183 
 RTLS PZ IS       2055 29.10                              94   -0.0510  141 183 
 RTLS PZ  AML     2055 31.58      21.9e4 1.00                           141 183 
 CFAA BZ IP       2055 12.26                              93    0.0610  152 142 
 RTCV PZ  AML     2055 37.58      12.5e4 1.50                           161 156 
 RTUM PZ IP       2055 18.14                              92    0.2610  188 185 
 RTUM PZ IS       2055 41.30                              92    0.0510  188 185 
 RTUM PZ  AML     2055 46.59     64392.7 0.50                           188 185 
 SALAGPZ  AML     2055 56.10     56046.1 0.00                           231 171 
 ARCO PZ IP       2055 27.54                              58   -0.0310  258 174 
 ARCO PZ  AML     2056  6.86        33.5 0.50                           258 174 
                                                                                
 2008 11 8 2127  2.4 L -32.594 -71.884 10.1  SJA  6 0.1 3.4LSJA                1
 GAP=326        0.43       9.6    45.8 58.9  0.3766E+03 -0.2682E+04 -0.4947E+03E
 ACTION:UPD 09-04-21 08:38 OP:    STATUS:               ID:20081108212701 L   I
 2008-11-08-2126-54S.CAT___026                                                 6
 STAT SP IPHASW D HRMM SECON CODA AMPLIT PERI AZIMU VELO AIN AR TRES W  DIS CAZ7
 RTUM PZ IP       2127 42.15                              58    0.1310  239  81 
 RTLS PZ IP       2127 45.30                              58   -0.1610  259  71 
 SALAGPZ IP       2127 48.26                              58   -0.0510  286  91 
 SALAGPZ IS       2128 22.15                              58   -0.1210  286  91 
 SALAGPZ  AML     2128 33.18      17.7e4 0.00                           286  91 
 AGRELPZ IP       2127 49.48                              58    0.1810  291 102 
 AGRELPZ  AML     2128  1.93      48.9e4 0.64                           291 102 
 RTCV PZ IP       2127 53.85                              56   -0.1110  325  76 
 RTCV PZ  AML     2128 38.92      27.1e4 0.64                           325  76 
 RTLL PZ IS       2128 38.25                              56    0.1310  351  67 
 RTLL PZ  AML     2128 44.98      61.0e4 0.00                           351  67 
                                                                                
 2008 11 9 1116 50.7 R -33.450 -70.640122.0  SJA  6 0.4 2.2LSJA                1
 GAP=324        1.04      16.1    23.3 35.3 -0.2543E+03  0.7051E+03 -0.3561E+03E
 ACTION:UPD 09-04-21 08:38 OP:    STATUS:               ID:20081109111650 L   I
 2008-11-09-1116-28S.NCU___025                                                 6
 STAT SP IPHASW D HRMM SECON CODA AMPLIT PERI AZIMU VELO AIN AR TRES W  DIS CAZ7
 ARCO PZ IP       1117 20.33                             113   -0.1910  173  68 
 ARCO PZ IS       1117 41.89                             113   -0.7210  173  68 
 ARCO PZ  AML     1117 44.43        30.5 0.48                           173  68 
 AGRELPZ IP       1117 20.73                             113    0.1910  174  77 
 AGRELPZ  AML     1117 42.52      19.8e4 0.00                           174  77 
 RTUM PZ IP       1117 21.16                             112    0.1010  180  41 
 RTUM PZ  AML     1117 44.19     60447.7 0.48                           180  41 
 SALAGPZ IP       1117 22.78                             109    0.4110  194  61 
 SALAGPZ IS       1117 46.49                             109    0.6710  194  61 
 SALAGPZ  AML     1117 48.95     17565.9 0.00                           194  61 
 RTCV PZ IP       1117 30.44                             100   -0.1510  264  49 
 RTCV PZ IS       1118  0.15                             100    0.0210  264  49 
 RTCV PZ  AML     1118  1.57     35503.0 0.95                           264  49 
 RTLL PZ IP       1117 35.60                              96   -0.3310  311  41 
                                                                                
 2008 11 9 1230 51.7 L -31.537 -69.966102.7  SJA  4 0.1 2.2LSJA                1
 GAP=297        0.37       5.1     5.8  5.2 -0.2111E+02  0.1506E+02 -0.2024E+02E
 ACTION:UPD 09-04-21 08:38 OP:    STATUS:               ID:20081109123051 L   I
 2008-11-09-1230-39S.NCU___025                                                 6
 STAT SP IPHASW D HRMM SECON CODA AMPLIT PERI AZIMU VELO AIN AR TRES W  DIS CAZ7
 RTLS PZ IP       1231 10.91                             138   -0.0110 69.8 115 
 RTLS PZ IS       1231 25.10                             138   -0.0310 69.8 115 
 RTLS PZ  AML     1231 26.58      20.0e4 0.88                          69.8 115 
 RTUM PZ IP       1231 12.54                             127    0.1810 93.8 144 
 RTUM PZ IS       1231 27.55                             127   -0.0810 93.8 144 
 RTLL PZ IP       1231 17.48                             108   -0.1110  144  81 
 RTLL PZ IS       1231 36.85                             108    0.1110  144  81 
 RTLL PZ  AML     1231 38.42     92880.0 0.44                           144  81 
 CFAA BZ IP       1231 19.68                             102   -0.0710  165  93 
                                                                                
 2008 11 9 1317  2.7 L -32.056 -69.314109.4  SJA  5 0.2 2.1LSJA                1
 GAP=247        0.60       5.5    15.7 11.9 -0.7769E+02  0.1583E+03 -0.5425E+02E
 ACTION:UPD 09-04-21 08:38 OP:    STATUS:               ID:20081109131702 L   I
 2008-11-09-1316-26S.NCU___025                                                 6
 STAT SP IPHASW D HRMM SECON CODA AMPLIT PERI AZIMU VELO AIN AR TRES W  DIS CAZ7
 SALAGPZ IP       1317 22.35                             138    0.3110 74.6 143 
 SALAGPZ IS       1317 36.67                             138    0.3510 74.6 143 
 SALAGPZ  AML     1317 37.63      10.8e4 0.28                          74.6 143 
 RTCV PZ IP       1317 22.64                             138    0.1110 76.2  74 
 RTCV PZ IS       1317 36.95                             138   -0.2210 76.2  74 
 RTCV PZ  AML     1317 37.77      13.4e4 0.28                          76.2  74 
 ARCO PZ IP       1317 23.82                             130   -0.2310 94.2 158 
 ARCO PZ IS       1317 39.50                             130   -0.3210 94.2 158 
 ARCO PZ  AML     1317 39.98        77.5 0.55                          94.2 158 
 RTLL PZ IP       1317 25.74                             123   -0.0610  113  45 
 RTLL PZ IS       1317 42.84                             123   -0.0210  113  45 
 RTLL PZ  AML     1317 43.72     76509.3 0.55                           113  45 
 CFAA BZ IP     C 1317 25.68                             123    0.0010  114  64 
 CFAA BZ IS       1317 42.70                             123    0.0610  114  64 
                                                                                
 2008 11 9 1738 29.0 L -31.412 -68.772 97.3  SJA  7 0.2 2.8LSJA                1
 GAP=203        0.51       3.9     3.4  3.4 -0.6604E+01  0.1912E+01  0.1517E+01E
 ACTION:UPD 09-04-21 08:38 OP:    STATUS:               ID:20081109173829 L   I
 2008-11-09-1737-51S.NCU___025                                                 6
 STAT SP IPHASW D HRMM SECON CODA AMPLIT PERI AZIMU VELO AIN AR TRES W  DIS CAZ7
 INPC PZ  AML     1738 59.71      1265.6 0.50                          24.0 123 
 RTLL PZ IP       1738 44.73                             160    0.0310 29.7  72 
 RTLL PZ IS       1738 56.16                             160   -0.1710 29.7  72 
 RTLL PZ  AML     1738 57.23     104.1e4 0.99                          29.7  72 
 RTCV PZ IP       1738 46.21                             145    0.1310 54.6 156 
 RTCV PZ IS       1738 58.49                             145   -0.2410 54.6 156 
 RTCV PZ  AML     1738 59.71     115.3e4 0.99                          54.6 156 
 CFAA BZ IP       1738 46.04                             145    0.1010 55.5 113 
 CFAA BZ IS       1738 58.81                             145    0.3210 55.5 113 
 CFAA BZ  AML     1738 59.22      2600.1 1.49                          55.5 113 
 RTLS PZ IP       1738 47.25                             140   -0.1410 65.7 229 
 RTLS PZ  AML     1739  1.45     139.7e4 0.00                          65.7 229 
 RTUM PZ IP       1738 50.71                             122    0.1510  107 213 
 RTUM PZ IS       1739  6.56                             122    0.0310  107 213 
 RTUM PZ  AML     1739  9.39      48.6e4 0.99                           107 213 
 RTCT PZ IP       1738 58.19                             103   -0.2010  178 123 
                                                                                
 2008 11 9 2001 49.6 L -31.651 -68.709 94.7  SJA  7 0.1 2.8LSJA                1
 GAP=167        0.46       4.3     3.6  3.7 -0.9129E+01 -0.2372E+01  0.4324E+00E
 ACTION:UPD 09-04-21 08:38 OP:    STATUS:               ID:20081109200150 L   I
 2008-11-09-2001-12S.NCU___025                                                 6
 STAT SP IPHASW D HRMM SECON CODA AMPLIT PERI AZIMU VELO AIN AR TRES W  DIS CAZ7
 INPC PZ  AML     20 2 16.46      2668.9 0.49                          19.7  46 
 RTCV PZ IP       20 2  5.13                             160    0.1810 28.3 146 
 RTCV PZ IS       20 2 16.32                             160    0.0010 28.3 146 
 RTCV PZ  AML     20 2 16.95     109.1e4 0.00                          28.3 146 
 RTLL PZ IP       20 2  5.46                             152   -0.1610 42.1  32 
 RTLL PZ  AML     20 2 17.69     148.4e4 0.49                          42.1  32 
 CFAA BZ IP       20 2  5.70                             150    0.0710 45.6  83 
 CFAA BZ  AML     20 2 19.17      2977.5 0.99                          45.6  83 
 RTLS PZ  AML     20 2 21.15     135.8e4 0.49                          58.0 253 
 RTUM PZ IP       20 2  9.49                             127    0.1910 90.2 225 
 RTUM PZ IS       20 2 23.70                             127   -0.1810 90.2 225 
 RTUM PZ  AML     20 2 24.85      23.5e4 1.48                          90.2 225 
 RTCT PZ IP       20 2 16.66                             104   -0.1110  160 116 
                                                                                
 2008 11 9 2115 27.3 L -31.463 -68.712 89.7  SJA  4 0.2 2.1LSJA                1
 GAP=181        0.46       3.6     3.8  4.0 -0.8018E+01  0.5357E+01 -0.4832E-01E
 ACTION:UPD 09-04-21 08:38 OP:    STATUS:               ID:20081109211527 L   I
 2008-11-09-2114-51S.NCU___025                                                 6
 STAT SP IPHASW D HRMM SECON CODA AMPLIT PERI AZIMU VELO AIN AR TRES W  DIS CAZ7
 RTLL PZ IP       2115 41.98                             161   -0.0210 26.9  57 
 RTLL PZ IS       2115 53.05                             161    0.1510 26.9  57 
 RTLL PZ  AML     2115 53.53      21.1e4 0.00                          26.9  57 
 RTCV PZ IP       2115 42.97                             148   -0.1310 47.2 160 
 RTCV PZ IS       2115 54.75                             148   -0.0610 47.2 160 
 RTCV PZ  AML     2115 55.35      14.7e4 0.40                          47.2 160 
 RTLS PZ IP       2115 45.15                             138    0.0810 66.8 236 
 RTLS PZ IS       2115 58.00                             138   -0.2410 66.8 236 
 RTLS PZ  AML     2115 59.14      29.1e4 0.24                          66.8 236 
 RTUM PZ IP       2115 48.19                             122   -0.0410  106 217 
 RTUM PZ IS       2116  4.01                             122    0.2710  106 217 
 RTUM PZ  AML     2116  4.80     70698.5 0.24                           106 217 
                                                                                
