 2008 1113 0011 21.3 L -31.421 -69.193 97.8  SJA  8 0.2 2.3LSJA                1
 GAP=249        0.64       3.9     4.2  4.2 -0.7838E+01  0.2053E+01  0.4747E+01E
 ACTION:UPD 09-04-21 08:38 OP:    STATUS:               ID:20081113001121 L   I
 2008-11-13-0010-42S.NCU___025                                                 6
 STAT SP IPHASW D HRMM SECON CODA AMPLIT PERI AZIMU VELO AIN AR TRES W  DIS CAZ7
 RTLS PZ IP        011 37.97                             152   -0.2210 43.0 193 
 RTLS PZ IS        011 50.68                             152   -0.0310 43.0 193 
 RTLL PZ IP        011 39.35                             138   -0.1410 69.1  82 
 RTLL PZ IS        011 53.04                             138    0.0710 69.1  82 
 RTLL PZ  AML      011 55.54     35199.9 1.55                          69.1  82 
 RTCV PZ IP        011 40.56                             133    0.2510 78.9 128 
 RTCV PZ IS        011 54.70                             133    0.2910 78.9 128 
 RTCV PZ  AML      011 56.83      44.1e4 0.00                          78.9 128 
 RTUM PZ IP        011 41.36                             129    0.0910 90.9 192 
 RTUM PZ  AML      011 57.34      19.4e4 1.55                          90.9 192 
 CFAA BZ IP        011 41.58                             127    0.1310 93.4 103 
 CFAA BZ IS        011 55.98                             127   -0.4010 93.4 103 
 SALAGPZ IP        011 45.95                             114    0.4310  134 165 
 SALAGPZ  AML      012  5.60      11.7e4 0.52                           134 165 
 ARCO PZ IP        011 48.67                             107   -0.0810  159 171 
 ARCO PZ IS        012  8.91                             107   -0.1710  159 171 
 ARCO PZ  AML      012 11.02       104.6 1.03                           159 171 
 AGRELPZ IP        011 51.79                             101   -0.2210  188 170 
 AGRELPZ  AML      012 15.66     82502.0 0.00                           188 170 
                                                                                
 2008 1113 0835 43.0 L -31.603 -69.486118.5  SJA  9 0.3 3.1LSJA                1
 GAP=260        0.75       3.9     6.7  6.9 -0.1125E+02  0.2503E+01 -0.4017E+01E
 ACTION:UPD 09-04-21 08:38 OP:    STATUS:               ID:20081113083543 L   I
 2008-11-13-0835-07S.NCU___025                                                 6
 STAT SP IPHASW D HRMM SECON CODA AMPLIT PERI AZIMU VELO AIN AR TRES W  DIS CAZ7
 RTLS PZ IP        836  1.03                             164   -0.4710 28.2 140 
 RTLS PZ  AML      836 13.42     147.9e4 1.58                          28.2 140 
 RTUM PZ IP        836  3.38                             144    0.4110 69.5 172 
 RTUM PZ IS        836 17.79                             144    0.0210 69.5 172 
 RTUM PZ  AML      836 18.69     194.4e4 0.00                          69.5 172 
 INPC PZ IP        836  4.99                             136    0.0210 88.3  85 
 INPC PZ  AML      836 21.85      1770.9 1.05                          88.3  85 
 RTCV PZ IP        836  5.41                             134    0.4510 94.1 108 
 RTLL PZ IP        836  5.41                             131   -0.1110  101  73 
 RTLL PZ  AML      836 21.85      12.3e4 1.05                           101  73 
 CFAA BZ IP        836  7.20                             125    0.2310  119  90 
 CFAA BZ IS        836 24.47                             125   -0.2510  119  90 
 SALAGPZ IP        836  7.43                             123   -0.0210  126 151 
 SALAGPZ IS        836 25.85                             123    0.2910  126 151 
 SALAGPZ  AML      836 27.39      85.6e4 0.53                           126 151 
 ARCO PZ IP        836  9.92                             118   -0.0210  147 159 
 ARCO PZ IS        836 29.67                             118   -0.2310  147 159 
 ARCO PZ  AML      836 31.34       568.6 1.58                           147 159 
 AGRELPZ IP        836 12.59                             111   -0.3310  176 160 
 AGRELPZ  AML      836 36.61      43.9e4 0.00                           176 160 
                                                                                
 2008 1113 0946 19.8 L -32.023 -69.875114.6  SJA  5 0.1 2.7LSJA                1
 GAP=304        0.37       4.3     3.9  3.0 -0.9425E+01  0.1238E+01 -0.5418E+01E
 ACTION:UPD 09-04-21 08:38 OP:    STATUS:               ID:20081113094619 L   I
 2008-11-13-0945-52S.NCU___025                                                 6
 STAT SP IPHASW D HRMM SECON CODA AMPLIT PERI AZIMU VELO AIN AR TRES W  DIS CAZ7
 RTUM PZ IP        946 38.29                             152   -0.0410 51.2 116 
 RTUM PZ IS        946 52.06                             152    0.0410 51.2 116 
 RTUM PZ  AML      946 53.68      57.3e4 2.60                          51.2 116 
 RTLS PZ IP        946 39.34                             147   -0.1210 60.1  66 
 RTLS PZ IS        946 53.99                             147    0.0110 60.1  66 
 RTLS PZ  AML      946 54.98     169.8e4 1.56                          60.1  66 
 RTCV PZ IP        946 44.74                             121    0.1310  127  82 
 RTCV PZ IS        947  2.95                             121    0.0210  127  82 
 RTCV PZ  AML      947  3.57      61.2e4 0.00                           127  82 
 RTLL PZ IP        946 47.48                             114    0.2110  153  60 
 RTLL PZ IS        947  7.55                             114   -0.0110  153  60 
 RTLL PZ  AML      947  8.77     30726.1 0.00                           153  60 
 CFAA BZ IP        946 47.83                             112   -0.1910  162  74 
 CFAA BZ IS        947  8.81                             112   -0.0610  162  74 
                                                                                
 2008 1113 2120 28.9 R -28.610 -69.953  0.2  SJA  7 2.0 3.3LSJA                1
 GAP=210        5.05      94.8   120.4211.8 -0.1038E+05 -0.2517E+05  0.1771E+05E
 ACTION:UPD 09-04-21 08:38 OP:    STATUS:               ID:20081113212016 L   I
 2008-11-13-2120-29S.CAT___026                                                 6
 STAT SP IPHASW D HRMM SECON CODA AMPLIT PERI AZIMU VELO AIN AR TRES W  DIS CAZ7
 LCO  BE IP       2120 40.39                              92   -3.5410 85.5 238 
 LCO  BE IS       2120 58.04                              92    3.0010 85.5 238 
 LCO  BE  AML     2121  0.87     21855.6 0.58                          85.5 238 
 RTLL PZ IP       2121 23.90                              49    1.2910  333 155 
 RTLS PZ IP       2121 25.32                              49   -1.1310  359 170 
 RTLS PZ  AML     2122 36.47      41.5e4 1.17                           359 170 
 CFAA BZ IP       2121 28.23                              49    0.8310  371 154 
 RTCV PZ IP       2121 29.40                              49   -0.1210  385 160 
 RTCV PZ  AML     2122 48.46     80023.0 0.00                           385 160 
 RTUM PZ IP       2121 30.04                              49   -1.8310  404 172 
 RTUM PZ  AML     2122 47.29      15.3e4 1.17                           404 172 
 CYA  PZ IP       2121 31.76                              48    1.5010  407  88 
 CYA  PZ  AML     2122 51.67        53.3 0.58                           407  88 
                                                                                
 2008 1113 2258 29.7 L -31.577 -69.265 99.9  SJA  6 0.3 2.2LSJA                1
 GAP=241        0.73       6.2     5.4  6.2 -0.2210E+02  0.2603E+01 -0.1103E+02E
 ACTION:UPD 09-04-21 08:38 OP:    STATUS:               ID:20081113225829 L   I
 2008-11-13-2257-52S.NCU___025                                                 6
 STAT SP IPHASW D HRMM SECON CODA AMPLIT PERI AZIMU VELO AIN AR TRES W  DIS CAZ7
 RTLS PZ IP       2258 46.01                             164    0.0010 24.8 187 
 RTLS PZ IS       2258 58.27                             164    0.1710 24.8 187 
 RTLS PZ  AML     2258 58.44      46.3e4 0.51                          24.8 187 
 INPC PZ  AML     2259 18.73       798.3 1.01                          67.2  86 
 RTUM PZ IP       2258 48.63                             138    0.3810 72.6 189 
 RTUM PZ IS       2259  1.50                             138   -0.4910 72.6 189 
 RTUM PZ  AML     2259  5.29      11.2e4 0.51                          72.6 189 
 RTCV PZ IP       2258 48.95                             136    0.3310 75.7 115 
 RTCV PZ IS       2259  2.81                             136    0.1710 75.7 115 
 RTCV PZ  AML     2259  3.26      20.8e4 0.00                          75.7 115 
 RTLL PZ IP       2258 48.75                             134   -0.2410 80.0  70 
 RTLL PZ IS       2259  3.27                             134   -0.0110 80.0  70 
 RTLL PZ  AML     2259  5.29     69923.6 0.51                          80.0  70 
 CFAA BZ IP       2258 50.18                             127   -0.2710 98.1  92 
 CFAA BZ IS       2259  5.80                             127   -0.0310 98.1  92 
                                                                                
 2008 1113 2325 14.3 L -31.290 -68.046 94.3  SJA  6 0.2 2.2LSJA                1
 GAP=259        0.50       4.9     2.2  5.1  0.3148E+01 -0.7372E+00 -0.3983E+01E
 ACTION:UPD 09-04-21 08:38 OP:    STATUS:               ID:20081113232514 L   I
 2008-11-13-2324-43S.NCU___025                                                 6
 STAT SP IPHASW D HRMM SECON CODA AMPLIT PERI AZIMU VELO AIN AR TRES W  DIS CAZ7
 CFAA BZ IP       2325 30.01                             153    0.1010 39.0 207 
 RTLL PZ  AML     2325 42.32      11.2e4 0.48                          41.1 264 
 RTCV PZ IP       2325 33.06                             132    0.0010 78.9 216 
 RTCV PZ IS       2325 46.81                             132   -0.1410 78.9 216 
 RTCV PZ  AML     2325 48.78      20.4e4 2.39                          78.9 216 
 RTLS PZ IP       2325 38.57                             112   -0.3410  131 244 
 RTLS PZ IS       2325 57.38                             112    0.2610  131 244 
 RTLS PZ  AML     2325 58.59      29.0e4 1.44                           131 244 
 RTCT PZ IP       2325 38.96                             110    0.1910  136 144 
 RTCT PZ IS       2325 56.79                             110   -0.0810  136 144 
 RTUM PZ IP       2325 41.99                             103   -0.0310  164 230 
 RTUM PZ IS       2326  2.57                             103    0.0310  164 230 
 RTUM PZ  AML     2326  5.05     68124.9 1.44                           164 230 
                                                                                
 2008 1114 0217 12.8 L -30.150 -68.741 93.8  SJA  6 0.3 2.5LSJA                1
 GAP=221        0.74       7.5     8.1 15.3 -0.3778E+02  0.2942E+02 -0.9230E+02E
 ACTION:UPD 09-04-21 08:38 OP:    STATUS:               ID:20081114021712 L   I
 2008-11-14-0217-09S.NCU___025                                                 6
 STAT SP IPHASW D HRMM SECON CODA AMPLIT PERI AZIMU VELO AIN AR TRES W  DIS CAZ7
 RTLL PZ IP        217 37.09                             111   -0.0610  133 169 
 RTLL PZ IS        217 55.36                             111    0.2110  133 169 
 RTLL PZ  AML      217 57.68      13.8e4 1.32                           133 169 
 CFAA BZ IP        217 40.81                             101   -0.2010  168 163 
 RTLS PZ IP        217 43.91                              97   -0.3710  190 196 
 RTCV PZ IP        217 43.74                              97   -0.1510  191 174 
 RTCV PZ IS        218  6.83                              97   -0.0610  191 174 
 RTCV PZ  AML      218  8.86      10.3e4 0.88                           191 174 
 RTUM PZ IP        217 49.98                              93    0.5810  238 195 
 CYA  PZ IS        218 34.37                              74    0.0510  343  57 
 CYA  PZ  AML      218 35.17        21.5 0.88                           343  57 
                                                                                
 2008 1114 0259 38.9 R -29.284 -68.014  8.4  SJA  7 1.9 3.7LSJA                1
 GAP=224        5.07      40.1    32.7 52.0 -0.1159E+04 -0.1063E+04  0.1657E+04E
 ACTION:UPD 09-04-21 08:38 OP:    STATUS:               ID:20081114025939 L   I
 2008-11-14-0258-00S.MAN___070                                                 6
 STAT SP IPHASW D HRMM SECON CODA AMPLIT PERI AZIMU VELO AIN AR TRES W  DIS CAZ7
 RTLL PZ IP        3 0 18.15                              72    0.5010  231 191 
 CYA  PN IP        3 0 17.58                              72    1.3810  236  67 
 CYA  PN IS        3 0 43.15                              72   -0.6610  236  67 
 CYA  PZ  AML      3 0 50.76      1140.8 3.99                           236  67 
 INPC PZ IP        3 0 22.02                              54    0.5310  254 192 
 INPC PZ IS        3 0 51.80                              54   -1.2110  254 192 
 INPC PZ  AML      3 0 56.74      1343.6 2.66                           254 192 
 RTCV PZ IP        3 0 25.63                              54   -0.2310  290 190 
 RTCV PZ IS        3 1  0.63                              54    0.0110  290 190 
 RTLS PZ IP        3 0 29.58                              54    1.3510  305 203 
 RTLS PZ IS        3 1  5.29                              54    0.5510  305 203 
 RTUM PZ IP        3 0 35.14                              52    1.2610  352 202 
 RTUM PZ IS        3 1 13.31                              52   -1.2710  352 202 
 TCA  PZ IP        3 0 33.74                              52   -5.2910  400 126 
 TCA  PZ IS        3 1 26.62                              52    3.0910  400 126 
                                                                                
 2008 1114 0611 54.1 R -33.733 -71.201 84.9  SJA  6 0.2 2.9LSJA                1
 GAP=328        0.67       8.2    10.1 20.4 -0.3627E+02  0.6805E+02 -0.5624E+01E
 ACTION:UPD 09-04-21 08:38 OP:    STATUS:               ID:20081114061154 L   I
 2008-11-14-0611-35S.NCU___025                                                 6
 STAT SP IPHASW D HRMM SECON CODA AMPLIT PERI AZIMU VELO AIN AR TRES W  DIS CAZ7
 AGRELPZ IP        612 29.98                              92   -0.1310  232  73 
 AGRELPZ  AML      612 59.25      12.7e4 3.67                           232  73 
 ARCO PZ IP        612 30.18                              92   -0.1210  233  66 
 ARCO PZ  AML      613  2.40       151.0 0.00                           233  66 
 RTUM PZ IP        612 31.22                              91    0.4710  238  46 
 RTUM PZ IS        612 57.62                              91   -0.2810  238  46 
 RTUM PZ  AML      613  0.30      33.0e4 1.57                           238  46 
 SALAGPZ IP        612 32.61                              91    0.0210  255  61 
 SALAGPZ IS        613  1.40                              91    0.2910  255  61 
 SALAGPZ  AML      613 10.53     82147.4 0.00                           255  61 
 RTLS PZ IP        612 36.33                              91   -0.0410  279  40 
 RTLS PZ  AML      613 11.58      39.4e4 1.05                           279  40 
 CFAA BZ IP        612 45.63                              74   -0.2110  365  50 
                                                                                
 2008 1114 0804  6.6 R -28.324 -70.683 28.8  SJA  8 0.3 3.6LSJA                1
 GAP=288        0.77      28.7    43.4 51.8 -0.1185E+04  0.1531E+04 -0.1121E+04E
 ACTION:UPD 09-04-21 08:38 OP:    STATUS:               ID:20081114080359 L   I
 2008-11-14-0804-15S.CAT___026                                                 6
 STAT SP IPHASW D HRMM SECON CODA AMPLIT PERI AZIMU VELO AIN AR TRES W  DIS CAZ7
 RTLL PZ IP        8 5  6.02                              56    0.2110  396 148 
 RTLL PZ  AML      8 6  2.40      54.5e4 2.30                           396 148 
 RTLS PZ IP        8 5  7.62                              56   -0.2110  408 161 
 RTLS PZ  AML      8 6 13.34      81.5e4 0.58                           408 161 
 INPC PZ  AML      8 6 27.45       307.3 2.30                           410 151 
 CFAA BZ IP        8 5 10.57                              47    0.2010  434 148 
 RTCV PZ IP        8 5 11.17                              47   -0.5110  443 153 
 RTCV PZ  AML      8 6 15.64      20.2e4 1.73                           443 153 
 RTUM PZ IP        8 5 12.62                              47    0.3210  450 164 
 RTUM PZ  AML      8 6 13.63      20.9e4 1.15                           450 164 
 CYA  PZ IP        8 5 13.62                              47   -0.0110  479  93 
 CYA  PZ  AML      8 6 10.17       114.5 0.58                           479  93 
 ARCO PZ  AML      8 6 37.24        83.4 0.58                           528 162 
                                                                                
 2008 1114 0902  8.5 L -31.769 -69.181114.6  SJA 10 0.3 3.5LSJA                1
 GAP=201        0.77       5.7     9.9  6.9 -0.4027E+02  0.3974E+02 -0.1722E+02E
 ACTION:UPD 09-04-21 08:38 OP:    STATUS:               ID:20081114090208 L   I
 2008-11-14-0901-31S.CAT___026                                                 6
 STAT SP IPHASW D HRMM SECON CODA AMPLIT PERI AZIMU VELO AIN AR TRES W  DIS CAZ7
 RTLS PZ  AML      9 2 46.75     168.0e4 0.66                          11.4 253 
 RTUM PZ IP        9 2 27.40                             150    0.2210 54.1 201 
 RTUM PZ  AML      9 2 40.77     177.3e4 1.33                          54.1 201 
 RTCV PZ IP        9 2 28.15                             146    0.4110 61.6 100 
 RTCV PZ IS        9 2 42.16                             146    0.2010 61.6 100 
 RTCV PZ  AML      9 2 42.43     152.9e4 0.00                          61.6 100 
 INPC PZ IP        9 2 27.93                             145   -0.5010 64.7  66 
 INPC PZ  AML      9 2 45.09      4578.9 1.33                          64.7  66 
 RTLL PZ IP        9 2 28.90                             137   -0.3710 82.9  54 
 RTLL PZ  AML      9 2 47.74     193.6e4 0.66                          82.9  54 
 CFAA BZ IP        9 2 29.86                             133    0.0610 91.8  79 
 CFAA BZ  AML      9 2 45.09      7919.2 0.66                          91.8  79 
 CFAA BZ IS        9 2 45.45                             133   -0.1010 91.8  79 
 SALAGPZ IP        9 2 30.17                             131    0.0910 96.9 160 
 SALAGPZ  AML      9 2 47.08     144.9e4 0.00                          96.9 160 
 ARCO PZ IP        9 2 32.70                             123   -0.0110  121 169 
 ARCO PZ  AML      9 2 52.73      2453.5 0.00                           121 169 
 AGRELPZ IP        9 2 35.22                             115   -0.3210  150 167 
 AGRELPZ  AML      9 2 59.04     161.7e4 1.33                           150 167 
 CYA  PZ IP        9 3 12.68                              91    0.3210  492  42 
 CYA  PZ  AML      9 3 57.51       166.2 1.33                           492  42 
                                                                                
