 2008 11 5 0902 15.1 L -24.201 -65.049  0.0  SJA  3 0.4 1.9LSJA                1
 GAP=206        1.01      57.6    50.3 19.4 -0.2879E+04  0.8366E+03 -0.9988E+03E
 ACTION:UPD 09-04-21 08:38 OP:    STATUS:               ID:20081105090215 L   I
 2008-11-05-0901-28S.JUJ___036                                                 6
 STAT SP IPHASW D HRMM SECON CODA AMPLIT PERI AZIMU VELO AIN AR TRES W  DIS CAZ7
 ZA   PZ IP        9 2 18.22                             124   -0.6610 3.17 212 
 ZA   PZ IS        9 2 21.83                             124    0.1410 3.17 212 
 ZA   PZ  AML      9 2 25.00        83.1 0.79                          3.17 212 
 SB   PZ IP        9 2 26.48                              91    0.0910 63.8  64 
 SB   PZ  AML      9 2 40.33     14083.8 0.00                          63.8  64 
 SLA  PZ IP        9 2 28.59                              91    0.4310 73.8 219 
 SLA  PZ  AML      9 2 40.33        28.6 3.14                          73.8 219 
                                                                                
 2008 11 5 0931 27.9 L -31.523 -68.896 94.2  SJA  8 0.2 2.0LSJA                1
 GAP=191        0.59       4.4     4.9  4.6 -0.1143E+02  0.2208E+01  0.3100E+01E
 ACTION:UPD 09-04-21 08:38 OP:    STATUS:               ID:20081105093128 L   I
 2008-11-05-0930-48S.NCU___025                                                 6
 STAT SP IPHASW D HRMM SECON CODA AMPLIT PERI AZIMU VELO AIN AR TRES W  DIS CAZ7
 RTLL PZ IP        931 44.05                             149   -0.0710 45.4  62 
 RTLS PZ IP        931 44.62                             148   -0.2210 48.8 231 
 RTCV PZ IP        931 44.71                             146    0.2610 50.5 138 
 RTCV PZ IS        931 56.55                             146   -0.1210 50.5 138 
 CFAA BZ IP        931 45.23                             139    0.0210 63.6  98 
 CFAA BZ  AML      931 57.65       472.0 4.80                          63.6  98 
 RTUM PZ IP        931 47.91                             127    0.2510 90.6 211 
 RTUM PZ IS        932  2.24                             127    0.0010 90.6 211 
 SALAGPZ IP        931 50.68                             116    0.3610  119 177 
 SALAGPZ  AML      932  8.06     41670.0 1.07                           119 177 
 ARCO PZ IP        931 53.59                             108   -0.2010  146 181 
 ARCO PZ  AML      932 13.66        27.4 0.00                           146 181 
 AGRELPZ IP        931 56.65                             100   -0.2710  173 178 
 AGRELPZ  AML      932 19.80     58573.5 0.53                           173 178 
                                                                                
 2008 11 5 1336 25.3 L -23.494 -65.541  0.0  SJA  4 1.7 3.2LSJA                1
 GAP=183        4.03      29.1    69.5219.7  0.1568E+04  0.1281E+05  0.5733E+04E
 ACTION:UPD 09-04-21 08:38 OP:    STATUS:               ID:20081105133625 L   I
 2008-11-05-1335-49S.JUJ___019                                                 6
 STAT SP IPHASW D HRMM SECON CODA AMPLIT PERI AZIMU VELO AIN AR TRES W  DIS CAZ7
 ZA   PZ IP       1336 42.24                              65   -2.8110 94.4 149 
 ZA   PZ  AML     1337  9.72        87.1 0.00                          94.4 149 
 SB   PZ IP       1336 47.37                              65    1.5310  119 115 
 SLA  PZ IS       1337  6.84                              65    1.1110  136 178 
 SLA  PZ  AML     1337  8.88        88.1 1.69                           136 178 
 YAVI PZ IP       1336 50.44                              65    0.1710  146   1 
                                                                                
 2008 11 5 1415  4.5 L -23.697 -64.782  0.0  SJA  4 1.5 2.7LSJA                1
 GAP=157        3.57      17.3    18.2 63.1  0.3567E+01  0.6338E+03 -0.6061E+03E
 ACTION:UPD 09-04-21 08:38 OP:    STATUS:               ID:20081105141504 L   I
 2008-11-05-1414-18S.JUJ___019                                                 6
 STAT SP IPHASW D HRMM SECON CODA AMPLIT PERI AZIMU VELO AIN AR TRES W  DIS CAZ7
 SB   PZ IP       1415 10.98                              92   -0.8310 41.4 133 
 SB   PZ IS       1415 17.86                              92    0.6210 41.4 133 
 SB   PZ  AML     1415 18.23     26979.5 1.72                          41.4 133 
 ZA   PZ IP       1415 17.04                              92   -2.1010 65.2 206 
 ZA   PZ  AML     1415 32.85       100.5 1.72                          65.2 206 
 SLA  PZ IP       1415 29.79                              65    2.2710  135 213 
 SLA  PZ  AML     1415 52.64       217.1 0.57                           135 213 
 YAVI PZ IP       1415 35.57                              65    0.0310  184 336 
 YAVI PZ  AML     1415 59.53        17.0 0.57                           184 336 
                                                                                
 2008 11 5 2234 52.5 L -31.408 -71.818 72.1  SJA  6 0.1 3.8LSJA                1
 GAP=337        0.42      10.9    10.2  8.0  0.7849E+02  0.8236E+01 -0.3047E+02E
 ACTION:UPD 09-04-21 08:38 OP:    STATUS:               ID:20081105223452 L   I
 2008-11-05-2234-43S.CAT___036                                                 6
 STAT SP IPHASW D HRMM SECON CODA AMPLIT PERI AZIMU VELO AIN AR TRES W  DIS CAZ7
 RTLS PZ IP       2235 30.22                              91   -0.2010  243 101 
 RTLS PZ  AML     2236 15.34     143.0e4 2.17                           243 101 
 RTUM PZ IP       2235 30.46                              91    0.1110  247 112 
 RTUM PZ IS       2235 58.35                              91    0.0010  247 112 
 INPC PZ  AML     2236 22.58      2075.4 1.45                           310  93 
 RTLL PZ IP       2235 39.80                              78    0.1710  318  89 
 CFAA BZ IP       2235 42.15                              64   -0.0910  341  95 
 CFAA BZ  AML     2236 26.56      2381.9 2.90                           341  95 
 RTCT PZ IP       2235 54.65                              64    0.0110  449 104 
 RTCT PZ  AML     2236 49.73      18.6e4 0.00                           449 104 
                                                                                
 2008 11 6 0016  8.8 L -31.759 -69.113104.8  SJA  5 0.1 2.3LSJA                1
 GAP=156        0.39       3.9     2.9  3.4 -0.6520E+01 -0.4904E+00  0.7414E-02E
 ACTION:UPD 09-04-21 08:38 OP:    STATUS:               ID:20081106001608 L   I
 2008-11-06-0015-31S.NCU___025                                                 6
 STAT SP IPHASW D HRMM SECON CODA AMPLIT PERI AZIMU VELO AIN AR TRES W  DIS CAZ7
 RTLS PZ IP        016 25.34                             168   -0.1210 17.9 256 
 RTLS PZ IS        016 37.77                             168   -0.0610 17.9 256 
 RTLS PZ  AML      016 39.76      24.3e4 0.00                          17.9 256 
 RTCV PZ IP        016 26.76                             146    0.1210 55.4 102 
 RTCV PZ IS        016 39.84                             146   -0.0310 55.4 102 
 RTCV PZ  AML      016 41.01      35.5e4 0.50                          55.4 102 
 RTUM PZ IP        016 26.84                             145    0.1610 57.7 207 
 RTUM PZ  AML      016 40.76      13.7e4 0.50                          57.7 207 
 RTLL PZ IP        016 28.18                             135   -0.0510 77.1  52 
 RTLL PZ IS        016 42.82                             135    0.1910 77.1  52 
 RTLL PZ  AML      016 43.75      27.5e4 1.49                          77.1  52 
 CFAA BZ IP        016 28.56                             131   -0.1510 85.2  79 
 CFAA BZ IS        016 43.41                             131   -0.0710 85.2  79 
                                                                                
 2008 11 6 0131 28.4 L -31.427 -71.650 13.3  SJA  6 0.5 3.1LSJA                1
 GAP=308        1.29      18.6    18.9 20.1  0.7317E+02  0.2571E+03 -0.1191E+03E
 ACTION:UPD 09-04-21 08:38 OP:    STATUS:               ID:20081106013130 L   I
 2008-11-06-0131-19S.NCU___025                                                 6
 STAT SP IPHASW D HRMM SECON CODA AMPLIT PERI AZIMU VELO AIN AR TRES W  DIS CAZ7
 RTLS PZ IP        132  7.10                              91    0.3510  227 101 
 RTLS PZ IS        132 35.32                              91    0.1610  227 101 
 RTLS PZ  AML      132 40.85      46.7e4 0.50                           227 101 
 RTUM PZ IP        132  7.10                              58    0.3310  232 113 
 RTUM PZ  AML      132 36.63      20.0e4 0.00                           232 113 
 RTCV PZ  AML      133  2.93      13.6e4 0.99                           299 100 
 RTLL PZ IP        132 15.79                              58   -0.7010  302  89 
 RTLL PZ  AML      133  5.65      30.1e4 0.00                           302  89 
 CFAA BZ IP        132 18.69                              56   -0.6810  325  94 
 CYA  PZ IP        132 57.92                              46    0.5510  655  61 
 CYA  PZ  AML      134 15.85        18.4 0.00                           655  61 
                                                                                
 2008 11 6 0212 57.4 L -31.472 -69.116 94.6  SJA  5 0.1 2.7LSJA                1
 GAP=230        0.31       2.5     2.1  2.7 -0.3497E+01  0.9514E+00 -0.1460E+01E
 ACTION:UPD 09-04-21 08:38 OP:    STATUS:               ID:20081106021257 L   I
 2008-11-06-0212-19S.NCU___025                                                 6
 STAT SP IPHASW D HRMM SECON CODA AMPLIT PERI AZIMU VELO AIN AR TRES W  DIS CAZ7
 RTLS PZ IP        213 13.69                             153   -0.1210 40.1 205 
 RTLS PZ IS        213 25.95                             153    0.0010 40.1 205 
 RTLS PZ  AML      213 27.67      85.1e4 2.52                          40.1 205 
 RTLL PZ IP        213 14.97                             140    0.1310 63.0  76 
 RTLL PZ IS        213 27.77                             140    0.0210 63.0  76 
 RTLL PZ  AML      213 30.19      83.8e4 1.01                          63.0  76 
 RTCV PZ IP        213 15.45                             136    0.0710 69.7 129 
 RTCV PZ IS        213 28.71                             136    0.0210 69.7 129 
 RTCV PZ  AML      213 31.20      54.2e4 2.52                          69.7 129 
 CFAA BZ IP        213 16.42                             129   -0.1410 85.2 100 
 CFAA BZ IS        213 30.69                             129   -0.0410 85.2 100 
 RTUM PZ IP        213 16.87                             129    0.0510 87.2 197 
 RTUM PZ IS        213 31.20                             129    0.0210 87.2 197 
 RTUM PZ  AML      213 32.47      47.2e4 1.01                          87.2 197 
                                                                                
 2008 11 6 0450 48.0 L -31.432 -71.659 11.8  SJA  8 0.1 3.6LSJA                1
 GAP=336        0.37      10.4     4.4  5.4  0.3370E+01  0.1031E+02 -0.3660E+02E
 ACTION:UPD 09-04-21 08:38 OP:    STATUS:               ID:20081106045047 L   I
 2008-11-06-0450-40S.CAT___036                                                 6
 STAT SP IPHASW D HRMM SECON CODA AMPLIT PERI AZIMU VELO AIN AR TRES W  DIS CAZ7
 RTLS PZ IP        451 26.41                              91   -0.1310  228 101 
 RTLS PZ IS        451 55.04                              91    0.0010  228 101 
 RTLS PZ  AML      452  7.99      95.7e4 2.17                           228 101 
 RTUM PZ IP        451 26.78                              91    0.1210  232 113 
 INPC PZ  AML      452 21.75       689.5 0.72                           295  93 
 RTCV PZ IP        451 35.90                              58   -0.0410  300 100 
 RTLL PZ IP        451 36.58                              58    0.1710  303  89 
 RTLL PZ  AML      452 24.65     126.3e4 0.00                           303  89 
 CFAA BZ IP        451 39.22                              56   -0.0710  326  94 
 CFAA BZ  AML      452 28.99      1087.6 1.45                           326  94 
 RTCT PZ IP        451 53.46                              54   -0.0510  433 104 
 CYA  PZ  AML      453 35.98        55.2 2.17                           656  61 
                                                                                
 2008 11 6 0524 51.2 L -26.232 -69.864135.3  SJA  8 0.4 4.1LSJA                1
 GAP=211        1.12       5.8    14.0 25.7 -0.4504E+02 -0.1102E+03 -0.2003E+02E
 ACTION:UPD 09-04-21 08:38 OP:    STATUS:               ID:20081106052451 L   I
 2008-11-06-0524-54S.JUJ___036                                                 6
 STAT SP IPHASW D HRMM SECON CODA AMPLIT PERI AZIMU VELO AIN AR TRES W  DIS CAZ7
 LCO  BE IP        525 36.60                             100   -0.0510  319 195 
 SLA  PZ IP        525 54.10                              93    0.3310  469  70 
 SLA  PZ  AML      526 46.28       102.8 0.00                           469  70 
 CYA  PZ IP        525 53.01                              93    0.3410  471 122 
 CYA  PZ  AML      526 39.55       256.3 2.25                           471 122 
 SB   PZ IP        526  7.59                              91   -0.9410  599  66 
 SB   PZ  AML      526 57.51     16661.4 1.50                           599  66 
 INPC PZ  AML      526 55.27       517.3 1.50                           601 168 
 CFAA BZ IS        527 10.40                              91   -0.0810  616 165 
 CFAA BZ  AML      527 11.36      1014.9 0.00                           616 165 
 YAVI PZ IP        526 12.77                              91    0.3810  630  45 
 LO   PZ IP        526 14.36                              67    0.0210  652  67 
                                                                                
 2008 11 6 0843 35.6 L -31.266 -68.084 94.1  SJA  8 0.2 3.1LSJA                1
 GAP=137        0.59       3.0     2.5  4.5 -0.4083E+00 -0.2835E+01 -0.5877E+01E
 ACTION:UPD 09-04-21 08:38 OP:    STATUS:               ID:20081106084335 L   I
 2008-11-06-0842-54S.CAT___026                                                 6
 STAT SP IPHASW D HRMM SECON CODA AMPLIT PERI AZIMU VELO AIN AR TRES W  DIS CAZ7
 RTLL PZ IP        843 51.25                             154   -0.0410 37.9 259 
 RTLL PZ  AML      844  4.65     186.3e4 0.00                          37.9 259 
 CFAA BZ IP        843 51.62                             153    0.4210 40.0 201 
 CFAA BZ  AML      844  5.61      3353.0 2.57                          40.0 201 
 INPC PZ IP        843 52.53                             144   -0.2310 53.8 237 
 INPC PZ  AML      844  5.93      2336.6 0.00                          53.8 237 
 RTCV PZ IP        843 54.25                             132   -0.0610 79.0 213 
 RTCV PZ IS        844  8.07                             132   -0.1210 79.0 213 
 RTLS PZ IP        843 59.69                             113   -0.2310  129 243 
 RTLS PZ IS        844 18.10                             113    0.1410  129 243 
 RTLS PZ  AML      844 19.42     128.0e4 2.57                           129 243 
 RTCT PZ IP        844  0.85                             109    0.3510  140 143 
 RTCT PZ IS        844 18.71                             109   -0.2510  140 143 
 RTUM PZ IP        844  3.11                             103   -0.0410  163 229 
 RTUM PZ IS        844 23.66                             103    0.0910  163 229 
 CYA  PZ IP        844 26.97                              74   -0.0510  383  36 
 CYA  PZ  AML      845 25.57        95.9 1.28                           383  36 
                                                                                
 2008 11 6 1002 35.4 L -23.879 -64.969  0.1  SJA  5 1.2 2.4LSJA                1
 GAP=133        3.11      13.0    12.0 50.2 -0.8040E+02  0.3772E+03 -0.5523E+03E
 ACTION:UPD 09-04-21 08:38 OP:    STATUS:               ID:20081106100235 L   I
 2008-11-06-1001-49S.JUJ___019                                                 6
 STAT SP IPHASW D HRMM SECON CODA AMPLIT PERI AZIMU VELO AIN AR TRES W  DIS CAZ7
 ZA   PZ IS       10 2 51.41                              93   -1.6010 39.5 194 
 ZA   PZ  AML     10 2 53.74       113.7 0.58                          39.5 194 
 SB   PZ IS       10 2 51.34                              92    0.5210 50.1  99 
 LO   PZ IP       10 2 52.24                              65   -0.8110  102  86 
 LO   PZ  AML     10 3  5.88     33891.3 0.00                           102  86 
 SLA  PZ IP       10 2 56.45                              65    2.3710  108 210 
 SLA  PZ  AML     10 3 14.84       153.7 0.58                           108 210 
 YAVI PZ IP       10 3  8.29                              65   -0.1310  197 343 
 YAVI PZ IS       10 3 32.51                              65   -0.3610  197 343 
 YAVI PZ  AML     10 3 35.07        12.3 0.00                           197 343 
                                                                                
 2008 11 6 1814  9.8 L -31.531 -69.472107.3  SJA  9 0.1 3.4LSJA                1
 GAP=209        0.43       2.8     3.3  3.9 -0.3959E+01  0.2549E+01 -0.6061E+01E
 ACTION:UPD 09-04-21 08:38 OP:    STATUS:               ID:20081106181409 L   I
 2008-11-06-1813-34S.CAT___026                                                 6
 STAT SP IPHASW D HRMM SECON CODA AMPLIT PERI AZIMU VELO AIN AR TRES W  DIS CAZ7
 RTLS PZ IP       1814 27.00                             159   -0.2910 34.0 151 
 RTLS PZ  AML     1814 46.78     157.2e4 2.44                          34.0 151 
 RTUM PZ IP       1814 29.50                             137    0.1510 77.2 174 
 RTUM PZ IS       1814 43.88                             137    0.0510 77.2 174 
 RTUM PZ  AML     1814 51.96     136.2e4 0.61                          77.2 174 
 INPC PZ IP       1814 30.73                             132   -0.0110 86.6  90 
 INPC PZ  AML     1814 51.04      1281.6 0.00                          86.6  90 
 RTCV PZ IP       1814 31.24                             128    0.1910 95.6 113 
 RTCV PZ  AML     1814 47.39     121.4e4 1.22                          95.6 113 
 RTLL PZ IP       1814 31.06                             128   -0.1510 97.4  77 
 RTLL PZ  AML     1814 46.78     180.6e4 0.00                          97.4  77 
 RTLL PZ IS       1814 47.21                             128    0.1510 97.4  77 
 CFAA BZ IP       1814 33.05                             120    0.0710  118  94 
 CFAA BZ IS       1814 50.03                             120   -0.1110  118  94 
 RTCT PZ IP       1814 45.40                              96   -0.1010  231 111 
 RTCT PZ  AML     1815 11.44      27.8e4 0.61                           231 111 
 GUANDPZ IP       1814 46.85                              95    0.0610  245  23 
 GUANDPZ  AML     1815 16.62      58.7e4 1.22                           245  23 
 CYA  PZ  AML     1816 51.02        73.5 0.00                           493  47 
                                                                                
