 2008 1111 1809  3.4 L -31.235 -68.822 97.3  SJA  6 0.2 2.2LSJA                1
 GAP=252        0.46       4.4     3.4  4.1 -0.6452E+01  0.6616E+01 -0.3349E+01E
 ACTION:UPD 09-04-21 08:38 OP:    STATUS:               ID:20081111180903 L   I
 2008-11-11-1808-25S.NCU___025                                                 6
 STAT SP IPHASW D HRMM SECON CODA AMPLIT PERI AZIMU VELO AIN AR TRES W  DIS CAZ7
 RTLL PZ IP       18 9 19.55                             157    0.1910 34.6 108 
 RTLL PZ IS       18 9 31.05                             157   -0.1010 34.6 108 
 RTLL PZ  AML     18 9 34.81     44719.8 0.00                          34.6 108 
 CFAA BZ IP       18 9 21.28                             138   -0.1510 69.3 126 
 CFAA BZ IS       18 9 34.96                             138    0.2110 69.3 126 
 RTCV PZ IP       18 9 21.97                             135   -0.0910 74.5 159 
 RTCV PZ IS       18 9 35.73                             135   -0.1210 74.5 159 
 RTCV PZ  AML     18 9 39.01      31.4e4 0.00                          74.5 159 
 RTLS PZ IP       18 9 22.58                             135   -0.1810 77.1 216 
 RTLS PZ IS       18 9 37.14                             135    0.0710 77.1 216 
 RTLS PZ  AML     18 9 37.44      56.8e4 0.52                          77.1 216 
 RTUM PZ IP       18 9 26.73                             117    0.1710  122 206 
 RTUM PZ  AML     18 9 44.79     85567.3 2.10                           122 206 
 SALAGPZ  AML     18 9 51.61     60574.6 0.52                           150 180 
                                                                                
 2008 1111 1924 46.6 L -32.608 -69.772 37.4  SJA  4 0.1 1.6LSJA                1
 GAP=279        0.36       3.0     4.3  3.0  0.7645E+01  0.8259E+01  0.6739E+01E
 ACTION:UPD 09-04-21 08:38 OP:    STATUS:               ID:20081111192446 L   I
 2008-11-11-1924-10S.NCU___025                                                 6
 STAT SP IPHASW D HRMM SECON CODA AMPLIT PERI AZIMU VELO AIN AR TRES W  DIS CAZ7
 RTUM PZ IP       1924 58.50                             123    0.1010 55.9  41 
 RTUM PZ IS       1925  7.05                             123   -0.1010 55.9  41 
 RTUM PZ  AML     1925  7.65     76000.6 0.16                          55.9  41 
 SALAGPZ IS       1925 14.86                             110    0.0510 88.1  89 
 SALAGPZ  AML     1925 15.91     26615.0 0.16                          88.1  89 
 AGRELPZ IP       1925  5.23                              67   -0.0710  103 121 
 AGRELPZ  AML     1925 17.64     71618.0 0.31                           103 121 
 RTCV PZ IP       1925 11.11                              67    0.0210  143  55 
                                                                                
 2008 1111 1945 39.8 L -31.238 -68.401 92.2  SJA  6 0.2 2.3LSJA                1
 GAP=285        0.57       3.8     7.4  4.1  0.2583E+00  0.1832E+02  0.4586E+01E
 ACTION:UPD 09-04-21 08:38 OP:    STATUS:               ID:20081111194540 L   I
 2008-11-11-1945-04S.NCU___025                                                 6
 STAT SP IPHASW D HRMM SECON CODA AMPLIT PERI AZIMU VELO AIN AR TRES W  DIS CAZ7
 RTLL PZ IP       1945 54.45                             171    0.0510 12.3 215 
 RTLL PZ IS       1946  5.29                             171    0.0910 12.3 215 
 RTLL PZ  AML     1946  6.44     85236.5 0.00                          12.3 215 
 CFAA BZ IP       1945 55.63                             150    0.1610 43.6 158 
 CFAA BZ IS       1946  7.13                             150    0.0710 43.6 158 
 RTCV PZ IP       1945 57.43                             135   -0.2310 70.5 191 
 RTCV PZ IS       1946 10.55                             135   -0.3210 70.5 191 
 RTCV PZ  AML     1946 10.57      42.6e4 1.03                          70.5 191 
 RTLS PZ IP       1946  1.46                             120   -0.0210  105 234 
 RTLS PZ  AML     1946 19.09      31.6e4 2.06                           105 234 
 RTUM PZ IP       1946  5.24                             107    0.1110  144 220 
 RTUM PZ  AML     1946 25.02      13.0e4 1.55                           144 220 
 SALAGPZ IP       1946  6.04                             103   -0.2610  156 195 
 SALAGPZ IS       1946 26.25                             103    0.3410  156 195 
 SALAGPZ  AML     1946 26.83     85511.9 1.03                           156 195 
                                                                                
 2008 1111 1954 31.4 L -32.635 -68.829 36.2  SJA  8 0.2 2.2LSJA                1
 GAP=153        0.56       1.7     4.6  2.4  0.7773E+00 -0.2377E+01 -0.1891E+01E
 ACTION:UPD 09-04-21 08:38 OP:    STATUS:               ID:20081111195431 L   I
 2008-11-11-1953-52S.NCU___025                                                 6
 STAT SP IPHASW D HRMM SECON CODA AMPLIT PERI AZIMU VELO AIN AR TRES W  DIS CAZ7
 SALAGPZ IP       1954 38.17                             172    0.0510 4.84 355 
 SALAGPZ IS       1954 43.12                             172    0.0210 4.84 355 
 SALAGPZ  AML     1954 44.21      86.7e4 2.04                          4.84 355 
 ARCO PZ IP       1954 39.31                             145   -0.3810 24.8 203 
 ARCO PZ  AML     1954 46.25      1119.3 1.53                          24.8 203 
 AGRELPZ IP       1954 42.66                             125    0.1810 50.0 180 
 AGRELPZ IS       1954 50.73                             125    0.0410 50.0 180 
 AGRELPZ  AML     1954 51.60      78.8e4 0.51                          50.0 180 
 RTUM PZ IP       1954 45.29                             116    0.2910 69.4 311 
 RTUM PZ  AML     1954 56.95      25.3e4 0.00                          69.4 311 
 RTCV PZ IP       1954 48.29                             109    0.0710 89.9  18 
 RTCV PZ  AML     1955  1.28      31.4e4 2.04                          89.9  18 
 RTLS PZ IP       1954 50.24                             107   -0.2510  103 334 
 RTLS PZ  AML     1955  3.32      25.1e4 1.02                           103 334 
 CFAA BZ IP       1954 53.58                              67   -0.0210  128  26 
 RTLL PZ  AML     1955 17.07     39486.7 0.00                           149  13 
                                                                                
 2008 1111 2011 24.9 L -31.521 -69.451106.5  SJA  6 0.1 2.5LSJA                1
 GAP=262        0.38       2.3     2.8  2.9 -0.3275E+01 -0.3164E+00 -0.5210E+00E
 ACTION:UPD 09-04-21 08:38 OP:    STATUS:               ID:20081111201125 L   I
 2008-11-11-2010-49S.NCU___025                                                 6
 STAT SP IPHASW D HRMM SECON CODA AMPLIT PERI AZIMU VELO AIN AR TRES W  DIS CAZ7
 RTLS PZ IP       2011 42.39                             159    0.0210 34.2 155 
 RTLS PZ IS       2011 55.07                             159   -0.1810 34.2 155 
 RTLS PZ  AML     2011 56.75     138.0e4 2.04                          34.2 155 
 RTUM PZ IP       2011 44.68                             136    0.1610 78.2 176 
 RTUM PZ IS       2011 59.10                             136    0.0910 78.2 176 
 RTUM PZ  AML     2011 59.81      39.7e4 0.00                          78.2 176 
 RTCV PZ IP       2011 46.03                             129    0.0010 94.3 114 
 RTCV PZ IS       2012  1.58                             129   -0.0510 94.3 114 
 RTCV PZ  AML     2012  3.12      18.1e4 0.00                          94.3 114 
 RTLL PZ IP       2011 46.17                             128    0.0610 95.2  77 
 RTLL PZ IS       2012  1.93                             128    0.1610 95.2  77 
 CFAA BZ IP       2011 47.79                             120   -0.1110  116  95 
 CFAA BZ IS       2012  4.84                             120   -0.0510  116  95 
 SALAGPZ IP       2011 49.19                             115   -0.2110  132 154 
 SALAGPZ IS       2012  7.60                             115    0.1110  132 154 
 SALAGPZ  AML     2012  7.96     59377.2 0.51                           132 154 
                                                                                
 2008 1111 2014 49.9 D -27.392 -66.520  0.0  SJA  3 0.7                        1
 GAP=201        1.62       6.7    36.2 59.7 -0.2598E+02  0.2082E+04 -0.4322E+02E
 ACTION:UPD 09-04-21 08:38 OP:    STATUS:               ID:20081111201450 L   I
 2008-11-11-2014-20S.CAT___005                                                 6
 STAT SP IPHASW D HRMM SECON CODA AMPLIT PERI AZIMU VELO AIN AR TRES W  DIS CAZ7
 THA  PZ IP       2015 13.07                              89    0.2010  135  60 
 CYA  PZ IP       2015 11.05                              89   -1.2010  137 149 
 CYA  PZ IS       2015 29.05                              89    0.6010  137 149 
 GUANDPZ IP       2015 35.60                              46    0.3010  302 219 
                                                                                
 2008 1111 2032 32.9 R -29.853 -70.718  0.5  SJA  7 0.5 3.0LSJA                1
 GAP=206        1.27       6.3    26.0 24.8  0.1480E+03 -0.3093E+03 -0.6193E+02E
 ACTION:UPD 09-04-21 08:38 OP:    STATUS:               ID:20081111203231 L   I
 2008-11-11-2032-22S.NCU___025                                                 6
 STAT SP IPHASW D HRMM SECON CODA AMPLIT PERI AZIMU VELO AIN AR TRES W  DIS CAZ7
 LCO  BE IP       2032 49.58                              65    0.3910 93.3   1 
 LCO  BE IS       2033  1.31                              65    0.0710 93.3   1 
 LCO  BE  AML     2033  2.87     10684.5 0.98                          93.3   1 
 RTLS PZ IP       2033 16.68                              65    0.2810  255 148 
 RTLS PZ IS       2033 49.40                              65    0.8210  255 148 
 RTLS PZ  AML     2033 57.45      46.6e4 0.49                           255 148 
 RTLL PZ IP       2033 18.12                              50    0.0610  270 128 
 RTUM PZ IP       2033 20.97                              50    0.1710  292 155 
 RTUM PZ  AML     2033 59.16      24.0e4 0.00                           292 155 
 RTCV PZ IP       2033 22.21                              50   -0.5310  305 137 
 RTCV PZ  AML     2034  6.99      13.4e4 2.45                           305 137 
 CFAA BZ IP       2033 22.04                              50   -0.7910  307 130 
 SALAGPZ IP       2033 28.32                              49   -0.4710  353 150 
 SALAGPZ  AML     2034 18.25     69441.7 0.98                           353 150 
                                                                                
 2008 1111 2057 29.4 R -32.431 -72.184 51.2  SJA  6 0.1 2.9LSJA                1
 GAP=332        0.46       8.4     8.1 28.0 -0.3861E+02 -0.6887E+02 -0.9580E+01E
 ACTION:UPD 09-04-21 08:38 OP:    STATUS:               ID:20081111205729 L   I
 2008-11-11-2057-22S.NCU___025                                                 6
 STAT SP IPHASW D HRMM SECON CODA AMPLIT PERI AZIMU VELO AIN AR TRES W  DIS CAZ7
 RTUM PZ IP       2058  9.82                              81    0.1410  264  86 
 RTUM PZ  AML     2058 40.18      18.7e4 1.51                           264  86 
 RTLS PZ IP       2058 12.45                              81   -0.1010  281  76 
 RTLS PZ IS       2058 44.46                              81   -0.0110  281  76 
 RTLS PZ  AML     2058 46.21      36.3e4 0.50                           281  76 
 SALAGPZ IP       2058 16.52                              77    0.2510  315  94 
 SALAGPZ  AML     2059  0.04     59078.9 1.01                           315  94 
 AGRELPZ IP       2058 17.38                              77   -0.2010  323 104 
 AGRELPZ  AML     2059  2.55     94051.0 1.01                           323 104 
 RTCV PZ IP       2058 21.01                              77   -0.1310  349  81 
 RTCV PZ  AML     2059  9.34     94579.2 0.00                           349  81 
 CFAA BZ IP       2058 25.50                              72    0.0410  384  77 
                                                                                
 2008 1111 2144 19.4 L -31.680 -70.240  0.0  SJA  5 0.2 2.1LSJA                1
 GAP=308        0.61      22.9    59.4121.1 -0.1315E+04 -0.7126E+04  0.2721E+04E
 ACTION:UPD 09-04-21 08:38 OP:    STATUS:               ID:20081111214419 L   I
 2008-11-11-2143-55S.NCU___025                                                 6
 STAT SP IPHASW D HRMM SECON CODA AMPLIT PERI AZIMU VELO AIN AR TRES W  DIS CAZ7
 RTLS PZ IP       2144 36.24                              65   -0.3810 90.4  99 
 RTLS PZ  AML     2144 50.00      35.9e4 0.00                          90.4  99 
 RTUM PZ IS       2144 51.19                              65    0.0310  101 127 
 RTUM PZ  AML     2144 59.76      14.2e4 0.48                           101 127 
 SALAGPZ IP       2144 48.17                              65    0.0510  167 128 
 CFAA BZ IP       2144 52.41                              65    0.2910  191  88 
 AGRELPZ IP       2144 54.53                              65    0.0110  205 140 
                                                                                
 2008 1112 1924 44.9 R -28.614 -67.764 40.2  SJA  6 0.3 2.9LSJA                1
 GAP=243        0.91      20.9    14.6 23.1 -0.2940E+03 -0.9280E+02  0.1084E+03E
 ACTION:UPD 09-04-21 08:38 OP:    STATUS:               ID:20081112192445 L   I
 2008-11-12-1924-16S.CAT___026                                                 6
 STAT SP IPHASW D HRMM SECON CODA AMPLIT PERI AZIMU VELO AIN AR TRES W  DIS CAZ7
 CYA  PZ IP       1925 13.99                              68    0.0210  194  85 
 CYA  PZ IS       1925 35.48                              68   -0.0210  194  85 
 CYA  PZ  AML     1925 37.00       285.9 1.83                           194  85 
 RTLL PZ IP       1925 32.28                              67    0.6510  309 193 
 RTLL PZ  AML     1926 11.53     26334.4 0.61                           309 193 
 RTCV PZ IP       1925 39.04                              65   -0.4310  368 192 
 RTCV PZ  AML     1926 27.12      12.7e4 1.22                           368 192 
 RTLS PZ IP       1925 41.50                              65   -0.3510  383 202 
 RTLS PZ  AML     1926 27.12      22.7e4 0.61                           383 202 
 RTUM PZ IP       1925 47.27                              53    0.2610  429 201 
 RTUM PZ  AML     1926 37.21     40275.9 1.22                           429 201 
 SALAGPZ IP       1925 49.36                              53   -0.1310  453 193 
 SALAGPZ  AML     1926 40.27     46171.3 0.00                           453 193 
                                                                                
 2008 1112 1937 30.7 L -31.217 -68.626 22.8  SJA  5 0.3 1.6LSJA                1
 GAP=267        0.89       4.8     7.7  9.6  0.5463E+01  0.6227E+02  0.1607E+02E
 ACTION:UPD 09-04-21 08:38 OP:    STATUS:               ID:20081112193730 L   I
 2008-11-12-1936-57S.NCU___025                                                 6
 STAT SP IPHASW D HRMM SECON CODA AMPLIT PERI AZIMU VELO AIN AR TRES W  DIS CAZ7
 RTLL PZ IP       1937 36.72                             139    0.0010 19.0 131 
 RTLL PZ  AML     1937 41.04     52530.5 0.00                          19.0 131 
 RTLL PZ IS       1937 41.36                             139    0.1810 19.0 131 
 RTCV PZ IS       1937 53.53                             103   -0.6510 72.0 174 
 RTCV PZ  AML     1937 53.98      27.2e4 0.00                          72.0 174 
 RTLS PZ IP       1937 47.06                             100   -0.3910 90.7 224 
 RTLS PZ  AML     1937 59.66      16.8e4 1.82                          90.7 224 
 RTUM PZ IP       1937 53.57                              95    0.0510  133 213 
 RTUM PZ  AML     1938 10.55     19450.4 0.45                           133 213 
 RTUM PZ IS       1938 10.57                              95    0.1610  133 213 
 SALAGPZ IP       1937 56.90                              93    0.2110  154 187 
 SALAGPZ IS       1938 16.36                              93    0.4310  154 187 
 SALAGPZ  AML     1938 18.27     47938.4 1.82                           154 187 
                                                                                
 2008 1112 2124  8.8 D -27.418 -64.007 43.3  SJA  3 0.2 3.7LSJA                1
 GAP=244        0.57      32.4    29.1999.9  0.6994E+03 -0.5384E+05 -0.6706E+05E
 ACTION:UPD 09-04-21 08:38 OP:    STATUS:               ID:20081112212408 L   I
 2008-11-12-2123-40S.JUJ___022                                                 6
 STAT SP IPHASW D HRMM SECON CODA AMPLIT PERI AZIMU VELO AIN AR TRES W  DIS CAZ7
 CYA  PZ IP       2124 37.47                              97    0.1610  209 237 
 CYA  PZ IS       2124 59.37                              97   -0.1410  209 237 
 CYA  PZ  AML     2125  1.96       890.2 3.53                           209 237 
 SLA  PZ IP       2124 54.25                              84    0.2210  334 333 
 SLA  PZ  AML     2125 46.47       199.4 3.53                           334 333 
 SB   PZ IP       2125  0.31                              83   -0.2410  387 353 
 SB   PZ  AML     2126  4.84     29531.1 0.71                           387 353 
                                                                                
 2008 1112 2209 52.7 L -33.162 -68.837 29.3  SJA  7 0.3 2.3LSJA                1
 GAP=322        0.81       9.8     9.7  4.3  0.2399E+01 -0.6482E+01 -0.3492E+02E
 ACTION:UPD 09-04-21 08:38 OP:    STATUS:               ID:20081112220952 L   I
 2008-11-12-2209-21S.NCU___025                                                 6
 STAT SP IPHASW D HRMM SECON CODA AMPLIT PERI AZIMU VELO AIN AR TRES W  DIS CAZ7
 AGRELPZ IP       22 9 59.09                             164    0.2510 8.53   6 
 AGRELPZ IS       2210  2.95                             164   -0.4110 8.53   6 
 AGRELPZ  AML     2210  3.57     169.7e4 0.00                          8.53   6 
 ARCO PZ IP       2210  1.36                             128   -0.1610 36.7 346 
 ARCO PZ  AML     2210  7.70      1615.9 2.06                          36.7 346 
 SALAGPZ IP       2210  5.42                             112    0.5810 63.3   0 
 SALAGPZ  AML     2210 14.93      22.6e4 0.52                          63.3   0 
 RTUM PZ IP       2210 13.11                             101    0.0710  116 333 
 RTUM PZ  AML     2210 27.57      25.1e4 2.06                           116 333 
 RTCV PZ IP       2210 18.36                              98    0.2510  147  11 
 RTCV PZ  AML     2210 37.12      22.4e4 1.03                           147  11 
 RTLS PZ IP       2210 19.95                              97   -0.1510  157 344 
 RTLS PZ  AML     2210 44.34      23.9e4 0.00                           157 344 
 RTLL PZ IP       2210 26.22                              58   -0.3010  206  10 
 RTLL PZ IS       2210 51.40                              58   -0.1310  206  10 
 RTLL PZ  AML     2210 54.15      9741.5 0.52                           206  10 
                                                                                
