 2008 11 7 0714 28.3 L -32.209 -68.752 15.0  SJA  9 0.2 2.2LSJA                1
 GAP=105        0.58       1.7     2.5 20.3 -0.1566E+01 -0.3213E+02  0.8148E+01E
 ACTION:UPD 09-04-21 08:38 OP:    STATUS:               ID:20081107071428 L   I
 2008-11-07-0713-44S.NCU___025                                                 6
 STAT SP IPHASW D HRMM SECON CODA AMPLIT PERI AZIMU VELO AIN AR TRES W  DIS CAZ7
 SALAGPZ IP        714 36.71                             104    0.0910 43.1 190 
 SALAGPZ  AML      714 44.22      40.3e4 0.00                          43.1 190 
 RTCV PZ IP        714 37.00                             103   -0.0310 43.4  28 
 RTCV PZ  AML      714 43.26     131.6e4 0.60                          43.4  28 
 RTUM PZ IP        714 39.75                              99    0.3810 59.8 268 
 RTUM PZ IS        714 47.47                              99   -0.1010 59.8 268 
 RTLS PZ  AML      714 51.34     134.6e4 0.52                          68.6 311 
 ARCO PZ IP        714 41.34                              96   -0.2110 72.1 194 
 ARCO PZ  AML      714 51.60       149.7 2.06                          72.1 194 
 INPC PZ IP        714 42.86                              95   -0.0910 77.7  14 
 INPC PZ  AML      714 51.08       515.7 3.10                          77.7  14 
 CFAA BZ IP        714 42.98                              95   -0.1710 83.2  36 
 CFAA BZ  AML      714 53.77       829.3 0.60                          83.2  36 
 AGRELPZ IP        714 45.38                              94   -0.1710 97.5 184 
 AGRELPZ  AML      715  2.43      19.8e4 1.55                          97.5 184 
 RTCT PZ IP        714 53.72                              92    0.3010  148  93 
                                                                                
 2008 11 7 0924 35.7 L -31.631 -69.995104.3  SJA 10 0.2 3.0LSJA                1
 GAP=291        0.68       4.3     8.0  5.6 -0.1691E+02  0.4380E+01  0.4627E+01E
 ACTION:UPD 09-04-21 08:38 OP:    STATUS:               ID:20081107092435 L   I
 2008-11-07-0924-04S.NCU___025                                                 6
 STAT SP IPHASW D HRMM SECON CODA AMPLIT PERI AZIMU VELO AIN AR TRES W  DIS CAZ7
 RTLS PZ IP        924 55.05                             139    0.1010 68.9 106 
 RTLS PZ IS        925  8.94                             139   -0.2610 68.9 106 
 RTLS PZ  AML      925 17.88     124.9e4 1.59                          68.9 106 
 RTUM PZ IP        924 56.35                             131    0.4910 87.4 139 
 RTUM PZ  AML      925 12.56      86.2e4 2.66                          87.4 139 
 INPC PZ  AML      925  2.20      1503.7 0.00                           137  86 
 RTCV PZ IP        925  1.39                             111    0.1410  140 101 
 RTCV PZ  AML      925 22.13      49.6e4 0.00                           140 101 
 RTLL PZ IP        925  2.12                             108    0.0010  148  77 
 RTLL PZ IS        925 21.71                             108    0.0210  148  77 
 RTLL PZ  AML      925 22.93      76.0e4 1.59                           148  77 
 SALAGPZ IP        925  1.92                             107   -0.3410  153 134 
 SALAGPZ  AML      925 22.93      19.5e4 1.59                           153 134 
 ARCO PZ IP        925  4.02                             103   -0.2510  167 144 
 CFAA BZ IP        925  4.12                             103    0.0810  167  89 
 AGRELPZ IP        925  7.14                              97   -0.2410  195 146 
 AGRELPZ IS        925 31.11                              97    0.2710  195 146 
 CYA  PZ  AML      926 45.58        14.9 2.13                           538  50 
                                                                                
 2008 11 7 0937 37.0 L -31.533 -68.439100.8  SJA  9 0.4 2.6LSJA                1
 GAP=222        0.97       6.8     6.2  6.1 -0.1031E+02  0.3784E+01  0.1768E+02E
 ACTION:UPD 09-04-21 08:38 OP:    STATUS:               ID:20081107093737 L   I
 2008-11-07-0936-56S.NCU___025                                                 6
 STAT SP IPHASW D HRMM SECON CODA AMPLIT PERI AZIMU VELO AIN AR TRES W  DIS CAZ7
 CFAA BZ IP        937 52.63                             166    0.0410 21.1 112 
 CFAA BZ IS        938  4.33                             166    0.1910 21.1 112 
 RTLL PZ  AML      938  4.01     116.8e4 2.12                          22.9 351 
 RTCV PZ IP        937 53.59                             156    0.1410 37.7 195 
 RTCV PZ IS        938  5.45                             156   -0.1710 37.7 195 
 RTLS PZ IP        937 57.29                             132   -0.1410 86.5 250 
 RTLS PZ IS        938 11.90                             132   -0.6510 86.5 250 
 RTLS PZ  AML      938 13.01      83.0e4 2.12                          86.5 250 
 RTUM PZ IP        938  0.45                             121    0.5710  118 229 
 RTUM PZ IS        938 17.51                             121    0.7010  118 229 
 RTUM PZ  AML      938 18.30      13.1e4 3.18                           118 229 
 SALAGPZ IP        938  0.17                             119   -0.0310  123 198 
 SALAGPZ  AML      938 19.10      14.0e4 0.53                           123 198 
 RTCT PZ  AML      938 23.07      16.1e4 0.53                           144 125 
 ARCO PZ IP        938  3.44                             111   -0.3410  152 198 
 ARCO PZ IS        938 23.56                             111   -0.0510  152 198 
 ARCO PZ  AML      938 24.66        65.4 0.00                           152 198 
 AGRELPZ IP        938  6.19                             106   -0.2510  176 192 
 AGRELPZ  AML      938 29.68     87677.7 1.06                           176 192 
                                                                                
 2008 11 7 1126 24.8 L -31.575 -69.366 27.6  SJA 12 0.2 3.2LSJA                1
 GAP=251        0.53       3.1     3.8  4.9 -0.7605E+01  0.8382E+01 -0.5402E+00E
 ACTION:UPD 09-04-21 08:38 OP:    STATUS:               ID:20081107112624 L   I
 2008-11-07-1125-53S.CAT___026                                                 6
 STAT SP IPHASW D HRMM SECON CODA AMPLIT PERI AZIMU VELO AIN AR TRES W  DIS CAZ7
 RTLS PZ  AML     1127 20.43     121.3e4 0.61                          25.7 165 
 RTUM PZ IP       1126 38.36                             109    0.1310 72.0 182 
 RTUM PZ  AML     1127  4.47     160.5e4 0.61                          72.0 182 
 INPC PZ  AML     1126 55.57      2879.8 0.00                          76.7  86 
 RTCV PZ IP       1126 40.36                             105    0.0010 84.5 112 
 RTCV PZ IS       1126 51.99                             105    0.0910 84.5 112 
 RTCV PZ  AML     1126 53.74     117.8e4 0.00                          84.5 112 
 RTLL PZ IP       1126 41.05                             104    0.0010 88.9  72 
 RTLL PZ IS       1126 52.89                             104   -0.2110 88.9  72 
 RTLL PZ  AML     1126 56.50     167.4e4 1.23                          88.9  72 
 CFAA BZ IP       1126 44.04                             101    0.2910  108  92 
 CFAA BZ  AML     1127  2.01      4940.1 0.00                           108  92 
 SALAGPZ  AML     1127 19.19      73.6e4 0.00                           123 156 
 ARCO PZ IP       1126 49.66                              97   -0.3310  146 164 
 ARCO PZ  AML     1127 28.09       403.7 0.61                           146 164 
 AGRELPZ IP       1126 54.47                              58    0.0210  175 163 
 AGRELPZ  AML     1127 29.01      74.8e4 3.07                           175 163 
 RTCT PZ  AML     1127 33.92      50.5e4 0.00                           220 111 
 LCO  BE  AML     1127 58.46     11200.9 1.84                           312 335 
 CYA  PZ  AML     1128 51.82       284.2 3.07                           489  46 
                                                                                
 2008 11 7 1126 25.6 L -31.601 -69.313  6.4  SJA 13 0.1 3.4LSJA                1
 GAP=149        0.29       2.2     3.0  8.2 -0.5110E+01  0.2125E+02 -0.1650E+02E
 ACTION:UPD 09-04-21 08:38 OP:    STATUS:               ID:20081107112626 L   I
 2008-11-07-1125-53S.CAT___026                                                 6
 STAT SP IPHASW D HRMM SECON CODA AMPLIT PERI AZIMU VELO AIN AR TRES W  DIS CAZ7
 RTLS PZ  AML     1127 20.73     117.1e4 0.00                          22.0 176 
 RTLS PZ  AML     1127 44.05     149.1e4 2.45                          22.0 176 
 RTUM PZ IP       1126 38.48                              72    0.0910 69.5 186 
 INPC PZ  AML     1126 50.06      3597.2 0.00                          72.0  84 
 RTCV PZ  AML     1126 53.12     109.2e4 1.23                          78.8 112 
 RTLL PZ IP       1126 41.18                              72    0.0110 85.2  70 
 RTLL PZ  AML     1126 58.03     186.4e4 1.23                          85.2  70 
 CFAA BZ IP       1126 43.71                              72   -0.0410  103  90 
 CFAA PZ  AML     1127  1.41      75.6e4 0.00                           103  90 
 SALAGPZ IP       1126 46.16                              72   -0.0110  119 158 
 SALAGPZ  AML     1127 19.20      66.4e4 0.61                           119 158 
 ARCO PZ IP       1126 50.20                              72   -0.0510  142 165 
 ARCO PZ  AML     1127 28.09       420.1 0.61                           142 165 
 AGRELPZ IP       1126 54.78                              72   -0.0410  171 165 
 AGRELPZ  AML     1127 27.79      75.5e4 0.00                           171 165 
 AGRELPZ  AML     1127 29.32      75.7e4 2.45                           171 165 
 RTCT PZ  AML     1127 36.38      49.5e4 1.23                           214 111 
 GUANDPZ  AML     1127 43.13     137.1e4 1.23                           247  19 
 LCO  BE IS       1127 52.21                              54   -0.0410  317 335 
 LCO  BE  AML     1127 57.54     11385.7 0.00                           317 335 
 CYA  PZ IP       1127 36.21                              43    0.0810  488  45 
 CYA  PZ  AML     1128 47.85       317.2 0.61                           488  45 
                                                                                
 2008 11 7 1553  0.2 L -32.670 -68.729121.9  SJA  6 0.2 2.4LSJA                1
 GAP=170        0.54       2.8     5.9  5.0 -0.5963E+00 -0.9120E+01 -0.4440E+01E
 ACTION:UPD 09-04-21 08:38 OP:    STATUS:               ID:20081107155300 L   I
 2008-11-07-1552-26S.NCU___025                                                 6
 STAT SP IPHASW D HRMM SECON CODA AMPLIT PERI AZIMU VELO AIN AR TRES W  DIS CAZ7
 SALAGPZ IP       1553 17.99                             173    0.0910 13.1 311 
 SALAGPZ  AML     1553 32.32      18.2e4 0.00                          13.1 311 
 ARCO PZ IP       1553 18.19                             165   -0.4110 27.0 225 
 ARCO PZ IS       1553 32.24                             165    0.0410 27.0 225 
 ARCO PZ  AML     1553 38.32       109.4 0.50                          27.0 225 
 AGRELPZ IP       1553 19.22                             155   -0.0910 47.0 191 
 AGRELPZ IS       1553 33.63                             155    0.1910 47.0 191 
 RTUM PZ IP       1553 21.44                             141    0.2510 79.1 308 
 RTUM PZ IS       1553 36.63                             141   -0.0810 79.1 308 
 RTUM PZ  AML     1553 37.32      19.9e4 1.50                          79.1 308 
 RTCV PZ IS       1553 38.45                             136   -0.0810 91.3  11 
 RTCV PZ  AML     1553 40.07      29.8e4 1.00                          91.3  11 
 CFAA BZ IP       1553 25.32                             124    0.1110  127  22 
                                                                                
 2008 11 8 0246 14.7 L -32.922 -69.160 28.8  SJA  7 0.3 2.4LSJA                1
 GAP=224        0.92       4.0     6.8  4.7  0.1165E+02  0.1622E+02 -0.8841E-01E
 ACTION:UPD 09-04-21 08:38 OP:    STATUS:               ID:20081108024615 L   I
 2008-11-08-0245-38S.NCU___025                                                 6
 STAT SP IPHASW D HRMM SECON CODA AMPLIT PERI AZIMU VELO AIN AR TRES W  DIS CAZ7
 ARCO PZ IP        246 21.56                             141   -0.3510 23.1  67 
 ARCO PZ IS        246 26.72                             141   -0.5110 23.1  67 
 ARCO PZ  AML      246 27.86      1667.8 1.57                          23.1  67 
 AGRELPZ IP        246 23.72                             128    0.3910 36.0 120 
 AGRELPZ  AML      246 31.54     146.1e4 0.00                          36.0 120 
 SALAGPZ IP        246 24.66                             119    0.1010 47.7  40 
 SALAGPZ IS        246 32.32                             119    0.4710 47.7  40 
 SALAGPZ  AML      246 34.42      12.0e4 0.52                          47.7  40 
 RTUM PZ IP        246 29.80                             107    0.3210 80.2 345 
 RTUM PZ  AML      246 39.41      50.1e4 0.00                          80.2 345 
 RTLS PZ IP        246 36.86                             100   -0.1810  125 354 
 RTLS PZ IS        246 53.40                             100   -0.1510  125 354 
 RTLS PZ  AML      246 55.15      27.8e4 2.10                           125 354 
 RTCV PZ IP        246 37.94                              99    0.3010  131  27 
 RTCV PZ  AML      246 54.63      33.5e4 1.05                           131  27 
 CFAA BZ IP        246 43.14                              58   -0.3910  170  31 
 CFAA BZ  AML      247  7.46       416.4 0.87                           170  31 
                                                                                
 2008 11 8 0315 53.5 L -32.914 -69.128 29.4  SJA  6 0.3 2.1LSJA                1
 GAP=218        0.70       3.0     5.2  4.7  0.4836E+01  0.5183E+01 -0.7617E+01E
 ACTION:UPD 09-04-21 08:38 OP:    STATUS:               ID:20081108031554 L   I
 2008-11-08-0315-03S.NCU___025                                                 6
 STAT SP IPHASW D HRMM SECON CODA AMPLIT PERI AZIMU VELO AIN AR TRES W  DIS CAZ7
 AGRELPZ IP        316  2.17                             130    0.2910 33.9 124 
 AGRELPZ IS        316  7.80                             130   -0.3010 33.9 124 
 AGRELPZ  AML      316  8.98      78.8e4 0.50                          33.9 124 
 SALAGPZ IP        316  3.22                             121    0.2010 45.2  38 
 SALAGPZ  AML      316 14.93      11.2e4 1.49                          45.2  38 
 RTUM PZ IP        316  8.36                             108    0.0910 80.3 342 
 RTUM PZ  AML      316 17.91      21.0e4 1.49                          80.3 342 
 RTLS PZ IP        316 15.34                             100   -0.3910  125 353 
 RTLS PZ  AML      316 35.76      13.0e4 1.49                           125 353 
 RTCV PZ IP        316 16.40                              99    0.3210  129  26 
 RTCV PZ IS        316 32.72                              99   -0.0910  129  26 
 RTCV PZ  AML      316 35.52      18.3e4 0.00                           129  26 
 CFAA BZ IP        316 21.81                              58   -0.1210  168  30 
 CFAA BZ  AML      316 45.53       311.8 1.07                           168  30 
                                                                                
 2008 11 8 0629  5.8 L -31.388 -69.291117.3  SJA  9 0.2 2.6LSJA                1
 GAP=260        0.62       5.8     7.5  7.8 -0.1383E+02  0.2362E+02  0.9042E+01E
 ACTION:UPD 09-04-21 08:38 OP:    STATUS:               ID:20081108062906 L   I
 2008-11-08-0628-30S.NCU___025                                                 6
 STAT SP IPHASW D HRMM SECON CODA AMPLIT PERI AZIMU VELO AIN AR TRES W  DIS CAZ7
 RTLS PZ IP        629 24.62                             155   -0.2610 45.6 181 
 RTLS PZ  AML      629 39.66     119.3e4 0.00                          45.6 181 
 INPC PZ IP        629 26.35                             143   -0.0410 71.2 103 
 RTLL PZ IP        629 26.18                             140   -0.2110 77.9  85 
 RTLL PZ  AML      629 40.43      68.0e4 0.52                          77.9  85 
 RTCV PZ IP        629 27.49                             135    0.2710 88.5 127 
 RTCV PZ IS        629 43.00                             135   -0.0710 88.5 127 
 RTCV PZ  AML      629 43.79      24.2e4 2.06                          88.5 127 
 RTUM PZ IP        629 27.86                             134    0.3810 93.2 186 
 RTUM PZ  AML      629 42.76      24.0e4 0.00                          93.2 186 
 CFAA BZ IP        629 28.50                             130    0.2210  103 104 
 SALAGPZ IP        629 31.64                             119    0.0010  140 162 
 SALAGPZ  AML      629 51.27      12.1e4 0.52                           140 162 
 ARCO PZ IP        629 34.59                             113    0.0310  165 168 
 ARCO PZ  AML      629 56.43        82.2 1.55                           165 168 
 AGRELPZ IP        629 37.29                             107   -0.3210  193 167 
                                                                                
 2008 11 8 1142 43.1 L -31.603 -68.232103.8  SJA  7 0.3 2.7LSJA                1
 GAP=165        0.88       8.6     4.8  7.7 -0.1136E+02 -0.2962E+01  0.3792E+02E
 ACTION:UPD 09-04-21 08:38 OP:    STATUS:               ID:20081108114243 L   I
 2008-11-08-1142-03S.NCU___025                                                 6
 STAT SP IPHASW D HRMM SECON CODA AMPLIT PERI AZIMU VELO AIN AR TRES W  DIS CAZ7
 CFAA BZ IP       1142 58.91                             180    0.1410 0.04 215 
 CFAA BZ IS       1143 10.33                             180   -0.0310 0.04 215 
 CFAA BZ  AML     1143 11.34      1858.4 0.04                          0.04 215 
 RTLL PZ IP       1142 59.85                             156   -0.0710 38.1 323 
 RTLL PZ  AML     1143 13.36      88.3e4 1.58                          38.1 323 
 RTCV PZ IP       1143  0.10                             154    0.0410 41.0 225 
 RTCV PZ  AML     1143 12.31      97.2e4 0.00                          41.0 225 
 RTLS PZ IP       1143  5.20                             124   -0.1210  103 258 
 RTLS PZ IS       1143 21.51                             124   -0.2410  103 258 
 RTLS PZ  AML     1143 23.38      58.5e4 1.58                           103 258 
 SALAGPZ IP       1143  5.77                             116   -0.7510  123 207 
 SALAGPZ  AML     1143 23.38      16.3e4 0.53                           123 207 
 RTCT PZ IP       1143  6.88                             116    0.1910  124 127 
 RTCT PZ  AML     1143 23.38      22.6e4 0.53                           124 127 
 RTUM PZ IP       1143  7.74                             114    0.4110  129 237 
 RTUM PZ IS       1143 25.66                             114    0.4210  129 237 
 RTUM PZ  AML     1143 25.75      33.5e4 0.00                           129 237 
                                                                                
