 2008 11 1 0147  0.2 L -32.243 -70.324110.0  SJA 10 0.1 3.0LSJA                1
 GAP=315        0.31       4.7     8.3  3.9 -0.1405E+00  0.1617E+02 -0.6560E+01E
 ACTION:UPD 09-04-21 08:38 OP:    STATUS:               ID:20081101014700 L   I
 2008-11-01-0146-31S.NCU___025                                                 6
 STAT SP IPHASW D HRMM SECON CODA AMPLIT PERI AZIMU VELO AIN AR TRES W  DIS CAZ7
 RTUM PZ IP        147 20.96                             133    0.0810 88.4  89 
 RTUM PZ IS        147 36.20                             133    0.0010 88.4  89 
 RTLS PZ IP        147 23.24                             125   -0.0910  109  63 
 SALAGPZ IP        147 26.14                             113   -0.0410  145 106 
 ARCO PZ  AML      147 47.82       205.9 0.00                           147 117 
 AGRELPZ  AML      147 51.90      52.2e4 1.63                           169 124 
 RTCV PZ IP        147 29.67                             107    0.0510  174  76 
 INPC PZ  AML      147 57.13       523.1 1.09                           185  65 
 RTLL PZ IP        147 32.88                             101    0.0410  202  60 
 CFAA BZ IP        147 33.49                             100   -0.0410  210  71 
 CFAA BZ  AML      148  1.98       842.9 3.27                           210  71 
 CYA  PZ  AML      149 22.88        13.0 1.09                           606  47 
                                                                                
 2008 11 1 0209 33.4 L -31.222 -68.360 92.7  SJA  6 0.1 2.4LSJA                1
 GAP=290        0.35       5.2     5.4  3.3  0.8832E+01  0.1200E+02  0.6760E+01E
 ACTION:UPD 09-04-21 08:38 OP:    STATUS:               ID:20081101020933 L   I
 2008-11-01-0208-58S.NCU___025                                                 6
 STAT SP IPHASW D HRMM SECON CODA AMPLIT PERI AZIMU VELO AIN AR TRES W  DIS CAZ7
 RTLL PZ IP        2 9 48.20                             168    0.0510 16.1 222 
 RTLL PZ IS        2 9 59.03                             168   -0.0310 16.1 222 
 RTLL PZ  AML      2 9 59.66      79.9e4 0.00                          16.1 222 
 CFAA BZ IP        2 9 49.18                             150    0.0210 44.0 164 
 CFAA BZ IS        210  0.87                             150    0.0610 44.0 164 
 RTCV PZ IP        2 9 51.35                             134   -0.1910 73.0 193 
 RTCV PZ  AML      210  6.89      34.8e4 1.55                          73.0 193 
 RTLS PZ IP        2 9 55.53                             119   -0.0310  110 234 
 RTLS PZ  AML      210 14.37      29.7e4 0.52                           110 234 
 RTUM PZ IP        2 9 59.32                             106    0.1110  148 221 
 RTUM PZ  AML      210 20.82      10.7e4 0.00                           148 221 
 SALAGPZ  AML      210 19.27     66139.1 1.55                           158 196 
                                                                                
 2008 11 1 0452 28.1 L -32.761 -68.775 29.0  SJA  3 0.1 1.3LSJA                1
 GAP=204        0.34       1.3    10.5  4.0  0.1403E+01 -0.1029E+02  0.2164E+01E
 ACTION:UPD 09-04-21 08:38 OP:    STATUS:               ID:20081101045228 L   I
 2008-11-01-0452-11S.NCU___025                                                 6
 STAT SP IPHASW D HRMM SECON CODA AMPLIT PERI AZIMU VELO AIN AR TRES W  DIS CAZ7
 ARCO PZ IP        452 34.80                             149    0.0010 17.3 239 
 ARCO PZ  AML      452 41.02        70.9 2.90                          17.3 239 
 SALAGPZ IP        452 34.69                             146    0.0810 19.6 344 
 SALAGPZ IS        452 39.37                             146   -0.0510 19.6 344 
 SALAGPZ  AML      452 39.99     61564.8 0.41                          19.6 344 
 AGRELPZ IP        452 36.70                             128   -0.0810 36.3 188 
 AGRELPZ IS        452 43.25                             128    0.0510 36.3 188 
 AGRELPZ  AML      452 44.13      13.9e4 0.00                          36.3 188 
                                                                                
 2008 11 1 0855 40.3 L -27.821 -68.644146.3  SJA  4 0.2 3.2LSJA                1
 GAP=287        0.67       8.7    12.9 22.2 -0.8535E+02 -0.3993E+02  0.4032E+02E
 ACTION:UPD 09-04-21 08:38 OP:    STATUS:               ID:20081101085540 L   I
 2008-11-01-0855-22S.CAT___026                                                 6
 STAT SP IPHASW D HRMM SECON CODA AMPLIT PERI AZIMU VELO AIN AR TRES W  DIS CAZ7
 GUANDPZ IP        856 12.07                             119   -0.0510  185 175 
 GUANDPZ  AML      856 36.90     20844.0 0.16                           185 175 
 CYA  PZ IP        856 21.36                             105    0.0010  288 104 
 MOGNAPZ IP        856 30.34                             100    0.4110  346 178 
 RTLL PZ IP        856 34.48                              98   -0.3510  389 178 
 RTLL PZ IS        857 15.15                              98    0.0010  389 178 
 RTLL PZ  AML      857 18.51      24.0e4 0.31                           389 178 
                                                                                
 2008 11 1 0906 19.6 L -34.577 -69.380  0.1  SJA  6 0.2 2.8LSJA                1
 GAP=343        0.55      31.1    52.9 29.0 -0.1619E+04  0.1412E+04 -0.8485E+03E
 ACTION:UPD 09-04-21 08:38 OP:    STATUS:               ID:20081101090619 L   I
 2008-11-01-0906-07S.NCU___025                                                 6
 STAT SP IPHASW D HRMM SECON CODA AMPLIT PERI AZIMU VELO AIN AR TRES W  DIS CAZ7
 AGRELPZ IP        9 6 49.76                              65    0.1310  173  17 
 AGRELPZ IS        9 7 11.85                              65    0.0210  173  17 
 AGRELPZ  AML      9 7 14.18      16.6e4 0.52                           173  17 
 ARCO PZ IP        9 6 53.17                              65   -0.3010  197  12 
 ARCO PZ  AML      9 7 17.86       136.8 1.05                           197  12 
 SALAGPZ IP        9 6 57.87                              65    0.1010  226  13 
 SALAGPZ  AML      9 7 27.04     78801.4 0.00                           226  13 
 RTUM PZ IP        9 7  3.60                              50    0.2410  261 360 
 RTUM PZ  AML      9 7 37.01      10.4e4 1.57                           261 360 
 RTLS PZ IP        9 7 10.16                              50   -0.1910  308   1 
 RTLS PZ  AML      9 7 50.14     75923.7 1.57                           308   1 
 INPC PZ  AML      9 8 34.75      1461.0 0.00                           347  13 
                                                                                
 2008 11 1 1425  1.4 L -21.890 -67.648 15.0  SJA  6 2.4                        1
 GAP=293        6.06     128.9    88.1142.0 -0.9658E+04 -0.7710E+04  0.7838E+04E
 ACTION:UPD 09-04-21 08:38 OP:    STATUS:               ID:20081101142500 L   I
 2008-11-01-1425-02S.JUJ___036                                                 6
 STAT SP IPHASW D HRMM SECON CODA AMPLIT PERI AZIMU VELO AIN AR TRES W  DIS CAZ7
 YAVI PZ IP       1425 38.37                              58    0.3810  223  99 
 YAVI PZ IS       1426  6.78                              58    1.7310  223  99 
 ZA   PZ IP       1425 56.25                              56   -4.5210  370 135 
 SLA  PZ IP       1426  0.49                              56    1.2110  383 145 
 SB   PZ IP       1425 58.68                              55   -2.4610  397 126 
 THA  PZ IP       1426 24.51                              46    0.8410  591 157 
 CYA  PZ IP       1426 44.03                              46    2.8210  750 166 
                                                                                
 2008 11 1 1606 28.2 L -28.361 -66.942 15.0  SJA  3 0.0                        1
 GAP=225        0.30       2.9     2.3  0.0 -0.4864E+01 -0.7710E+04  0.7838E+04E
 ACTION:UPD 09-04-21 08:38 OP:    STATUS:               ID:20081101160625 L   I
 2008-11-01-1605-46S.CAT___026                                                 6
 STAT SP IPHASW D HRMM SECON CODA AMPLIT PERI AZIMU VELO AIN AR TRES W  DIS CAZ7
 CYA  PZ IP       16 6 45.77                              93    0.0010  113  95 
 GUANDPZ IP       16 7  0.68                              92    0.0010  196 230 
 CFAA BZ IS       16 8  9.50                              56    0.0010  380 199 
                                                                                
 2008 11 1 1746 38.1 L -31.968 -71.722 14.7  SJA 10 0.3 3.3LSJA                1
 GAP=294        0.85       9.3    34.0 49.6  0.1986E+03 -0.1608E+04 -0.3261E+03E
 ACTION:UPD 09-04-21 08:38 OP:    STATUS:               ID:20081101174636 L   I
 2008-11-01-1746-28S.CAT___026                                                 6
 STAT SP IPHASW D HRMM SECON CODA AMPLIT PERI AZIMU VELO AIN AR TRES W  DIS CAZ7
 RTUM PZ IP       1747 15.37                              58    0.2610  222  98 
 RTUM PZ  AML     1747 41.90      86.8e4 1.30                           222  98 
 RTLS PZ IP       1747 16.65                              58   -0.1510  230  86 
 RTLS PZ  AML     1747 49.71     116.2e4 0.65                           230  86 
 ARCO PZ IP       1747 23.20                              58    0.1410  280 111 
 SALAGPZ IP       1747 23.32                              58    0.4910  281 105 
 SALAGPZ  AML     1748  6.97      20.3e4 1.30                           281 105 
 AGRELPZ IP       1747 25.24                              58   -0.3610  299 115 
 RTCV PZ IP       1747 25.99                              58    0.0210  301  89 
 RTCV PZ  AML     1748 12.18      23.5e4 1.30                           301  89 
 INPC PZ  AML     1748 13.80       967.5 0.00                           304  82 
 RTLL PZ IS       1748  4.91                              56    0.0310  316  78 
 RTLL PZ  AML     1748 13.48      54.6e4 0.65                           316  78 
 CFAA BZ IP       1747 29.41                              56   -0.6210  333  84 
 GUANDPZ IP       1747 40.61                              55    0.1910  414  49 
 GUANDPZ  AML     1748 44.41     11702.2 0.00                           414  49 
                                                                                
 2008 11 1 1842 31.3 L -31.139 -68.960 94.6  SJA  6 0.3 2.4LSJA                1
 GAP=271        0.89      12.3     6.6  8.5 -0.4199E+02  0.3253E+01 -0.3303E+02E
 ACTION:UPD 09-04-21 08:38 OP:    STATUS:               ID:20081101184231 L   I
 2008-11-01-1841-52S.CAT___026                                                 6
 STAT SP IPHASW D HRMM SECON CODA AMPLIT PERI AZIMU VELO AIN AR TRES W  DIS CAZ7
 RTLL PZ IP       1842 47.65                             146   -0.1910 50.8 115 
 RTLL PZ  AML     1843  1.54      44.8e4 0.70                          50.8 115 
 RTLS PZ IP       1842 50.80                             132    0.1810 79.8 204 
 RTLS PZ IS       1843  4.45                             132   -0.4810 79.8 204 
 RTLS PZ  AML     1843  6.41      46.1e4 0.70                          79.8 204 
 CFAA BZ IP       1842 50.59                             129    0.0610 86.2 127 
 CFAA BZ IS       1843  5.10                             129    0.3210 86.2 127 
 RTCV PZ IP       1842 51.14                             127    0.1010 89.5 154 
 RTCV PZ  AML     1843  6.76      21.5e4 1.39                          89.5 154 
 RTUM PZ IP       1842 55.27                             114    0.4910  127 198 
 RTUM PZ  AML     1843 15.10     61758.8 0.70                           127 198 
 RTCT PZ IP       1843  3.96                              95   -0.4710  210 127 
 RTCT PZ  AML     1843 28.66      13.7e4 0.00                           210 127 
                                                                                
 2008 11 1 2208 16.1 L -31.467 -68.602 96.7  SJA  7 0.2 2.6LSJA                1
 GAP=158        0.65       5.1     4.7  4.1 -0.3271E+01  0.3901E+01  0.8412E+01E
 ACTION:UPD 09-04-21 08:38 OP:    STATUS:               ID:20081101220816 L   I
 2008-11-01-2207-37S.NCU___025                                                 6
 STAT SP IPHASW D HRMM SECON CODA AMPLIT PERI AZIMU VELO AIN AR TRES W  DIS CAZ7
 RTLL PZ IP       22 8 31.41                             167   -0.0310 19.5  38 
 RTLL PZ IS       22 8 42.45                             167   -0.3010 19.5  38 
 CFAA BZ IP       22 8 32.15                             155    0.1710 38.2 113 
 CFAA BZ IS       22 8 43.93                             155    0.2310 38.2 113 
 CFAA BZ  AML     22 8 44.25      1615.3 0.35                          38.2 113 
 RTCV PZ IP       22 8 32.72                             151    0.2010 44.2 172 
 RTCV PZ IS       22 8 44.56                             151   -0.0710 44.2 172 
 RTLS PZ IP       22 8 35.27                             135   -0.0110 75.4 241 
 RTUM PZ IP       22 8 38.50                             120    0.3210  112 221 
 SALAGPZ IP       22 8 39.06                             115   -0.4610  127 190 
 SALAGPZ  AML     22 8 57.64      18.7e4 1.05                           127 190 
 RTCT PZ IP       22 8 43.50                             106   -0.0610  161 124 
                                                                                
 2008 11 2 0304 54.5 L -31.382 -68.804 98.0  SJA  6 0.3 2.4LSJA                1
 GAP=214        0.77       6.5     8.2  8.0 -0.7505E+01  0.4439E+02  0.1032E+02E
 ACTION:UPD 09-04-21 08:38 OP:    STATUS:               ID:20081102030454 L   I
 2008-11-02-0304-16S.NCU___025                                                 6
 STAT SP IPHASW D HRMM SECON CODA AMPLIT PERI AZIMU VELO AIN AR TRES W  DIS CAZ7
 RTLL PZ IP        3 5 10.30                             159   -0.0710 31.8  79 
 RTLL PZ IS        3 5 21.82                             159   -0.2910 31.8  79 
 RTCV PZ IP        3 5 12.16                             143    0.2110 58.8 155 
 RTCV PZ IS        3 5 24.82                             143   -0.0410 58.8 155 
 CFAA BZ IP        3 5 11.95                             143    0.1510 59.6 114 
 CFAA BZ IS        3 5 24.84                             143    0.2410 59.6 114 
 RTLS PZ IP        3 5 12.94                             140   -0.0110 65.7 225 
 RTUM PZ IP        3 5 16.62                             122    0.3910  108 210 
 SALAGPZ IP        3 5 18.17                             114   -0.5810  134 181 
 SALAGPZ  AML      3 5 36.99      13.0e4 0.00                           134 181 
                                                                                
 2008 11 2 0531 20.9 L -31.497 -68.542 93.5  SJA  8 0.1 2.6LSJA                1
 GAP=134        0.45       3.4     2.8  2.8 -0.3983E+01  0.1011E+01  0.1501E+01E
 ACTION:UPD 09-04-21 08:38 OP:    STATUS:               ID:20081102053121 L   I
 2008-11-02-0530-39S.NCU___025                                                 6
 STAT SP IPHASW D HRMM SECON CODA AMPLIT PERI AZIMU VELO AIN AR TRES W  DIS CAZ7
 INPC PZ IP        531 35.89                             177   -0.1610 3.88 206 
 INPC PZ  AML      531 46.01      1248.5 0.54                          3.88 206 
 RTLL PZ IP        531 35.84                             166    0.0010 19.6  19 
 CFAA BZ IP        531 36.21                             158    0.1210 31.7 112 
 CFAA BZ IS        531 47.52                             158    0.2010 31.7 112 
 CFAA BZ  AML      531 48.85      3469.6 0.19                          31.7 112 
 RTCV PZ IP        531 36.87                             152    0.1210 40.5 180 
 RTCV PZ IS        531 48.21                             152   -0.2410 40.5 180 
 RTLS PZ IP        531 39.95                             132   -0.1610 79.0 245 
 RTUM PZ IP        531 43.08                             118    0.1510  114 225 
 RTUM PZ IS        531 59.24                             118    0.0310  114 225 
 SALAGPZ IP        531 44.00                             113    0.0910  125 193 
 SALAGPZ  AML      532  2.01      12.1e4 0.00                           125 193 
 RTCT PZ IP        531 47.32                             104   -0.1610  154 124 
                                                                                
 2008 11 2 0746 32.0 L -31.975 -68.415108.2  SJA 10 0.2 2.5LSJA                1
 GAP= 91        0.69       4.5     4.3  6.0 -0.5277E+01 -0.6117E+01  0.1766E+02E
 ACTION:UPD 09-04-21 08:38 OP:    STATUS:               ID:20081102074632 L   I
 2008-11-02-0745-54S.NCU___025                                                 6
 STAT SP IPHASW D HRMM SECON CODA AMPLIT PERI AZIMU VELO AIN AR TRES W  DIS CAZ7
 RTCV PZ IP        746 48.75                             169    0.2110 17.2 317 
 RTCV PZ IS        747  0.83                             169    0.0410 17.2 317 
 CFAA BZ IP        746 49.54                             153    0.1710 44.7  23 
 CFAA BZ IS        747  2.16                             153   -0.0810 44.7  23 
 INPC PZ IP        746 50.25                             149   -0.1810 51.4 344 
 INPC PZ  AML      747  7.82       575.3 0.18                          51.4 344 
 RTLL PZ IP        746 51.35                             139    0.0210 71.8 355 
 SALAGPZ IP        746 51.98                             136    0.4510 78.9 210 
 SALAGPZ  AML      747  6.99      27.2e4 0.37                          78.9 210 
 RTLS PZ IS        747  8.10                             133   -0.3110 85.6 283 
 RTUM PZ IP        746 53.58                             129    0.3810 95.8 253 
 ARCO PZ IP        746 54.21                             124   -0.2510  108 207 
 RTCT PZ IP        746 55.34                             120   -0.1410  120 106 
 AGRELPZ IP        746 56.23                             117   -0.3010  129 197 
                                                                                
 2008 11 2 1034 50.2 L -33.166 -68.600  6.8  SJA  6 0.3 2.5LSJA                1
 GAP=239        0.88       8.8     7.1 17.2  0.3501E+02 -0.9845E+02 -0.7612E+02E
 ACTION:UPD 09-04-21 08:38 OP:    STATUS:               ID:20081102103449 L   I
 2008-11-02-1034-19S.NCU___025                                                 6
 STAT SP IPHASW D HRMM SECON CODA AMPLIT PERI AZIMU VELO AIN AR TRES W  DIS CAZ7
 AGRELPZ IP       1034 55.28                             100   -0.0810 23.0 293 
 AGRELPZ  AML     1035  1.70     180.0e4 2.67                          23.0 293 
 ARCO PZ IP       1034 59.41                              92   -0.0910 47.6 319 
 ARCO PZ IS       1035  6.58                              92    0.1910 47.6 319 
 ARCO PZ  AML     1035  8.10      1129.9 0.53                          47.6 319 
 SALAGPZ IP       1035  2.84                              72    0.3910 67.4 341 
 SALAGPZ  AML     1035 13.44      44.9e4 1.60                          67.4 341 
 RTUM PZ IP       1035 12.23                              72   -0.0210  128 325 
 RTCT PZ IP       1035 18.59                              72    0.3010  165  54 
 RTLL PZ IP       1035 24.01                              72   -0.6910  204   3 
                                                                                
