 2009 12 3 1644  1.0 L -31.234 -68.444 97.9  SJA 12 0.2 2.8LSJA 2.7CSJA        1
 GAP=136        0.69       2.1     3.0  2.8 -0.9477E+00 -0.2109E+00  0.1650E+01E
 ACTION:UPD 10-01-11 13:44 OP:cr   STATUS:               ID:20091203164401 L   I
 2009-12-03-1643-24S.NCU___029                                                 6
 STAT SP IPHASW D HRMM SECON CODA AMPLIT PERI AZIMU VELO AIN AR TRES W  DIS CAZ7
 RTLL PZ IP       1644 15.45                             173    0.0410 11.0 196 
 RTLL PZ IS       1644 25.86                             173   -0.1810 11.0 196 
 MOGNAPZ IP       1644 16.49                             159    0.4910 32.9 352 
 MOGNAPZ IS       1644 26.83                             159   -0.2410 32.9 352 
 INPC PZ IP       1644 16.62                             158    0.5010 34.5 199 
 INPC PZ IS       1644 27.42                             158    0.1410 34.5 199 
 CFAA PZ IP       1644 16.82                             151    0.0910 45.6 154 
 CFAA PZ IS       1644 28.26                             151   -0.0810 45.6 154 
 RTCV PZ IP       1644 18.57                             139    0.1110 70.3 187 
 RTLS PZ IP       1644 22.34                             126    0.2810  102 232 
 RTLS PZ IS       1644 37.50                             126   -0.1110  102 232 
 RTUM PZ IP       1644 26.12   68                        115   -0.0110  142 219 
 RTUM PZ IS       1644 44.39                             115   -0.3210  142 219 
 SALAGPZ IP       1644 27.16   72                        112    0.1410  155 194 
 SALAGPZ IS       1644 46.15                             112   -0.1010  155 194 
 RTCT PZ IP       1644 28.26   48                        110    0.0810  166 134 
 RTCT PZ IS       1644 48.03                             110   -0.2410  166 134 
 ARCO PZ IP       1644 30.60                             107    0.1510  184 194 
 ARCO PZ IS       1644 52.00                             107   -0.2210  184 194 
 ARCO PZ  AML     1644 55.29        92.7 0.30                           184 194 
 GUANDPZ IP       1644 30.93                             106   -0.5510  194 359 
 GUANDPZ IP       1644 30.93                                            194 359 
 AGRELPZ IP       1644 33.27   89                        104    0.0310  209 190 
                                                                                
 2009 12 3 1803 45.0 L -31.133 -68.311 96.8  SJA  9 0.2 2.3CSJA                1
 GAP=146        0.52       1.3     2.4  2.4 -0.1642E+00 -0.3884E+00 -0.8924E-03E
 ACTION:UPD 10-01-11 13:44 OP:cr   STATUS:               ID:20091203180345 L   I
 2009-12-03-1803-09S.NCU___029                                                 6
 STAT SP IPHASW D HRMM SECON CODA AMPLIT PERI AZIMU VELO AIN AR TRES W  DIS CAZ7
 RTLL PZ IP       18 3 59.48                             162   -0.2310 26.8 216 
 RTLL PZ IS       18 4 10.44                             162   -0.1210 26.8 216 
 MOGNAPZ IP       18 4  0.02   46                        162    0.3610 27.5 321 
 MOGNAPZ IS       18 4 10.44                             162   -0.0310 27.5 321 
 CFAA PZ IP       18 4  1.43   45                        147    0.3610 52.7 172 
 CFAA PZ IS       18 4 12.83                             147   -0.1010 52.7 172 
 RTCV PZ IP       18 4  3.55   32                        132    0.0310 83.7 195 
 RTCV PZ IS       18 4 17.39                             132    0.1910 83.7 195 
 RTLS PZ IP       18 4  7.89   60                        120    0.1810  119 231 
 RTLS PZ IS       18 4 24.45                             120   -0.0210  119 231 
 RTUM PZ IP       18 4 11.85   52                        111   -0.1010  158 220 
 RTUM PZ IS       18 4 31.62                             111   -0.2410  158 220 
 RTCT PZ IP       18 4 12.02                             110   -0.0810  165 140 
 RTCT PZ IS       18 4 32.00                             110   -0.1310  165 140 
 SALAGPZ IP       18 4 12.83   39                        109    0.2410  169 197 
 SALAGPZ IS       18 4 32.87                             109   -0.1010  169 197 
 GUANDPZ IP       18 4 14.13                             107   -0.1110  183 355 
 GUANDPZ IS       18 4 35.74                             107   -0.1010  183 355 
                                                                                
 2009 12 3 1936  8.0 L -32.488 -69.580116.2  SJA 13 0.2 2.8LSJA 3.2CSJA        1
 GAP=240        0.68       2.0     4.0  3.1  0.8664E+00  0.1218E+00 -0.1750E+01E
 ACTION:UPD 10-01-11 13:44 OP:cr   STATUS:               ID:20091203193608 L   I
 2009-12-03-1935-32S.NCU___029                                                 6
 SPEC ARCOPC Z T193640 K 0.020 GD    0 VS 3.60 DE 3.00 Q0 75.0 QA 1.03 VS 3.60 3
 2009-12-03-1935-32S.NCU___029                                                 6
 STAT SP IPHASW D HRMM SECON CODA AMPLIT PERI AZIMU VELO AIN AR TRES W  DIS CAZ7
 RTUM PZ IP       1936 25.64  101                        161   -0.2210 34.5  32 
 RTUM PZ IS       1936 38.68                             161   -0.4110 34.5  32 
 SALAGPZ IP       1936 27.86                             144    0.6310 71.0 100 
 SALAGPZ IS       1936 41.57                             144    0.0910 71.0 100 
 ARCO PZ IP       1936 27.28  121                        144   -0.1510 72.3 123 
 ARCO PZ IS       1936 41.77                             144   -0.0610 72.3 123 
 ARCO PZ  AML     1936 44.83       192.1 0.20                          72.3 123 
 RTLS PZ IP       1936 28.66   89                        141    0.0210 81.0  19 
 RTLS PZ IS       1936 44.19                             141    0.2610 81.0  19 
 AGRELPZ IP       1936 29.81                             135    0.5210 96.8 133 
 AGRELPZ IS       1936 45.12                             135    0.0510 96.8 133 
 RTCV PZ IP       1936 31.44                             128    0.0910  120  55 
 RTCV PZ IS       1936 48.45                             128   -0.1910  120  55 
 INPC PZ EP       1936 33.53                             122   -0.1410  144  42 
 INPC PZ IS       1936 52.78                             122    0.1110  144  42 
 INPC PZ  AML     1936 57.26       108.9 0.15                           144  42 
 VIZCAPZ IP       1936 33.83                             121   -0.3410  148 138 
 CFAA PZ IP       1936 35.32  124                        118   -0.1710  161  53 
 CFAA PZ IS       1936 55.99                             118    0.1510  161  53 
 RTLL PZ IP       1936 35.99                             117   -0.0210  166  39 
 MOGNAPZ IP       1936 39.91                             111    0.1510  200  31 
 RTCT PZ IP       1936 42.66                             108   -0.1210  226  85 
 RTCT PZ IS       1937  8.37                             108   -0.1610  226  85 
 GUANDPZ IP       1936 57.03                              99   -0.2010  349  18 
 GUANDPZ IP       1936 57.03                                            349  18 
 GUANDPZ IS       1937 33.79                              99    0.1210  349  18 
                                                                                
 2009 12 3 2055 37.2 L -31.441 -67.949101.7  SJA  7 0.2 2.8CSJA                1
 GAP=185        0.55       2.5     2.4  3.4  0.1508E+01  0.5769E-02  0.2242E+01E
 ACTION:UPD 10-01-11 13:44 OP:cr   STATUS:               ID:20091203205537 L   I
 2009-12-03-2055-07S.NCU___028                                                 6
 STAT SP IPHASW D HRMM SECON CODA AMPLIT PERI AZIMU VELO AIN AR TRES W  DIS CAZ7
 CFAA PZ IP       2055 52.92  112                        160    0.2810 32.4 236 
 CFAA PZ IS       2056  4.13                             160    0.0710 32.4 236 
 RTLL PZ EP       2055 53.76   66                        149    0.1110 51.5 284 
 RTLL PZ IS       2056  5.75                             149   -0.0710 51.5 284 
 RTCV PZ IP       2055 55.46                             138    0.2810 73.0 230 
 RTCV PZ IS       2056  8.63                             138    0.1510 73.0 230 
 MOGNAPZ IP       2055 55.32  101                        137   -0.0410 76.0 317 
 MOGNAPZ IS       2056  8.52                             137   -0.2710 76.0 317 
 RTCT PZ IP       2055 59.39   68                        122    0.1410  117 142 
 RTCT PZ IS       2056 15.23                             122   -0.3310  117 142 
 RTLS PZ IP       2056  1.73   63                        118    0.0410  134 252 
 RTLS PZ IS       2056 19.87                             118    0.0510  134 252 
 RTUM PZ IP       2056  4.53   62                        112   -0.1510  161 237 
 RTUM PZ IS       2056 24.76                             112   -0.2610  161 237 
                                                                                
 2009 12 3 2107 43.9 L -31.908 -70.403 11.2  SJA  8 0.3 2.7CSJA                1
 GAP=288        0.78       3.0     4.2  3.0 -0.2360E+01  0.2946E+01 -0.2741E+01E
 ACTION:UPD 10-01-11 13:44 OP:cr   STATUS:               ID:20091203210743 L   I
 2009-12-03-2107-20S.NCU___026                                                 6
 STAT SP IPHASW D HRMM SECON CODA AMPLIT PERI AZIMU VELO AIN AR TRES W  DIS CAZ7
 RTUM PZ EP       21 8  2.30   72                         91    0.1010  102 110 
 RTUM PZ IS       21 8 16.08                              91    0.3310  102 110 
 RTLS PZ EP       21 8  2.58   71                         91   -0.1710  105  84 
 RTLS PZ IS       21 8 16.60                              91   -0.1210  105  84 
 ARCO PZ EP       21 8 13.33                              90    0.2210  173 127 
 RTCV PZ IP       21 8 13.29                              90   -0.3010  176  89 
 RTCV PZ IS       21 8 35.43                              90   -0.1410  176  89 
 RTLL PZ IP       21 8 16.15                              53    0.0010  194  71 
 RTLL PZ IS       21 8 39.60                              53   -0.4310  194  71 
 RTLL PZ ES       21 8 40.36                              53            194  71 
 AGRELPZ EP       21 8 16.86                              53    0.2010  197 132 
 AGRELPZ ES       21 8 40.43                              53   -0.4810  197 132 
 CFAA PZ IP       21 8 18.19                              53    0.1810  208  81 
 CFAA PZ IS       21 8 43.76                              53    0.4910  208  81 
 MOGNAPZ EP       21 8 18.09                              53   -0.2010  211  60 
 MOGNAPZ IP       21 8 18.10                              53            211  60 
 MOGNAPZ ES       21 8 44.07                              53    0.3210  211  60 
                                                                                
 2009 12 3 2228  1.6 L -31.303 -68.584 97.3  SJA 11 0.2 2.8LSJA 2.5CSJA        1
 GAP=132        0.55       1.5     2.3  2.4 -0.7471E+00  0.1436E+00  0.9516E+00E
 ACTION:UPD 10-01-11 13:44 OP:cr   STATUS:               ID:20091203222801 L   I
 2009-12-03-2227-24S.NCU___029                                                 6
 STAT SP IPHASW D HRMM SECON CODA AMPLIT PERI AZIMU VELO AIN AR TRES W  DIS CAZ7
 RTLL PZ IP       2228 15.89   51                        173    0.0410 10.7 106 
 RTLL PZ IS       2228 26.48                             173    0.0510 10.7 106 
 MOGNAPZ IP       2228 17.16                             153    0.3010 41.2  12 
 MOGNAPZ IS       2228 28.20                             153    0.0110 41.2  12 
 CFAA PZ IP       2228 17.32   47                        150    0.0410 47.1 135 
 CFAA PZ IS       2228 28.70                             150   -0.2110 47.1 135 
 RTCV PZ IP       2228 18.35   67                        142    0.0610 62.1 176 
 RTCV PZ IS       2228 30.64                             142   -0.0310 62.1 176 
 RTLS PZ IP       2228 20.97                             131   -0.1210 87.2 231 
 RTLS PZ IS       2228 35.70                             131    0.1610 87.2 231 
 RTUM PZ IP       2228 24.94   52                        118   -0.1310  127 216 
 RTUM PZ IS       2228 42.31                             118   -0.1710  127 216 
 SALAGPZ IP       2228 26.69                             114    0.3210  145 189 
 SALAGPZ IS       2228 44.70                             114   -0.0310  145 189 
 RTCT PZ IP       2228 29.39                             109    0.1710  171 130 
 RTCT PZ IS       2228 49.59                             109   -0.1010  171 130 
 ARCO PZ IP       2228 29.86   61                        109    0.1210  174 191 
 ARCO PZ IS       2228 50.67                             109    0.0710  174 191 
 ARCO PZ  AML     2228 53.87        97.3 0.30                           174 191 
 AGRELPZ IP       2228 32.88   68                        105    0.2610  199 187 
 AGRELPZ IS       2228 55.23                             105   -0.3810  199 187 
 GUANDPZ IP       2228 32.48                             105   -0.4210  201   3 
 GUANDPZ IP       2228 32.48                             105            201   3 
                                                                                
 2009 12 4 0041 26.4 L -31.574 -69.407 92.7  SJA  6 0.2 2.5CSJA                1
 GAP=233        0.59       3.9     5.0  4.9 -0.1350E+02  0.6106E+00 -0.5949E+01E
 ACTION:UPD 10-01-11 13:44 OP:cr   STATUS:               ID:20091204004126 L   I
 2009-12-04-0041-04S.NCU___026                                                 6
 STAT SP IPHASW D HRMM SECON CODA AMPLIT PERI AZIMU VELO AIN AR TRES W  DIS CAZ7
 RTLS PZ IP        041 41.31                             161   -0.0110 27.1 157 
 RTLS PZ IS        041 52.23                             161   -0.1410 27.1 157 
 RTUM PZ IP        041 44.67                             136    0.4810 72.1 178 
 RTUM PZ IS        041 57.26                             136   -0.0910 72.1 178 
 RTCV PZ IP        041 44.85                             129   -0.1110 88.1 111 
 RTCV PZ EP        041 45.14                                           88.1 111 
 RTLL PZ IP        041 45.29                             127   -0.1110 92.6  73 
 RTLL PZ IS        041 59.48                             127    0.0210 92.6  73 
 MOGNAPZ IS        042  3.05                             120    0.3010  112  51 
 CFAA PZ IP        041 47.17   56                        120   -0.1510  112  92 
 CFAA PZ IS        042  2.87                             120    0.0810  112  92 
 MOGNAPZ IP        041 47.02   51                        120   -0.2710  112  51 
                                                                                
 2009 12 4 0103 44.2 L -31.258 -68.351 96.7  SJA  6 0.1 2.2CSJA                1
 GAP=157        0.41       1.8     2.7  2.5  0.3447E+00 -0.1699E+01  0.1845E+01E
 ACTION:UPD 10-01-11 13:44 OP:cr   STATUS:               ID:20091204010344 L   I
 2009-12-04-0103-09S.NCU___028                                                 6
 STAT SP IPHASW D HRMM SECON CODA AMPLIT PERI AZIMU VELO AIN AR TRES W  DIS CAZ7
 RTLL PZ IP        1 3 58.33   44                        170   -0.2110 14.2 236 
 RTLL PZ IS        1 4  9.18                             170    0.0710 14.2 236 
 MOGNAPZ IP        1 3 59.22   46                        155   -0.0910 37.8 339 
 MOGNAPZ IS        1 4 10.42                             155   -0.0410 37.8 339 
 CFAA PZ IP        1 3 59.61   37                        154    0.1210 39.9 164 
 CFAA PZ IS        1 4 10.85                             154    0.0810 39.9 164 
 RTCV PZ IP        1 4  1.62                             138    0.1310 69.3 195 
 RTCV PZ IS        1 4 14.26                             138    0.0210 69.3 195 
 SALAGPZ IP        1 4 10.19                             112    0.0510  155 197 
 SALAGPZ IS        1 4 29.17                             112   -0.1410  155 197 
 RTCT PZ IP        1 4 10.63                             111    0.2210  158 136 
 RTCT PZ IS        1 4 29.57                             111   -0.2010  158 136 
                                                                                
 2009 12 4 0429 11.9 L -28.009 -66.798170.1  SJA  8 0.2 3.1CSJA                1
 GAP=251        0.68       4.0     3.2  5.1 -0.4426E+01  0.3890E+01  0.6085E+01E
 ACTION:UPD 10-01-11 13:44 OP:cr   STATUS:               ID:20091204042911 L   I
 2009-12-04-0429-28S.NCU___027                                                 6
 STAT SP IPHASW D HRMM SECON CODA AMPLIT PERI AZIMU VELO AIN AR TRES W  DIS CAZ7
 CYA  PN IP        429 38.77   52                        144   -0.1410  109 116 
 CYA  PN IS        429 58.92                             144    0.0010  109 116 
 GUANDPZ IP        429 50.21   84                        120    0.1310  233 225 
 GUANDPZ IS        430 18.32                             120   -0.0310  233 225 
 MOGNAPZ IP        430  4.06  108                        107   -0.1810  364 206 
 MOGNAPZ IS        430 43.22                             107    0.2210  364 206 
 CFAA PZ IP        430 10.73  115                        103   -0.1710  422 199 
 CFAA PZ IS        430 55.03                             103    0.4510  422 199 
 TCA  PZ IP        430 11.58   96                        103    0.1010  426 150 
 TCA  PZ IS        430 55.54                             103   -0.0410  426 150 
 RTCV PZ IP        430 15.29                             101    0.1010  459 201 
 RTCV PZ IS        431  1.53                             101   -0.5110  459 201 
 RTLS PZ IP        430 19.11                             100    0.3010  484 209 
 RTLS PZ IS        431  7.94                             100   -0.4110  484 209 
 SALAGPZ IP        430 25.13                              97   -0.0510  544 201 
 SALAGPZ IS        431 19.65                              97    0.2210  544 201 
                                                                                
 2009 12 4 0447  2.5 L -31.435 -69.264 96.1  SJA  6 0.2 1.7LSJA 2.3CSJA        1
 GAP=226        0.50       2.1     3.6  3.6 -0.4386E+01 -0.1608E+01  0.1289E+01E
 ACTION:UPD 10-01-11 13:44 OP:cr   STATUS:               ID:20091204044702 L   I
 2009-12-04-0446-40S.NCU___027                                                 6
 STAT SP IPHASW D HRMM SECON CODA AMPLIT PERI AZIMU VELO AIN AR TRES W  DIS CAZ7
 RTLS PZ IP        447 18.33                             154   -0.1110 40.5 184 
 RTLS PZ IS        447 30.28                             154    0.0410 40.5 184 
 RTUM PZ IP        447 21.77                             131   -0.2510 88.3 188 
 RTUM PZ IS        447 36.63                             131    0.1710 88.3 188 
 MOGNAPZ IP        447 21.57   40                        129   -0.0410 91.8  53 
 MOGNAPZ IS        447 35.76                             129    0.0110 91.8  53 
 CFAA PZ IP        447 22.34   52                        126   -0.1110 99.7 101 
 CFAA PZ IS        447 37.27                             126    0.0610 99.7 101 
 SALAGPZ IP        447 26.45                             116    0.3310  135 163 
 SALAGPZ IS        447 43.52                             116   -0.0810  135 163 
 ARCO PZ IP        447 29.17                             111    0.2110  159 169 
 ARCO PZ IP        447 29.17                                            159 169 
 ARCO PZ IS        447 48.29                             111   -0.2410  159 169 
 ARCO PZ  AML      447 52.77         8.3 0.40                           159 169 
                                                                                
