 2009 12 2 2257 40.2 L -24.316 -67.134186.4  SJA  9 0.2 4.0LSJA                1
 GAP=152        0.68       1.8     2.9  5.9  0.1815E+01  0.5653E+01  0.2829E+01E
 ACTION:UPD 10-01-11 13:44 OP:cr   STATUS:               ID:20091202225740 L   I
 2009-12-02-2257-22S.JUJ___046                                                 6
 SPEC FSA PC Z T225845 K 0.020 GD    0 VS 3.60 DE 3.00 Q0 75.0 QA 1.03 VS 3.60 3
 SPEC SLA PC Z MO  0.0 ST0.000 OM  5.3 f0 3.63 R0.3674 AL 8.36 WI  5.1 MW  0.0 3
 SPEC SLA PC Z T225838 K 0.020 GD    0 VS 3.60 DE 3.00 Q0 75.0 QA 1.03 VS 3.60 3
 2009-12-02-2257-22S.JUJ___046                                                 6
 STAT SP IPHASW D HRMM SECON CODA AMPLIT PERI AZIMU VELO AIN AR TRES W  DIS CAZ7
 SLA  PZ IP       2258 14.56                             133    0.5810  171 106 
 SLA  PZ IS       2258 39.17                             133    0.2210  171 106 
 SLA  PZ  AML     2258 42.69      2156.1 0.75                           171 106 
 ZA   PZ IP       2258 17.54                             126    0.1010  210  88 
 ZA   PZ IS       2258 44.97                             126   -0.0110  210  88 
 FSA  PZ IP       2258 19.48                             123   -0.0510  230 150 
 FSA  PZ IS       2258 48.31                             123   -0.3010  230 150 
 FSA  PZ  AML     2258 50.36       218.4 0.65                           230 150 
 LVC  BZ IP       2258 22.72                             119    0.1710  262 316 
 LVC  BZ IS       2258 53.69                             119   -0.1810  262 316 
 SB   PZ IP       2258 23.57                             117    0.0510  272  82 
 YAVI PZ IP       2258 25.63                             116    0.0110  289  35 
 YAVI PZ IS       2258 59.13                             116   -0.0710  289  35 
 LO   PZ IP       2258 28.68                             112            326  81 
 LO   PZ IP       2258 28.68                             112   -0.4210  326  81 
 THA  BZ IP       2258 29.16                             112   -0.1010  328 147 
 THA  BZ IS       2259  5.22                             112   -0.3310  328 147 
 CYA  PZ IP       2258 45.91                             101    0.0310  476 164 
 CYA  PZ IS       2259 34.76                             101    0.3010  476 164 
 CYA  PZ  AML     2259 58.08                                            476 164 
                                                                                
 2009 12 2 2334  9.4 L -31.893 -69.263 96.4  SJA  6 0.1 2.1CSJA                1
 GAP=146        0.36       1.7     2.3  2.7 -0.1488E+01 -0.9567E+00  0.2856E+00E
 ACTION:UPD 10-01-11 13:44 OP:cr   STATUS:               ID:20091202233409 L   I
 2009-12-02-2333-44S.NCU___027                                                 6
 STAT SP IPHASW D HRMM SECON CODA AMPLIT PERI AZIMU VELO AIN AR TRES W  DIS CAZ7
 RTLS PZ IP       2334 24.24   35                        173   -0.0810 10.8 343 
 RTLS PZ IS       2334 35.45                             173    0.0910 10.8 343 
 RTUM PZ IP       2334 25.11                             155   -0.1210 38.5 198 
 RTCV PZ IP       2334 26.54                             139    0.0010 68.5  87 
 RTCV PZ IS       2334 39.28                             139    0.0610 68.5  87 
 SALAGPZ IP       2334 28.44                             131    0.2210 87.4 153 
 SALAGPZ IS       2334 42.05                             131   -0.1010 87.4 153 
 RTLL PZ IP       2334 29.26                             127    0.1210 97.5  50 
 RTLL PZ IS       2334 43.68                             127   -0.0710 97.5  50 
 CFAA PZ IP       2334 29.56   45                        125   -0.1110  103  72 
 CFAA PZ IS       2334 44.66                             125   -0.0110  103  72 
                                                                                
 2009 12 3 0550 18.4 L -31.364 -69.166 97.4  SJA  5 0.1 2.0CSJA                1
 GAP=220        0.37       2.2     2.7  3.4 -0.2497E+01  0.1284E+01 -0.1809E+01E
 ACTION:UPD 10-01-11 13:44 OP:cr   STATUS:               ID:20091203055018 L   I
 2009-12-03-0549-52S.NCU___026                                                 6
 STAT SP IPHASW D HRMM SECON CODA AMPLIT PERI AZIMU VELO AIN AR TRES W  DIS CAZ7
 RTLS PZ IP        550 34.85   32                        149   -0.2110 49.8 194 
 RTLS PZ IS        550 47.49                             149    0.1310 49.8 194 
 RTLL PZ IP        550 35.65   33                        140    0.1710 65.9  87 
 RTLL PZ IS        550 48.10                             140    0.0110 65.9  87 
 MOGNAPZ IP        550 36.57                             134    0.0210 79.6  54 
 MOGNAPZ IS        550 49.86                             134   -0.0810 79.6  54 
 RTCV PZ IP        550 36.84                             134    0.1010 81.1 133 
 RTCV PZ IS        550 50.16                             134   -0.1210 81.1 133 
 CFAA PZ IP        550 37.75   38                        129   -0.0510 92.6 107 
 CFAA PZ IS        550 52.15                             129    0.0310 92.6 107 
                                                                                
 2009 12 3 0602 24.3 L -31.282 -68.591 98.8  SJA  6 0.1 2.2CSJA                1
 GAP=145        0.30       1.7     1.8  1.9 -0.1317E+01 -0.5287E-01  0.1256E+01E
 ACTION:UPD 10-01-11 13:44 OP:cr   STATUS:               ID:20091203060224 L   I
 2009-12-03-0601-50S.NCU___027                                                 6
 STAT SP IPHASW D HRMM SECON CODA AMPLIT PERI AZIMU VELO AIN AR TRES W  DIS CAZ7
 RTLL PZ IP        6 2 38.90   36                        172    0.0910 12.3 115 
 RTLL PZ IS        6 2 49.59                             172    0.0410 12.3 115 
 MOGNAPZ IP        6 2 39.62   52                        155   -0.0510 39.0  14 
 MOGNAPZ IS        6 2 50.97                             155   -0.0710 39.0  14 
 CFAA PZ IP        6 2 40.42   45                        149    0.0910 49.4 136 
 CFAA PZ IS        6 2 52.12                             149   -0.0610 49.4 136 
 RTLS PZ IP        6 2 44.18                             132    0.1310 88.1 229 
 RTLS PZ IS        6 2 58.69                             132    0.0310 88.1 229 
 RTUM PZ IP        6 2 47.93                             119   -0.1510  129 216 
 RTUM PZ IS        6 3  5.63                             119   -0.0310  129 216 
 RTCT PZ IP        6 2 52.27                             109   -0.0110  173 130 
                                                                                
 2009 12 3 0619  7.0 R -34.775 -71.472672.4  SJA  8 0.2 4.0CSJA                1
 GAP=330        0.59      12.2    28.9 20.6 -0.7037E+02  0.1781E+03  0.1650E+03E
 ACTION:UPD 10-01-11 13:44 OP:cr   STATUS:               ID:20091203061907 L   I
 2009-12-03-0620-11S.NCU___027                                                 6
 STAT SP IPHASW D HRMM SECON CODA AMPLIT PERI AZIMU VELO AIN AR TRES W  DIS CAZ7
 RTUM PZ IP        620 36.91  146                        152   -0.4210  343  35 
 RTLS PZ IP        620 40.11                             149    0.2710  387  32 
 RTCV PZ IP        620 41.46                             147    0.2010  423  41 
 CFAA PZ IP        620 43.98  158                        144    0.0910  464  42 
 RTLL PZ IP        620 44.66  131                        143    0.1010  474  37 
 RTCT PZ IP        620 45.16                             143   -0.1510  485  56 
 MOGNAPZ IP        620 47.02                             141    0.1210  509  34 
 GUANDPZ IP        620 57.63                             134   -0.1810  650  26 
 GUANDPZ IS        622 19.83                             134   -0.0110  650  26 
                                                                                
 2009 12 3 0919 30.0 L -31.643 -69.374101.1  SJA  7 0.1 2.4CSJA                1
 GAP=226        0.33       1.4     2.2  2.3 -0.1629E+01 -0.7437E-01 -0.5585E+00E
 ACTION:UPD 10-01-11 13:44 OP:cr   STATUS:               ID:20091203091930 L   I
 2009-12-03-0918-52S.NCU___027                                                 6
 STAT SP IPHASW D HRMM SECON CODA AMPLIT PERI AZIMU VELO AIN AR TRES W  DIS CAZ7
 RTLS PZ IP        919 45.70                             168    0.0610 18.8 157 
 RTLS PZ IS        919 57.26                             168    0.0410 18.8 157 
 RTUM PZ IP        919 48.01                             143    0.0510 64.5 181 
 RTUM PZ IS        920  1.12                             143   -0.1310 64.5 181 
 RTCV PZ IP        919 48.63                             134   -0.1110 82.7 107 
 RTCV PZ IS        920  2.71                             134    0.1110 82.7 107 
 RTLL PZ IP        919 49.50                             130   -0.1010 92.2  68 
 RTLL PZ IS        920  4.10                             130   -0.0110 92.2  68 
 CFAA PZ IP        919 51.05   65                        125   -0.1010  108  88 
 CFAA PZ IS        920  6.82                             125    0.0210  108  88 
 MOGNAPZ IP        919 51.66   43                        123   -0.0310  115  47 
 MOGNAPZ IS        920  7.80                             123    0.0510  115  47 
 SALAGPZ IP        919 52.28   51                        122    0.2410  117 154 
 SALAGPZ IS        920  8.26                             122   -0.0910  117 154 
                                                                                
 2009 12 3 0935 44.2 L -31.656 -69.181 98.6  SJA  6 0.1 2.0CSJA                1
 GAP=185        0.32       1.8     2.1  2.4 -0.2234E+01  0.3475E+00 -0.1314E+01E
 ACTION:UPD 10-01-11 13:44 OP:cr   STATUS:               ID:20091203093544 L   I
 2009-12-03-0935-19S.NCU___027                                                 6
 STAT SP IPHASW D HRMM SECON CODA AMPLIT PERI AZIMU VELO AIN AR TRES W  DIS CAZ7
 RTLS PZ IP        935 59.66   28                        167    0.1210 19.2 214 
 RTLS PZ IS        936 10.88                             167   -0.0310 19.2 214 
 RTCV PZ IP        936  1.26                             141    0.0210 64.9 111 
 RTCV PZ IS        936 13.85                             141   -0.0210 64.9 111 
 RTUM PZ IP        936  1.87                             141   -0.1310 65.9 197 
 RTUM PZ IS        936 15.22                             141    0.0210 65.9 197 
 RTLL PZ IP        936  2.36                             136    0.2010 76.3  62 
 RTLL PZ IS        936 15.45                             136   -0.0210 76.3  62 
 CFAA PZ IP        936  3.31   38                        131   -0.0810 90.2  87 
 CFAA PZ IS        936 17.65                             131    0.0310 90.2  87 
 MOGNAPZ IP        936  4.49   40                        126   -0.0610  103  40 
 MOGNAPZ IS        936 19.56                             126   -0.0610  103  40 
                                                                                
 2009 12 3 1348  1.1 L -31.284 -68.599 97.7  SJA  8 0.2 2.2CSJA                1
 GAP=146        0.46       1.8     2.0  2.5 -0.7409E+00 -0.2533E+00  0.1893E+01E
 ACTION:UPD 10-01-11 13:44 OP:cr   STATUS:               ID:20091203134801 L   I
 2009-12-03-1347-35S.NCU___028                                                 6
 STAT SP IPHASW D HRMM SECON CODA AMPLIT PERI AZIMU VELO AIN AR TRES W  DIS CAZ7
 RTLL PZ IP       1348 15.45   40                        171   -0.0110 12.9 113 
 RTLL PZ IS       1348 26.15                             171    0.0510 12.9 113 
 MOGNAPZ IP       1348 16.26   44                        155   -0.0810 39.5  15 
 MOGNAPZ IS       1348 27.56                             155   -0.0710 39.5  15 
 CFAA PZ IP       1348 17.21   34                        149    0.2110 49.7 136 
 CFAA PZ IS       1348 28.89                             149    0.1010 49.7 136 
 RTCV PZ IP       1348 18.04                             141    0.0210 64.4 175 
 RTCV PZ IS       1348 30.54                             141   -0.0210 64.4 175 
 RTLS PZ IP       1348 20.70   52                        132    0.0310 87.4 229 
 RTLS PZ IS       1348 35.11                             132   -0.0510 87.4 229 
 RTUM PZ IP       1348 24.50                             118   -0.2110  128 215 
 RTUM PZ IS       1348 42.08                             118   -0.1210  128 215 
 SALAGPZ IP       1348 26.57                             114    0.4510  147 189 
 SALAGPZ IS       1348 44.63                             114   -0.0210  147 189 
 RTCT PZ IP       1348 28.98                             109   -0.0710  173 130 
 RTCT PZ IS       1348 49.54                             109   -0.2110  173 130 
                                                                                
 2009 12 3 1352 32.1 L -30.693 -69.331 10.0  SJA  9 0.2 2.7CSJA                1
 GAP=210        0.68       1.5     3.5  4.0 -0.2126E+01 -0.2977E+01  0.2017E+01E
 ACTION:UPD 10-01-11 13:44 OP:cr   STATUS:               ID:20091203135232 L   I
 2009-12-03-1352-20S.NCU___027                                                 6
 STAT SP IPHASW D HRMM SECON CODA AMPLIT PERI AZIMU VELO AIN AR TRES W  DIS CAZ7
 MOGNAPZ IP       1352 46.89   73                         54   -0.1510 84.8 109 
 RTLS PZ IP       1352 53.70   71                         54   -0.0810  123 178 
 RTLS PZ IS       1353  9.74                              54   -0.0710  123 178 
 CFAA PZ IP       1352 57.11   85                         54    0.2310  145 134 
 CFAA PZ IS       1353 15.16                              54   -0.0310  145 134 
 RTCV PZ IP       1352 57.69                              54    0.1010  150 150 
 RTCV PZ IS       1353 16.37                              54   -0.0510  150 150 
 GUANDPZ IP       1352 58.52                              54   -0.1410  156  31 
 GUANDPZ IS       1353 18.10                              54   -0.1910  156  31 
 RTUM PZ IP       1353  1.51   60                         54    0.1410  170 182 
 RTUM PZ IS       1353 22.43                              54   -0.5710  170 182 
 SALAGPZ IP       1353  7.89   59                         40    0.5410  216 168 
 SALAGPZ IS       1353 33.28                              40   -0.1310  216 168 
 RTCT PZ IP       1353 14.30                              40    0.2010  269 131 
 AGRELPZ IP       1353 14.47                              40    0.1910  270 170 
                                                                                
 2009 12 3 1406 38.2 L -32.025 -68.508 93.3  SJA  8 0.2 2.4CSJA                1
 GAP= 91        0.55       1.5     2.0  3.4 -0.5688E+00 -0.1502E+01  0.9382E+00E
 ACTION:UPD 10-01-11 13:44 OP:cr   STATUS:               ID:20091203140638 L   I
 2009-12-03-1406-00S.NCU___027                                                 6
 STAT SP IPHASW D HRMM SECON CODA AMPLIT PERI AZIMU VELO AIN AR TRES W  DIS CAZ7
 RTCV PZ IP       14 6 52.62   60                        167    0.4910 18.3 350 
 RTCV PZ IS       14 7  2.40                             167   -0.0710 18.3 350 
 CFAA PZ IP       14 6 54.01   54                        145    0.1210 53.6  29 
 CFAA PZ IS       14 7  5.33                             145   -0.2110 53.6  29 
 SALAGPZ IP       14 6 55.60   39                        137    0.4110 69.9 206 
 SALAGPZ IS       14 7  7.81                             137    0.0210 69.9 206 
 RTLS PZ IP       14 6 56.54   45                        133   -0.0610 78.6 288 
 RTLS PZ IS       14 7 10.29                             133    0.0410 78.6 288 
 RTUM PZ IP       14 6 56.99   52                        130   -0.2310 85.8 255 
 RTUM PZ IS       14 7 11.23                             130   -0.1010 85.8 255 
 MOGNAPZ IP       14 6 59.82   59                        118   -0.1610  120   1 
 MOGNAPZ IS       14 7 16.20                             118    0.0710  120   1 
 AGRELPZ IP       14 7  0.21                             118   -0.0210  121 194 
 AGRELPZ IS       14 7 16.40                             118   -0.1610  121 194 
 RTCT PZ IP       14 7  0.71                             116   -0.1010  128 103 
 RTCT PZ IS       14 7 17.54                             116   -0.0310  128 103 
                                                                                
 2009 12 3 1414 49.5 L -24.062 -67.121196.0  SJA  6 0.1 2.1LSJA                1
 GAP=197        0.33       3.9     2.3  5.6  0.3912E+01  0.1516E+01 -0.1161E+02E
 ACTION:UPD 10-01-11 13:44 OP:cr   STATUS:               ID:20091203141449 L   I
 2009-12-03-1414-36S.JUJ___024                                                 6
 SPEC SLA PC Z T141548 K 0.020 GD    0 VS 3.60 DE 3.00 Q0 75.0 QA 1.03 VS 3.60 3
 2009-12-03-1414-36S.JUJ___024                                                 6
 STAT SP IPHASW D HRMM SECON CODA AMPLIT PERI AZIMU VELO AIN AR TRES W  DIS CAZ7
 SLA  PZ IP       1415 24.84                             133    0.1010  180 114 
 SLA  PZ IS       1415 50.82                             133    0.0210  180 114 
 SLA  PZ  AML     1415 52.28        15.8 0.70                           180 114 
 ZA   PZ IP       1415 27.19                             128   -0.1510  210  95 
 ZA   PZ  AMB     1415 27.79        17.7 0.60                           210  95 
 LVC  BZ IP       1415 30.53                             123   -0.0410  243 311 
 YAVI PZ IP       1415 33.10                             120    0.0810  266  39 
 YAVI PZ  AML     1416  9.13         3.8 0.60                           266  39 
 SB   PZ IP       1415 33.03                             120    0.0810  269  88 
 SB   PZ IP       1415 33.03                                            269  88 
 SB   PZ IS       1416  5.06                             120   -0.0410  269  88 
 LO   PZ IP       1415 38.29                             114   -0.0410  322  86 
                                                                                
