 2009 12 1 1923 46.7 L -23.967 -65.478  2.7  SJA  3 0.1 0.9LSJA 1.8WSJA        1
 SPEC AVERAGE  MO 11.7 ST0.072 OM  2.0 f0 4.16 R0.3592 AL 7.36 WI  3.1 MW  1.8 3
 SPEC SD       MO  0.4 ST0.030 OM  1.2 f0 1.66 R0.1427 AL      WI      MW  0.2 3
 GAP=262        0.48       3.9     2.6  3.9 -0.5027E+01  0.4557E+01 -0.1205E+02E
 ACTION:UPD 10-01-11 13:44 OP:cr   STATUS:               ID:20091201192346 L   I
 SPEC SLA PC Z MO 12.1 ST0.043 OM  1.0 f0 2.51 R0.5020 AL 4.72 WI  3.4 MW  2.0 3
 SPEC SLA PC Z T192414 K 0.000 GD 83.7 VS 3.60 DE 3.00 Q0440.0 QA 0.70 VS 3.60 3
 SPEC ZA  PC Z MO 11.4 ST0.102 OM  0.5 f0 5.82 R0.2165 AL10.01 WI  2.8 MW  1.5 3
 SPEC ZA  PC Z T1924 3 K 0.000 GD 50.9 VS 3.60 DE 3.00 Q0440.0 QA 0.70 VS 3.60 3
 2009-12-01-1923-15S.JUJ___008                                                 6
 STAT SP IPHASW D HRMM SECON CODA AMPLIT PERI AZIMU VELO AIN AR TRES W  DIS CAZ7
 ZA   PZ IP       1923 57.13                              95    0.2010 50.8 124 
 ZA   PZ ES       1924  4.36                              95   -0.1210 50.8 124 
 ZA   PZ  AML     1924  6.12         9.1 0.75                          50.8 124 
 SLA  PZ IP       1924  2.64                              54    0.0010 83.7 182 
 SLA  PZ  AML     1924 18.57         6.1 0.45                          83.7 182 
 LO   PZ IP       1924 13.54                              54   -0.2010  154  84 
 LO   PZ ES       1924 33.85                              54    0.1210  154  84 
                                                                                
 2009 12 1 2041 46.4 L -31.737 -69.563107.3  SJA 10 0.5 1.7LSJA 2.3WSJA        1
 SPEC AVERAGE  MO 12.6 ST  8.1 OM  2.2 f0 4.05 R0.3117 AL 4.19 WI  4.7 MW  2.3 3
 SPEC SD       MO  1.5 ST  8.1 OM  1.8 f00.180 R0.0139 AL      WI      MW  1.0 3
 GAP=220        1.23       3.2     7.9  6.7 -0.8806E+01  0.1220E+02 -0.7251E+01E
 ACTION:UPD 10-01-11 13:44 OP:cr   STATUS:               ID:20091201204146 L   I
 SPEC CFAABH Z MO 11.1 ST0.020 OM -0.3 f0 4.23 R0.2979 AL 4.27 WI  5.3 MW  1.3 3
 SPEC CFAABH Z T204226 K 0.000 GD  166 VS 3.60 DE 3.00 Q0440.0 QA 0.70 VS 3.60 3
 SPEC ARCOPC Z MO 14.1 ST 16.2 OM  2.7 f0 3.87 R0.3256 AL 4.12 WI  4.0 MW  3.3 3
 SPEC ARCOPC Z T204229 K 0.000 GD  173 VS 3.60 DE 3.00 Q0440.0 QA 0.70 VS 3.60 3
 2009-12-01-2041-08S.NCU___028                                                 6
 STAT SP IPHASW D HRMM SECON CODA AMPLIT PERI AZIMU VELO AIN AR TRES W  DIS CAZ7
 RTLS PZ IP       2042  2.83                             164   -0.1710 26.2 105 
 RTLS PZ IS       2042 15.53                             164    0.2510 26.2 105 
 RTUM PZ IP       2042  4.18                             148   -0.2710 56.6 163 
 RTUM PZ IS       2042 17.46                             148   -0.3410 56.6 163 
 RTCV PZ IP       2042  6.99                             131   -0.0210 97.8  98 
 RTCV PZ IS       2042 22.48                             131    0.2310 97.8  98 
 RTLL PZ IP       2042  8.04                             126   -0.3910  113  67 
 RTLL PZ IS       2042 24.88                             126    0.1610  113  67 
 SALAGPZ IP       2042  8.76                             125   -0.1310  117 144 
 SALAGPZ ES       2042 26.43                             125    0.9110  117 144 
 CFAA BZ IP       2042  9.21                             122   -0.6410  127  84 
 CFAA BZ ES       2042 26.80                             122   -0.4010  127  84 
 CFAA BZ  AML     2042 29.56         1.2 0.25                           127  84 
 MOGNAPZ IP       2042 10.44                             120   -0.1510  135  49 
 MOGNAPZ IS       2042 27.89                             120   -0.6010  135  49 
 ARCO PZ IP       2042 10.86                             120   -0.0710  136 154 
 ARCO PZ ES       2042 29.63                             120    0.5610  136 154 
 ARCO PZ  AML     2042 30.70        78.9 0.20                           136 154 
 AGRELPZ IP       2042 13.63                             114   -0.3210  165 155 
 AGRELPZ ES       2042 34.41                             114    0.0710  165 155 
 GUANDPZ IP       2042 26.27                             101    0.1810  270  23 
 GUANDPZ ES       2042 56.59                             101    1.1410  270  23 
                                                                                
 2009 12 1 2119 17.3 L -31.491 -68.870 10.2  SJA  9 0.7 1.4LSJA 2.5WSJA        1
 SPEC AVERAGE  MO 12.8 ST0.497 OM  4.0 f0 3.39 R0.3717 AL 2.22 WI  2.0 MW  2.5 3
 SPEC SD       MO  0.0 ST0.000 OM  2.2 f00.000 R0.0000 AL      WI      MW  0.0 3
 GAP=161        1.79       4.7     4.7 11.6 -0.1257E+02 -0.1463E+02  0.2459E+02E
 ACTION:UPD 10-01-11 13:44 OP:cr   STATUS:               ID:20091201211917 L   I
 SPEC CFAABH Z MO 12.8 ST0.497 OM  1.8 f0 3.39 R0.3717 AL 2.22 WI  2.0 MW  2.5 3
 SPEC CFAABH Z T211935 K 0.000 GD 62.7 VS 3.60 DE 3.00 Q0440.0 QA 0.70 VS 3.60 3
 2009-12-01-2118-30S.NCU___028                                                 6
 STAT SP IPHASW D HRMM SECON CODA AMPLIT PERI AZIMU VELO AIN AR TRES W  DIS CAZ7
 RTLL PZ IP       2119 25.47                              54    0.1410 41.7  65 
 RTLL PZ ES       2119 30.81                              54   -0.4410 41.7  65 
 RTCV PZ IP       2119 27.12                              54    0.1710 51.7 143 
 RTCV PZ ES       2119 33.85                              54   -0.2110 51.7 143 
 RTLS PZ IP       2119 27.95                              54    0.2210 52.9 230 
 RTLS PZ ES       2119 34.87                              54   -0.5510 52.9 230 
 CFAA BZ IP       2119 28.36                              54   -0.2310 61.9 102 
 CFAA BZ ES       2119 36.08                              54   -0.8410 61.9 102 
 CFAA BZ  AML     2119 36.22        23.4 0.10                          61.9 102 
 MOGNAPZ IP       2119 30.62                              54    0.6210 70.9  31 
 RTUM PZ IP       2119 34.21                              54   -0.2610 94.8 211 
 RTUM PZ ES       2119 45.64                              54   -1.5110 94.8 211 
 SALAGPZ IP       2119 39.12                              54    0.7910  122 178 
 SALAGPZ ES       2119 53.98                              54    0.1210  122 178 
 AGRELPZ IP       2119 48.35                              54    1.1610  177 179 
 AGRELPZ ES       2120 10.21                              54    0.9310  177 179 
 RTCT PZ IP       2119 47.72                              54   -0.1310  181 119 
                                                                                
 2009 12 1 2210  3.5 L -31.999 -69.536106.1  SJA  8 0.3 0.4LSJA 0.9WSJA        1
 SPEC AVERAGE  MO 10.5 ST0.006 OM  3.1 f0 4.37 R0.2883 AL 4.41 WI  2.4 MW  0.9 3
 SPEC SD       MO  0.0 ST0.000 OM  4.0 f00.000 R0.0000 AL      WI      MW  0.0 3
 GAP=250        0.81       2.9     5.8  4.9 -0.5697E+01 -0.1894E+01 -0.2925E+01E
 ACTION:UPD 10-01-11 13:44 OP:cr   STATUS:               ID:20091201221003 L   I
 SPEC CFAABH Z MO 10.5 ST0.006 OM -0.9 f0 4.37 R0.2883 AL 4.41 WI  2.4 MW  0.9 3
 SPEC CFAABH Z T221044 K 0.000 GD  168 VS 3.60 DE 3.00 Q0440.0 QA 0.70 VS 3.60 3
 2009-12-01-2209-26S.NCU___026                                                 6
 STAT SP IPHASW D HRMM SECON CODA AMPLIT PERI AZIMU VELO AIN AR TRES W  DIS CAZ7
 RTUM PZ IP       2210 19.86                             163   -0.1310 28.7 150 
 RTUM PZ ES       2210 31.90                             163   -0.3010 28.7 150 
 RTLS PZ IP       2210 20.32                             161    0.1910 31.7  46 
 RTLS PZ ES       2210 32.52                             161    0.0710 31.7  46 
 SALAGPZ IP       2210 23.34                             132   -0.2710 93.2 135 
 SALAGPZ ES       2210 38.51                             132    0.0010 93.2 135 
 RTCV PZ IP       2210 23.72                             131   -0.0410 95.4  81 
 RTCV PZ ES       2210 38.95                             131    0.1810 95.4  81 
 ARCO PZ IP       2210 25.09                             127   -0.1210  109 149 
 ARCO PZ ES       2210 41.86                             127    0.5710  109 149 
 RTLL PZ IP       2210 26.72                             122    0.0710  125  54 
 RTLL PZ ES       2210 44.02                             122    0.2310  125  54 
 CFAA BZ IP       2210 26.72                             121   -0.5410  131  71 
 CFAA BZ ES       2210 44.51                             121   -0.3510  131  71 
 CFAA BZ  AML     2210 46.39         0.5 0.25                           131  71 
 MOGNAPZ IP       2210 30.18                             115    0.5610  154  40 
 MOGNAPZ ES       2210 48.87                             115   -0.0910  154  40 
                                                                                
 2009 12 1 2259 10.2 L -24.377 -64.917  0.3  SJA  4 0.2 0.9LSJA 2.2WSJA        1
 SPEC AVERAGE  MO 12.3 ST0.502 OM  2.7 f0 4.77 R0.2643 AL 4.39 WI  1.8 MW  2.2 3
 SPEC SD       MO  0.0 ST0.034 OM  1.7 f00.100 R0.0055 AL      WI      MW  0.0 3
 GAP=180        0.67       3.2     4.1  7.3 -0.7874E+01 -0.2768E+02  0.1456E+02E
 ACTION:UPD 10-01-11 13:44 OP:cr   STATUS:               ID:20091201225910 L   I
 SPEC ZA  PC Z MO 12.3 ST0.468 OM  1.8 f0 4.67 R0.2698 AL 5.24 WI  2.5 MW  2.2 3
 SPEC ZA  PC Z T225917 K 0.000 GD 22.6 VS 3.60 DE 3.00 Q0440.0 QA 0.70 VS 3.60 3
 SPEC SLA PC Z MO 12.3 ST0.535 OM  0.6 f0 4.87 R0.2587 AL 3.55 WI  1.1 MW  2.2 3
 SPEC SLA PC Z T225926 K 0.000 GD 70.7 VP 6.20 DE 3.00 Q0440.0 QA 0.70 VS 3.60 3
 2009-12-01-2258-27S.JUJ___023                                                 6
 STAT SP IPHASW D HRMM SECON CODA AMPLIT PERI AZIMU VELO AIN AR TRES W  DIS CAZ7
 ZA   PZ IP       2259 14.41                              96   -0.3410 22.6 318 
 ZA   PZ ES       2259 18.23                              96    0.1110 22.6 318 
 ZA   PZ  AML     2259 19.17        42.3 0.50                          22.6 318 
 SB   PZ IP       2259 23.31                              54    0.1910 64.6  43 
 SB   PZ ES       2259 32.94                              54    0.2610 64.6  43 
 SLA  PZ IP       2259 24.37                              54    0.0710 70.7 237 
 SLA  PZ  AML     2259 39.52         4.2 0.25                          70.7 237 
 LO   PZ IP       2259 31.18                              54    0.1110  115  57 
 LO   PZ ES       2259 46.11                              54   -0.4010  115  57 
                                                                                
 2009 12 2 0014 23.5 L -31.839 -68.601 13.9  SJA  9 0.4 1.5LSJA 3.1CSJA 3.7WSJA1
 SPEC AVERAGE  MO 14.7 ST503.7 OM  5.0 f0 5.22 R0.2488 AL 4.07 WI  3.6 MW  3.7 3
 SPEC SD       MO  1.1 ST496.2 OM  1.6 f00.885 R0.0422 AL      WI      MW  0.7 3
 GAP= 92        1.06       1.9     2.9  6.0 -0.1237E+01  0.2200E+00  0.5630E+01E
 SPEC CFAABH Z MO 13.6 ST  7.6 OM  2.8 f0 4.33 R0.2910 AL 2.69 WI  3.4 MW  3.0 3
 SPEC CFAABH Z T 01436 K 0.020 GD 45.8 VS 3.60 DE 3.00 Q0 75.0 QA 1.03 VS 3.60 3
 SPEC ARCOPC Z MO 15.7 ST999.9 OM  4.5 f0 6.10 R0.2066 AL 5.46 WI  3.8 MW  4.4 3
 SPEC ARCOPC Z T 015 4 K 0.020 GD  115 VS 3.60 DE 3.00 Q0 75.0 QA 1.03 VS 3.60 3
 ACTION:UP  10-01-11 13:44 OP:cr   STATUS:               ID:20091202001339 L   I
 2009-12-02-0013-39S.NCU___029                                                 6
 STAT SP IPHASW D HRMM SECON CODA AMPLIT PERI AZIMU VELO AIN AR TRES W  DIS CAZ7
 CFAA PZ IP        014 32.28                              98    0.4110 43.6  53 
 CFAA PZ IS        014 38.03                              98   -0.0310 43.6  53 
 CFAA BZ  AML      014 38.27        15.0 0.30                          43.6  53 
 RTLL PZ IP        014 34.26                              95    0.1210 57.8  12 
 RTLL PZ IS        014 41.59                              95   -0.4210 57.8  12 
 RTLS PZ IP        014 35.88                              95   -0.1710 66.0 274 
 RTUM PZ IP        014 38.99                              93   -0.2010 85.6 240 
 SALAGPZ IP        014 38.98                              93    0.2210 86.3 195 
 SALAGPZ IS        014 49.85                              93   -0.1810 86.3 195 
 MOGNAPZ IP        014 41.53  107                         93    0.6010  100   6 
 MOGNAPZ IS        014 53.43                              93   -0.3810  100   6 
 ARCO PZ  AML      015  6.59        34.3 0.30                           115 196 
 RTCT PZ IP        014 47.76                              92    0.0810  142 110 
 RTCT PZ IS        015  5.19                              92   -0.3610  142 110 
 VIZCAPZ IP        014 54.80                              53    0.8410  181 177 
 VIZCAPZ IS        015 15.96                              53   -0.5310  181 177 
                                                                                
 2009 12 2 0014 23.4 L -31.818 -68.613 21.9  SJA 12 0.7 2.3LSJA 2.6CSJA        1
 GAP= 95        1.82       2.9     3.8  7.0 -0.3211E+01 -0.2259E+01  0.8530E+01E
 ACTION:UPD 10-01-11 13:44 OP:cr   STATUS:               ID:20091202001423 L   I
 2009-12-02-0013-39S.NCU___029                                                 6
 SPEC ARCOPC Z T 01459 K 0.020 GD    0 VS 3.60 DE 3.00 Q0 75.0 QA 1.03 VS 3.60 3
 2009-12-02-0013-39S.NCU___029                                                 6
 STAT SP IPHASW D HRMM SECON CODA AMPLIT PERI AZIMU VELO AIN AR TRES W  DIS CAZ7
 RTCV PZ EP        014 28.00                             157    0.2710 8.47 125 
 RTCV PZ EP        014 28.00                                           8.47 125 
 INPC PZ  AML      014 36.46       638.1 0.20                          32.5   9 
 CFAA PZ EP        014 32.22                             111    0.2110 43.3  57 
 CFAA PZ ES        014 37.94                             111   -0.4610 43.3  57 
 RTLL PZ IP        014 34.33   86                        106    0.4010 55.8  14 
 RTLL PZ ES        014 41.66                             106   -0.0810 55.8  14 
 RTLS PZ IP        014 35.94   74                        104    0.0310 64.7 272 
 RTLS PZ ES        014 44.42                             104   -0.7710 64.7 272 
 RTLS PZ  AML      014 45.06                                           64.7 272 
 RTUM PZ EP        014 39.14                             100   -0.0810 85.8 238 
 RTUM PZ ES        014 50.37                             100   -0.5710 85.8 238 
 SALAGPZ IP        014 39.16                              99    0.0910 88.2 194 
 SALAGPZ IS        014 49.83                              99   -0.8510 88.2 194 
 MOGNAPZ EP        014 41.25   42                         98    0.6810 98.1   7 
 MOGNAPZ ES        014 53.13                              98   -0.1510 98.1   7 
 ARCO PZ  AML      015  6.58        34.3 0.30                           117 195 
 AGRELPZ EP        014 48.55                              95    0.8610  142 188 
 AGRELPZ ES        015  7.14                              95    1.4610  142 188 
 RTCT PZ EP        014 47.86                              95   -0.0710  144 111 
 RTCT PZ ES        015  5.07                              95   -1.0310  144 111 
 VIZCAPZ EP        014 54.39                              53    1.0410  184 177 
 VIZCAPZ IS        015 14.54                              53   -0.9810  184 177 
 VIZCAPZ ES        015 16.05                                            184 177 
                                                                                
 2009 12 2 0038 10.4 L -31.214 -68.330103.9  SJA 10 0.3 1.6LSJA 3.9WSJA        1
 SPEC AVERAGE  MO 14.9 ST503.1 OM  6.0 f0 4.18 R0.3029 AL 4.12 WI  3.9 MW  3.9 3
 SPEC SD       MO  1.3 ST496.8 OM  2.8 f00.255 R0.0185 AL      WI      MW  0.9 3
 GAP=165        0.77       3.1     3.8  4.5  0.3647E-01  0.1777E+01  0.6921E+01E
 ACTION:UPD 10-01-11 13:44 OP:cr   STATUS:               ID:20091202003736 L   I
 SPEC CFAABH Z MO 13.5 ST  6.3 OM  2.3 f0 4.43 R0.2844 AL 3.60 WI  3.4 MW  3.0 3
 SPEC CFAABH Z T 03837 K 0.020 GD  112 VS 3.60 DE 3.00 Q0 75.0 QA 1.03 VS 3.60 3
 SPEC ARCOPC Z MO 16.2 ST999.9 OM  4.7 f0 3.92 R0.3214 AL 4.65 WI  4.4 MW  4.7 3
 SPEC ARCOPC Z T 039 2 K 0.020 GD  215 VS 3.60 DE 3.00 Q0 75.0 QA 1.03 VS 3.60 3
 2009-12-02-0037-36S.NCU___027                                                 6
 STAT SP IPHASW D HRMM SECON CODA AMPLIT PERI AZIMU VELO AIN AR TRES W  DIS CAZ7
 RTLL PZ IP        038 25.48                             168   -0.1110 18.8 227 
 RTLL PZ ES        038 36.65                             168   -0.2210 18.8 227 
 MOGNAPZ IP        038 26.46                             159    0.4210 34.1 333 
 MOGNAPZ ES        038 37.71                             159    0.0610 34.1 333 
 CFAA BZ IP        038 26.70                             153    0.1010 44.2 168 
 CFAA BZ ES        038 38.84                             153    0.2110 44.2 168 
 CFAA BZ  AML      038 39.16         4.0 0.25                          44.2 168 
 RTCV PZ IP        038 28.59                             139   -0.0710 74.6 195 
 RTCV PZ ES        038 42.09                             139   -0.1210 74.6 195 
 RTLS PZ IP        038 32.55                             125   -0.2210  112 234 
 RTLS PZ ES        038 49.40                             125    0.0310  112 234 
 RTUM PZ IP        038 36.53                             115   -0.1710  150 222 
 RTUM PZ ES        038 55.73                             115   -0.4810  150 222 
 SALAGPZ IP        038 37.27                             113    0.1010  160 197 
 SALAGPZ ES        038 57.69                             113    0.6710  160 197 
 RTCT PZ ES        038 56.53                             113   -0.3610  160 138 
 ARCO PZ  AML      039  6.42        19.6 0.30                           189 197 
 AGRELPZ ES        039  7.74                             105    0.1710  213 193 
                                                                                
 2009 12 2 0038 11.0 L -31.235 -68.384100.2  SJA  7 0.3 2.2CSJA                1
 GAP=178        0.73       3.2     5.4  4.4 -0.4355E+01  0.6647E+01  0.4533E+01E
 ACTION:UPD 10-01-11 13:44 OP:cr   STATUS:               ID:20091202003811 L   I
 2009-12-02-0037-36S.NCU___027                                                 6
 STAT SP IPHASW D HRMM SECON CODA AMPLIT PERI AZIMU VELO AIN AR TRES W  DIS CAZ7
 RTLL PZ IP        038 25.62   28                        171   -0.0310 13.5 220 
 RTLL PZ IS        038 36.74                             171    0.2210 13.5 220 
 MOGNAPZ IP        038 26.37   41                        158    0.1210 34.4 342 
 MOGNAPZ IS        038 37.59                             158    0.0310 34.4 342 
 CFAA PZ IP        038 26.82   42                        153    0.0510 43.3 161 
 CFAA PZ ES        038 37.95                             153   -0.5210 43.3 161 
 RTCV PZ IP        038 28.65                             139   -0.0110 71.1 192 
 RTCV PZ IS        038 42.14                             139    0.3910 71.1 192 
 RTLS PZ IP        038 32.79                             125    0.2110  107 234 
 RTLS PZ IS        038 48.06                             125   -0.5210  107 234 
 RTUM PZ IP        038 36.39   47                        115   -0.1710  145 221 
 RTUM PZ IS        038 55.77                             115    0.2610  145 221 
 SALAGPZ IP        038 37.01   47                        112   -0.1910  156 196 
 SALAGPZ IS        038 56.78                             112    0.1710  156 196 
                                                                                
