 2009 12 2 0246 47.8 L -31.862 -68.285102.6  SJA 11 0.2 2.1LSJA 3.2CSJA 4.6WSJA1
 SPEC AVERAGE  MO 16.1 ST911.3 OM  7.5 f0 4.22 R0.2993 AL 5.16 WI  4.5 MW  4.6 3
 SPEC SD       MO  0.4 ST 88.6 OM  3.1 f00.210 R0.0149 AL      WI      MW  0.3 3
 GAP=104        0.62       2.0     3.4  3.6 -0.1485E+01 -0.2530E+01  0.2966E+01E
 ACTION:UP  10-01-11 13:44 OP:cr   STATUS:               ID:20091202024612 L   I
 SPEC TCA PC Z MO 15.6 ST822.7 OM  3.9 f0 4.43 R0.2844 AL 5.03 WI  4.6 MW  4.4 3
 SPEC TCA PC Z T 248 9 K 0.020 GD  369 VS 3.60 DE 3.00 Q0 75.0 QA 1.03 VS 3.60 3
 SPEC ARCOPC Z MO 16.5 ST999.9 OM  5.1 f0 4.01 R0.3142 AL 5.30 WI  4.4 MW  4.9 3
 SPEC ARCOPC Z T 24728 K 0.020 GD  161 VS 3.60 DE 3.00 Q0 75.0 QA 1.03 VS 3.60 3
 2009-12-02-0246-12S.NCU___029                                                 6
 STAT SP IPHASW D HRMM SECON CODA AMPLIT PERI AZIMU VELO AIN AR TRES W  DIS CAZ7
 RTCV PZ IP        247  3.23   88                        165    0.1910 24.1 270 
 RTCV PZ IS        247 14.33                             165    0.0210 24.1 270 
 CFAA PZ IP        247  3.23                             162    0.0110 29.2  10 
 CFAA PZ IS        247 14.70                             162    0.0710 29.2  10 
 RTLS PZ IP        247  8.69                             130    0.1210 96.0 274 
 RTLS PZ IS        247 23.65                             130   -0.2810 96.0 274 
 SALAGPZ IP        247  8.26                             130    0.3510 96.0 212 
 SALAGPZ IS        247 22.68                             130   -0.1110 96.0 212 
 MOGNAPZ IP        247  8.26  151                        127   -0.3210  104 349 
 RTUM PZ IP        247 10.11                             125    0.0810  111 249 
 RTCT PZ IP        247  9.46   99                        124   -0.0610  113 114 
 ARCO PZ IP        247 10.99                             121    0.1610  125 209 
 ARCO PZ IS        247 27.72                             121   -0.1410  125 209 
 ARCO PZ  AML      247 31.14        45.0 0.25                           125 209 
 AGRELPZ IP        247 13.17                             116    0.2410  145 200 
 AGRELPZ IS        247 31.82                             116    0.3010  145 200 
 VIZCAPZ IP        247 16.66                             109   -0.1710  180 187 
 VIZCAPZ IS        247 37.84                             109   -0.4710  180 187 
 TCA  PZ  AML      248 11.94         2.9 0.64                           355  82 
                                                                                
 2009 12 2 0246 47.7 L -31.860 -68.159 99.4  SJA 10 0.6 2.1LSJA 2.5CSJA        1
 GAP= 95        4.14      14.2    21.9 26.4 -0.9392E+02 -0.1144E+03  0.1317E+03E
 ACTION:UPD 10-01-11 13:44 OP:cr   STATUS:               ID:20091202024647 L   I
 2009-12-02-0246-12S.NCU___029                                                 6
 SPEC ARCOPC Z T 24725 K 0.020 GD    0 VS 3.60 DE 3.00 Q0 75.0 QA 1.03 VS 3.60 3
 2009-12-02-0246-12S.NCU___029                                                 6
 STAT SP IPHASW D HRMM SECON CODA AMPLIT PERI AZIMU VELO AIN AR TRES W  DIS CAZ7
 CFAA PZ IP        247  3.19                             161    0.4610 29.3 346 
 CFAA PZ IS        247 14.51                             161    0.6310 29.3 346 
 RTCV PZ IP        247  3.34                             157    0.3210 36.1 269 
 RTCV PZ IS        247 14.56                             157    0.1810 36.1 269 
 RTLL PZ IP        247  4.90                             141   -0.0110 66.0 333 
 RTCT PZ IP        247  9.62                             126    1.5110  103 117 
 SALAGPZ IP        247  8.52   59                        126    0.3010  103 218 
 SALAGPZ IS        247 23.15                             126   -0.2810  103 218 
 MOGNAPZ IP        247  8.32                             125   -0.1610  107 343 
 RTLS PZ IP        247  8.50   59                        125   -0.8410  108 273 
 RTLS PZ IP        247  8.50   59                                       108 273 
 RTLS PZ IS        247 23.94                             125   -1.4410  108 273 
 ARCO PZ IP        247 11.07   51                        118   -0.1210  131 214 
 ARCO PZ IS        247 28.23                             118   -0.3610  131 214 
 ARCO PZ  AML      247 31.12        44.9 0.25                           131 214 
 AGRELPZ IP        247 13.29   49                        114    0.1210  150 205 
 AGRELPZ IS        247 31.74                             114   -0.3010  150 205 
 TCA  PZ IP   9    247 35.03                              96   -1.07 0  344  81 
 TCA  PZ IS        248  5.22                                   -5.6410  344  81 
 TCA  PZ  AML      248 11.92         2.9 0.64                           344  81 
                                                                                
 2009 12 2 0341 52.7 L -24.128 -64.985 15.7  SJA  5 0.2 0.9LSJA                1
 GAP=211        0.58      10.4     8.2  3.6 -0.8302E+02 -0.6453E+01  0.4853E+01E
 ACTION:UPD 10-01-11 13:44 OP:cr   STATUS:               ID:20091202034152 L   I
 2009-12-02-0341-04S.JUJ___026                                                 6
 SPEC SLA PC Z T 34216 K 0.020 GD    0 VS 3.60 DE 3.00 Q0 75.0 QA 1.03 VS 3.60 3
 2009-12-02-0341-04S.JUJ___026                                                 6
 STAT SP IPHASW D HRMM SECON CODA AMPLIT PERI AZIMU VELO AIN AR TRES W  DIS CAZ7
 ZA   PZ IP        341 56.58                             137   -0.2910 13.5 217 
 ZA   PZ IS        342  0.11                             137    0.1310 13.5 217 
 SB   PZ IP        342  3.29                              98           54.7  69 
 SB   PZ IP        342  3.29                              98    0.3810 54.7  69 
 SLA  PZ IP        342  7.86                              95    0.0110 84.2 219 
 SLA  PZ IS        342 19.11                              95    0.0310 84.2 219 
 SLA  PZ  AML      342 20.11         4.3 0.25                          84.2 219 
 LO   PZ IP        342 11.34                              93   -0.1710  109  72 
 LO   PZ ES        342 25.34                              93   -0.1010  109  72 
 YAVI PZ  AML      342 55.49         1.2 0.40                           223 346 
                                                                                
 2009 12 2 0406 46.8 L -31.611 -69.514107.0  SJA  4 0.0 3.1CSJA                1
 GAP=243        0.27       2.1     2.8  2.5 -0.3885E+01  0.5531E+00 -0.2282E+01E
 ACTION:UPD 10-01-11 13:44 OP:cr   STATUS:               ID:20091202040646 L   I
 2009-12-02-0406-11S.NCU___026                                                 6
 STAT SP IPHASW D HRMM SECON CODA AMPLIT PERI AZIMU VELO AIN AR TRES W  DIS CAZ7
 RTLS PZ IP        4 7  3.45   78                        163   -0.0310 29.3 135 
 RTLS PZ IS        4 7 15.85                             163    0.0410 29.3 135 
 RTUM PZ IP        4 7  5.66                             143   -0.0210 69.0 170 
 RTUM PZ IS        4 7 19.62                             143   -0.0210 69.0 170 
 MOGNAPZ IP        4 7  9.76  133                        123    0.0610  122  53 
 CFAA PZ IP        4 7  9.69                             124    0.0110  122  90 
 CFAA PZ IS        4 7 26.62                             124    0.0110  122  90 
 MOGNAPZ IS        4 7 26.59                             123   -0.0510  122  53 
                                                                                
 2009 12 2 0432  0.2 L -31.813 -69.769107.9  SJA  6 0.1 2.8CSJA                1
 GAP=270        0.37       2.5     3.4  2.8 -0.4320E+01  0.1227E+01 -0.2473E+01E
 ACTION:UPD 10-01-11 13:44 OP:cr   STATUS:               ID:20091202043200 L   I
 2009-12-02-0431-26S.NCU___029                                                 6
 STAT SP IPHASW D HRMM SECON CODA AMPLIT PERI AZIMU VELO AIN AR TRES W  DIS CAZ7
 RTLS PZ IP        432 17.59   63                        154   -0.0910 44.8  88 
 RTLS PZ IS        432 30.68                             154    0.0910 44.8  88 
 RTUM PZ IP        432 18.33                             148   -0.1010 58.1 142 
 RTUM PZ IS        432 31.87                             148   -0.0310 58.1 142 
 RTCV PZ IP        432 22.65                             125    0.0110  116  93 
 RTCV PZ IS        432 39.28                             125    0.0510  116  93 
 SALAGPZ IP        432 23.56   61                        123    0.1810  123 135 
 CFAA PZ IP        432 25.66   89                        118   -0.2010  147  81 
 CFAA PZ IS        432 44.76                             118   -0.0610  147  81 
 MOGNAPZ IP        432 26.81   95                        116    0.1710  155  52 
 MOGNAPZ IS        432 46.16                             116   -0.0110  155  52 
                                                                                
 2009 12 2 0610 50.1 L -33.140 -70.433103.7  SJA 10 0.3 2.7LSJA 3.0CSJA        1
 GAP=294        0.92       4.0     8.6 10.9  0.8510E+01  0.5466E+02  0.3730E+01E
 ACTION:UPD 10-01-11 13:44 OP:cr   STATUS:               ID:20091202061050 L   I
 2009-12-02-0610-34S.NCU___026                                                 6
 STAT SP IPHASW D HRMM SECON CODA AMPLIT PERI AZIMU VELO AIN AR TRES W  DIS CAZ7
 RTUM PZ IP        611 15.22   81                        117   -0.2610  141  44 
 RTUM PZ IS        611 33.52                             117   -0.7310  141  44 
 ARCO PZ  AML      611 36.21        99.8 0.60                           144  77 
 AGRELPZ IP        611 16.26  108                        115    0.4210  150  88 
 AGRELPZ IS        611 34.88                             115    0.0010  150  88 
 SALAGPZ IP        611 17.55   96                        113    0.4610  162  68 
 SALAGPZ IS        611 37.23                             113    0.1810  162  68 
 VIZCAPZ IP        611 19.44                             109   -0.0110  182 102 
 VIZCAPZ IS        611 41.00                             109   -0.1510  182 102 
 RTLS PZ IP        611 20.54   91                        109    0.3710  183  36 
 RTLS PZ IS        611 42.81                             109    0.4010  183  36 
 CFAA PZ IP        611 29.30                              99   -0.1810  268  51 
 CFAA PZ IS        611 58.91                              99    0.3010  268  51 
 RTLL PZ IP        611 29.89                              99   -0.1310  273  43 
 RTLL PZ IS        611 59.51                              99   -0.0410  273  43 
 MOGNAPZ IP        611 33.72                              97   -0.1210  305  37 
 MOGNAPZ IP        611 33.72                              97            305  37 
 RTCT PZ IP        611 35.02                              96   -0.5310  319  73 
                                                                                
 2009 12 2 0918 34.4 L -30.823 -69.057107.7  SJA  9 0.1 4.3LSJA 2.8CSJA        1
 GAP=189        0.40       1.2     2.8  2.7 -0.1222E+01  0.3282E+01 -0.7952E+00E
 ACTION:UPD 10-01-11 13:44 OP:cr   STATUS:               ID:20091202091834 L   I
 2009-12-02-0918-17S.NCU___027                                                 6
 STAT SP IPHASW D HRMM SECON CODA AMPLIT PERI AZIMU VELO AIN AR TRES W  DIS CAZ7
 MOGNAPZ IP        918 51.71   78                        149    0.0410 55.5 104 
 MOGNAPZ IS        919  4.45                             149    0.0210 55.5 104 
 RTLL PZ IS        919  7.16                             138   -0.3410 79.0 135 
 RTLS PZ IP        918 56.91   65                        127   -0.0310  111 192 
 RTLS PZ IS        919 13.73                             127    0.1210  111 192 
 CFAA PZ IP        918 56.82   80                        125   -0.0510  117 138 
 CFAA PZ IS        919 13.66                             125    0.1810  117 138 
 CFAA PZ  AML      919 14.92      4110.0 0.20                           117 138 
 RTCV PZ IP        918 57.77                             123    0.0710  125 157 
 RTCV PZ IS        919 15.06                             123    0.1310  125 157 
 RTUM PZ IP        919  1.68                             115   -0.1910  158 191 
 GUANDPZ IP        919  1.19                             115   -0.0110  158  20 
 GUANDPZ IS        919 21.08                             115    0.0610  158  20 
 RTUM PZ IS        919 22.15                             115   -0.0410  158 191 
 SALAGPZ EP        919  5.72                             109    0.1110  197 174 
 RTCT PZ IP        919 10.38                             104   -0.0910  240 133 
                                                                                
 2009 12 2 0925  1.7 L -31.347 -68.713101.2  SJA  7 0.2 4.1LSJA 3.0CSJA        1
 GAP=157        0.54       2.3     3.5  3.6 -0.3248E+01  0.3692E+01  0.1508E+01E
 ACTION:UPD 10-01-11 13:44 OP:cr   STATUS:               ID:20091202092501 L   I
 2009-12-02-0924-24S.NCU___026                                                 6
 STAT SP IPHASW D HRMM SECON CODA AMPLIT PERI AZIMU VELO AIN AR TRES W  DIS CAZ7
 RTLL PZ IP        925 16.60                             165   -0.1210 22.8  85 
 RTLL PZ IS        925 27.67                             165   -0.1810 22.8  85 
 MOGNAPZ IP        925 18.11   99                        150    0.2110 49.8  25 
 MOGNAPZ IS        925 30.01                             150    0.1110 49.8  25 
 CFAA PZ IP        925 17.95   86                        148   -0.2810 53.8 122 
 CFAA PZ IS        925 30.63                             148    0.1610 53.8 122 
 CFAA PZ  AML      925 31.47      4544.5 0.10                          53.8 122 
 RTCV PZ IP        925 18.52                             145   -0.0810 59.5 164 
 RTCV PZ IS        925 31.10                             145   -0.0210 59.5 164 
 RTLS PZ IP        925 20.24                             138   -0.2210 74.7 228 
 RTLS PZ IS        925 34.63                             138    0.2610 74.7 228 
 RTUM PZ IP        925 24.24                             123   -0.0510  116 213 
 RTUM PZ IS        925 40.81                             123   -0.2110  116 213 
 SALAGPZ IP        925 26.32                             117    0.3210  139 185 
 SALAGPZ IS        925 44.09                             117    0.0910  139 185 
                                                                                
 2009 12 2 0953 18.2 L -31.461 -69.625106.5  SJA  6 0.2 4.1LSJA 2.7CSJA        1
 GAP=257        0.57       3.8     4.7  5.3 -0.1102E+02  0.7446E+01 -0.1040E+02E
 ACTION:UPD 10-01-11 13:44 OP:cr   STATUS:               ID:20091202095318 L   I
 2009-12-02-0952-43S.NCU___026                                                 6
 STAT SP IPHASW D HRMM SECON CODA AMPLIT PERI AZIMU VELO AIN AR TRES W  DIS CAZ7
 RTLS PZ IP        953 35.84   61                        152    0.1610 48.8 140 
 RTLS PZ IS        953 48.71                             152    0.0710 48.8 140 
 RTUM PZ IP        953 38.33                             135   -0.1410 87.6 165 
 RTUM PZ IS        953 53.27                             135   -0.2210 87.6 165 
 RTLL PZ IP        953 39.84                             127   -0.0510  110  83 
 RTLL PZ IS        953 55.87                             127   -0.1010  110  83 
 RTCV PZ IP        953 40.36   54                        126    0.3010  112 114 
 RTCV PZ IS        953 56.61                             126    0.3610  112 114 
 MOGNAPZ IP        953 41.18   87                        123    0.1610  122  62 
 MOGNAPZ IS        953 57.84                             123   -0.0910  122  62 
 CFAA PZ IP        953 41.93   70                        120   -0.2710  133  97 
 CFAA PZ IS        953 59.80                             120   -0.1810  133  97 
 CFAA PZ  AML      954  1.34      2658.5 0.15                           133  97 
                                                                                
 2009 12 2 1215 10.3 L -27.020 -70.729 63.5  SJA 15 0.4 3.8LSJA 3.7CSJA        1
 GAP=244        1.10       3.9     6.3  9.7 -0.8705E+01 -0.2129E+02  0.8240E+01E
 ACTION:UPD 10-01-11 13:44 OP:cr   STATUS:               ID:20091202121510 L   I
 2009-12-02-1215-32S.NCU___030                                                 6
 SPEC ARCOPC Z T121750 K 0.020 GD    0 VS 3.60 DE 3.00 Q0 75.0 QA 1.03 VS 3.60 3
 2009-12-02-1215-32S.NCU___030                                                 6
 STAT SP IPHASW D HRMM SECON CODA AMPLIT PERI AZIMU VELO AIN AR TRES W  DIS CAZ7
 LCO  BN IP       1215 43.23  179                         95   -0.3810  221 179 
 LCO  BN IS       1216  8.07                              95   -0.1810  221 179 
 GUANDPZ EP       1216  0.67                              91    0.7010  351 142 
 GUANDPZ IS       1216 36.77                              91    0.0610  351 142 
 MOGNAPZ IP       1216 16.61                              73    0.1310  486 154 
 MOGNAPZ IS       1217  5.10                              73   -0.3410  486 154 
 CYA  PZ IP       1216 19.15  136                         73   -0.3610  511 109 
 CYA  PZ IS       1217 10.51                              73   -0.2010  511 109 
 CYA  PZ  AML     1217 12.12        37.5 0.50                           511 109 
 RTLL PZ IP       1216 21.49                              73    0.1410  526 156 
 RTLL PZ IP       1216 21.49                                            526 156 
 RTLL PZ IS       1217 13.84                              73   -0.0710  526 156 
 RTLS PZ IP       1216 24.73                              73    0.0310  548 166 
 RTLS PZ IS       1217 19.81                              73    0.0710  548 166 
 CFAA PZ IP       1216 26.11                              73    0.2210  563 155 
 CFAA PZ IS       1217 22.47                              73    0.6610  563 155 
 RTCV PZ IP       1216 27.43                              73   -0.1910  577 159 
 RTUM PZ IP       1216 30.44                              73    0.4610  591 168 
 RTUM PZ IS       1217 29.46                              73    0.5210  591 168 
 SALAGPZ IP       1216 35.71                              73   -0.1010  644 164 
 SALAGPZ IS       1217 38.52                              73   -0.5610  644 164 
 ARCO PZ EP       1216 39.54                              73    0.7210  668 165 
 ARCO PZ  AML     1217 56.74        77.8 0.65                           668 165 
 AGRELPZ EP       1216 41.82                              73   -0.4410  697 165 
 SB   PZ EP       1216 44.63                              73    0.2510  714  63 
 VIZCAPZ EP       1216 47.47                              73   -0.7910  746 164 
 TCA  PZ EP       1216 50.16                              73   -0.3610  765 130 
                                                                                
