 2009 12 1 0340 24.3 L -33.324 -71.691121.1  SJA 13 0.6 2.4LSJA 3.4CSJA 2.6WSJA1
 SPEC AVERAGE  MO 13.0 ST  3.4 OM  1.2 f0 3.42 R0.3716 AL 5.97 WI  3.7 MW  2.6 3
 SPEC SD       MO  1.3 ST  2.4 OM  1.3 f00.326 R0.0337 AL      WI      MW  0.8 3
 GAP=286        1.60       9.3    14.8 27.1  0.5785E+02  0.2420E+03  0.6171E+02E
 ACTION:UPD 10-01-11 13:44 OP:cr   STATUS:               ID:20091201034025 L   I
 SPEC CFAABH Z MO 11.2 ST0.019 OM -0.6 f0 3.87 R0.3256 AL 5.73 WI  4.6 MW  1.4 3
 SPEC CFAABH Z T 342 1 K 0.000 GD  395 VS 3.60 DE 3.00 Q0440.0 QA 0.70 VS 3.60 3
 SPEC ARCOPC Z MO 13.9 ST  5.6 OM  2.3 f0 3.11 R0.4051 AL 4.91 WI  2.7 MW  3.2 3
 SPEC ARCOPC Z T 34125 K 0.000 GD  289 VS 3.60 DE 3.00 Q0440.0 QA 0.70 VS 3.60 3
 SPEC VFERPC Z MO 13.8 ST  4.6 OM  1.9 f0 3.28 R0.3841 AL 7.26 WI  3.8 MW  3.1 3
 SPEC VFERPC Z T 34227 K 0.000 GD  511 VS 3.60 DE 3.00 Q0440.0 QA 0.70 VS 3.60 3
 2009-12-01-0340-09S.NCU___026                                                 6
 STAT SP IPHASW D HRMM SECON CODA AMPLIT PERI AZIMU VELO AIN AR TRES W  DIS CAZ7
 RTUM PZ IP        341  1.70                             107   -0.7110  248  61 
 ARCO PZ IP        341  4.25  125                        106    0.6110  263  79 
 ARCO PZ  AML      341 23.82        29.8 0.50                           263  79 
 AGRELPZ IP        341  4.25                             106    0.0610  268  85 
 SALAGPZ IP        341  5.81                             105    0.3810  279  74 
 SALAGPZ ES        341 35.80                             105   -0.0610  279  74 
 RTLS PZ IP        341  6.24                             105   -0.0810  281  54 
 RTLS PZ ES        341 36.95                             105   -0.4610  281  54 
 RTCV PZ IP        341 12.15                             101   -0.0910  337  62 
 CFAA BZ IP        341 16.30                              99   -0.6810  377  61 
 CFAA BZ ES        341 57.08                              99    1.1210  377  61 
 CFAA BZ  AML      342  0.92         1.4 0.60                           377  61 
 MOGNAPZ IP        341 19.89                              98    0.0910  401  50 
 RTCT PZ IP        341 23.93                              97   -0.2710  438  76 
 LCO  BE IP        341 31.24                              96    0.7910  487  11 
 LCO  BE ES        342 18.70                              96   -0.6910  487  11 
 VFER PZ IP        341 31.34                              96   -0.1010  497  55 
 VFER PZ  AML      342 26.41         9.9 0.35                           497  55 
 GUANDPZ IP        341 35.52                              83    0.9810  523  36 
 TCA  PZ EP        341 55.32                              83   -0.9010  704  74 
                                                                                
 2009 12 1 0358 23.0 L -24.321 -66.926184.7  SJA 11 0.5 2.9LSJA 3.0WSJA        1
 SPEC AVERAGE  MO 13.6 ST  8.3 OM  1.9 f0 3.07 R0.4922 AL 5.56 WI  4.3 MW  3.0 3
 SPEC SD       MO  0.9 ST 13.9 OM  0.9 f0 1.46 R0.2001 AL      WI      MW  0.6 3
 GAP=158        1.10       5.9     5.9 16.4  0.1784E+02  0.2252E+02 -0.1015E+02E
 ACTION:UPD 10-01-11 13:44 OP:cr   STATUS:               ID:20091201035823 L   I
 SPEC ZA  PC Z MO 13.8 ST0.699 OM  2.2 f0 1.73 R0.7283 AL 7.12 WI  3.8 MW  3.1 3
 SPEC ZA  PC Z T 35924 K 0.000 GD  264 VS 3.60 DE 3.00 Q0440.0 QA 0.70 VS 3.60 3
 SPEC VFERPC Z MO 14.6 ST 43.6 OM  2.6 f0 3.60 R0.3500 AL 4.75 WI  7.3 MW  3.7 3
 SPEC VFERPC Z T 4 1 6 K 0.000 GD  727 VS 3.60 DE 3.00 Q0440.0 QA 0.70 VS 3.60 3
 SPEC THA BB Z MO 14.3 ST  8.3 OM  2.6 f0 2.60 R0.4846 AL 6.76 WI  3.5 MW  3.5 3
 SPEC THA BB Z T 35947 K 0.000 GD  366 VS 3.60 DE 3.00 Q0440.0 QA 0.70 VS 3.60 3
 SPEC TCA PC Z MO 13.5 ST0.205 OM  1.4 f0 1.45 R0.8690 AL 4.34 WI  6.1 MW  2.9 3
 SPEC TCA PC Z T 4 127 K 0.000 GD  831 VS 3.60 DE 3.00 Q0440.0 QA 0.70 VS 3.60 3
 SPEC SLA PL Z MO 14.3 ST 11.1 OM  2.8 f0 2.84 R0.4437 AL 5.23 WI  3.5 MW  3.5 3
 SPEC SLA PL Z T 35919 K 0.000 GD  238 VS 3.60 DE 3.00 Q0440.0 QA 0.70 VS 3.60 3
 SPEC FSA PC Z MO 11.6 ST0.254 OM  0.0 f0 6.50 R0.1938 AL 7.08 WI  2.8 MW  1.7 3
 SPEC FSA PC Z T 35930 K 0.000 GD  287 VS 3.60 DE 3.00 Q0440.0 QA 0.70 VS 3.60 3
 SPEC CYA PC Z MO 13.3 ST0.744 OM  1.4 f0 2.63 R0.4791 AL 3.79 WI  3.8 MW  2.8 3
 SPEC CYA PC Z T 4 020 K 0.000 GD  504 VS 3.60 DE 3.00 Q0440.0 QA 0.70 VS 3.60 3
 SPEC CFAABH Z MO 13.4 ST  1.8 OM  1.3 f0 3.24 R0.3889 AL 5.43 WI  4.0 MW  2.9 3
 SPEC CFAABH Z T 4 128 K 0.000 GD  837 VS 3.60 DE 3.00 Q0440.0 QA 0.70 VS 3.60 3
 2009-12-01-0358-04S.JUJ___027                                                 6
 STAT SP IPHASW D HRMM SECON CODA AMPLIT PERI AZIMU VELO AIN AR TRES W  DIS CAZ7
 SLA  PZ  AML      359 21.80       123.0 0.55                           151 107 
 ZA   PZ IP        358 58.22                             129    0.0810  189  87 
 ZA   PZ ES        359 24.26                             129    0.1210  189  87 
 ZA   PZ  AML      359 26.82        28.3 0.70                           189  87 
 FSA  PZ IP        359  2.03                             124    0.8510  220 155 
 FSA  PZ ES        359 28.80                             124   -0.6210  220 155 
 FSA  PZ  AML      359 31.97        29.0 0.80                           220 155 
 SB   PZ IP        359  3.86                             120   -0.2110  252  81 
 LVC  BZ IP        359  6.50                             117   -0.3510  277 313 
 LVC  BZ ES        359 39.48                             117    0.1910  277 313 
 YAVI PZ IP   3    359  6.19                             117   -0.95 2  278  32 
 THA  BZ  AML      359 49.27        29.4 0.90                           316 150 
 CYA  PZ  AML      4 0 22.22         6.0 0.55                           470 166 
 VFER PZ  AML      4 1 11.37        12.5 0.35                           704 184 
 TCA  PZ  AML      4 1 30.19         1.7 0.74                           811 164 
 CFAA BZ  AML      4 1 29.54         2.1 0.50                           817 189 
                                                                                
 2009 12 1 0439 49.6 L -32.408 -68.477122.0  SJA 12 0.4 1.7LSJA 2.9WSJA        1
 SPEC AVERAGE  MO 13.4 ST 60.8 OM  3.0 f0 4.32 R0.2915 AL 3.88 WI  3.1 MW  2.9 3
 SPEC SD       MO  1.3 ST 44.6 OM  0.5 f00.517 R0.0416 AL      WI      MW  0.9 3
 GAP=120        1.22       3.4     4.8  6.0 -0.1528E+01 -0.1080E+02 -0.6005E+01E
 ACTION:UPD 10-01-11 13:44 OP:cr   STATUS:               ID:20091201043949 L   I
 SPEC ARCOPC Z MO 14.8 ST121.4 OM  3.5 f0 4.42 R0.2851 AL 4.62 WI  2.9 MW  3.8 3
 SPEC ARCOPC Z T 44023 K 0.000 GD  137 VS 3.60 DE 3.00 Q0440.0 QA 0.70 VS 3.60 3
 SPEC INPCPC Z MO  0.0 ST0.000 OM  3.6 f0 8.28 R0.1609 AL11.44 WI  2.1 MW  0.0 3
 SPEC INPCPC Z T 43956 K 0.000 GD    0 VS 3.60 DE 3.00 Q0440.0 QA 0.70 VS 3.60 3
 SPEC CFAABH Z MO 12.0 ST0.149 OM  0.6 f0 4.23 R0.2979 AL 3.15 WI  3.3 MW  1.9 3
 SPEC CFAABH Z T 44027 K 0.000 GD  152 VS 3.60 DE 3.00 Q0440.0 QA 0.70 VS 3.60 3
 2009-12-01-0439-13S.NCU___027                                                 6
 STAT SP IPHASW D HRMM SECON CODA AMPLIT PERI AZIMU VELO AIN AR TRES W  DIS CAZ7
 SALAGPZ IP        440  8.26                             160    0.5510 39.2 239 
 SALAGPZ ES        440 21.69                             160    0.6010 39.2 239 
 RTCV PZ IP        440  9.01                             150    0.2410 60.9 354 
 RTCV PZ ES        440 23.10                             150    0.1710 60.9 354 
 ARCO PZ IP        440  9.19                             149    0.0510 64.3 222 
 ARCO PZ  AML      440 25.50        90.2 0.20                          64.3 222 
 AGRELPZ IP        440 10.69                             141    0.4110 82.0 204 
 AGRELPZ ES        440 25.29                             141   -0.2710 82.0 204 
 RTUM PZ IP        440 11.16                             139   -0.2010 88.0 283 
 RTUM PZ ES        440 26.64                             139   -0.7910 88.0 283 
 CFAA BZ IP        440 11.23                             138    0.2210 92.2  15 
 CFAA BZ ES        440 26.95                             138    0.1210 92.2  15 
 CFAA BZ  AML      440 28.17         2.2 0.35                          92.2  15 
 RTLS PZ IP        440 12.37                             135   -0.2110  103 311 
 RTLS PZ ES        440 28.98                             135   -0.5810  103 311 
 RTCT PZ IP        440 14.19                             128    0.5710  122  83 
 RTCT PZ ES        440 30.58                             128   -0.7910  122  83 
 MOGNAPZ IP        440 17.98                             119    0.3410  163 359 
 MOGNAPZ ES        440 38.31                             119   -0.0510  163 359 
 VFER PZ IP        440 23.75                             110    0.1310  217  27 
 VFER PZ ES        440 49.14                             110    0.3810  217  27 
 GUANDPZ IP        440 36.32                             100    0.2410  324 360 
 GUANDPZ ES        441 10.31                             100   -0.1310  324 360 
 TCA  PZ IP        440 42.52                              96   -0.9810  386  73 
                                                                                
 2009 12 1 0604 32.8 L -31.642 -68.705103.2  SJA  9 0.4 1.6LSJA 2.3WSJA        1
 SPEC AVERAGE  MO 12.5 ST  1.7 OM  2.7 f0 4.97 R0.2634 AL 3.96 WI  2.0 MW  2.3 3
 SPEC SD       MO  0.9 ST  1.5 OM  1.7 f00.975 R0.0516 AL      WI      MW  0.6 3
 GAP=122        1.00       3.2     4.3  5.7 -0.4112E+01 -0.6362E+01  0.6659E+00E
 ACTION:UPD 10-01-11 13:44 OP:cr   STATUS:               ID:20091201060432 L   I
 SPEC VFERPC Z MO 13.3 ST  3.1 OM  1.9 f0 4.00 R0.3150 AL 3.97 WI  1.8 MW  2.8 3
 SPEC VFERPC Z T 6 520 K 0.000 GD  191 VS 3.60 DE 3.00 Q0440.0 QA 0.70 VS 3.60 3
 SPEC CFAABH Z MO 11.6 ST0.192 OM  0.4 f0 5.95 R0.2118 AL 3.95 WI  2.2 MW  1.7 3
 SPEC CFAABH Z T 6 5 1 K 0.000 GD  112 VS 3.60 DE 3.00 Q0440.0 QA 0.70 VS 3.60 3
 2009-12-01-0603-52S.NCU___028                                                 6
 STAT SP IPHASW D HRMM SECON CODA AMPLIT PERI AZIMU VELO AIN AR TRES W  DIS CAZ7
 RTCV PZ IP        6 4 48.38                             162    0.1610 29.0 147 
 RTCV PZ ES        6 4 59.70                             162    0.0310 29.0 147 
 RTLL PZ IP        6 4 48.76                             155   -0.0110 41.0  32 
 CFAA BZ IP        6 4 48.75                             153   -0.2310 45.1  85 
 CFAA BZ ES        6 5  1.05                             153    0.0610 45.1  85 
 CFAA BZ  AML      6 5  1.97         5.6 0.25                          45.1  85 
 RTLS PZ IP        6 4 50.48                             146   -0.0510 58.6 253 
 RTLS PZ ES        6 5  3.26                             146   -0.4310 58.6 253 
 MOGNAPZ IP        6 4 51.80                             136    0.3810 80.5  15 
 MOGNAPZ ES        6 5  5.11                             136   -0.1210 80.5  15 
 RTUM PZ IP        6 4 52.68                             132   -0.4110 91.2 225 
 SALAGPZ IP        6 4 54.00                             127    0.1510  106 187 
 SALAGPZ ES        6 5 10.29                             127    0.8310  106 187 
 RTCT PZ IP        6 4 59.55                             113    0.1110  160 116 
 RTCT PZ ES        6 5 18.48                             113   -0.7210  160 116 
 VFER PZ IP        6 4 59.45                             113   -0.2310  161  48 
 VFER PZ ES        6 5 20.11                             113    0.5010  161  48 
 VFER PZ  AML      6 5 21.65        16.0 0.35                           161  48 
                                                                                
 2009 12 1 1131 35.6 L -31.814 -69.067105.0  SJA 10 0.4 2.0LSJA 3.2WSJA        1
 SPEC AVERAGE  MO 13.9 ST 44.5 OM  3.4 f0 3.67 R0.3464 AL 4.04 WI  3.6 MW  3.2 3
 SPEC SD       MO  1.0 ST 53.9 OM  1.3 f00.365 R0.0340 AL      WI      MW  0.7 3
 GAP=115        1.20       3.4     6.7  6.5 -0.1254E+02 -0.9507E+01 -0.7503E-01E
 ACTION:UPD 10-01-11 13:44 OP:cr   STATUS:               ID:20091201113135 L   I
 SPEC VFERPC Z MO 13.9 ST 13.0 OM  2.4 f0 4.14 R0.3043 AL 4.53 WI  3.9 MW  3.2 3
 SPEC VFERPC Z T113228 K 0.000 GD  225 VS 3.60 DE 3.00 Q0440.0 QA 0.70 VS 3.60 3
 SPEC CFAABH Z MO 12.6 ST0.295 OM  1.3 f0 3.25 R0.3877 AL 2.82 WI  2.6 MW  2.3 3
 SPEC CFAABH Z T1132 7 K 0.000 GD  133 VS 3.60 DE 3.00 Q0440.0 QA 0.70 VS 3.60 3
 SPEC ARCOPC Z MO 15.1 ST120.4 OM  3.7 f0 3.63 R0.3471 AL 4.76 WI  4.2 MW  4.0 3
 SPEC ARCOPC Z T113213 K 0.000 GD  155 VS 3.60 DE 3.00 Q0440.0 QA 0.70 VS 3.60 3
 2009-12-01-1130-55S.CAVI__030                                                 6
 STAT SP IPHASW D HRMM SECON CODA AMPLIT PERI AZIMU VELO AIN AR TRES W  DIS CAZ7
 RTLS PZ IP       1131 51.86                             167    0.0210 21.8 274 
 RTLS PZ ES       1132  3.60                             167   -0.2210 21.8 274 
 RTCV PZ IP       1131 52.57                             151    0.2210 50.1  96 
 RTCV PZ ES       1132  4.91                             151    0.1910 50.1  96 
 RTUM PZ IP       1131 53.26                             149   -0.0710 54.6 213 
 RTUM PZ ES       1132  6.04                             149   -0.3710 54.6 213 
 RTLL PZ IP       1131 54.44                             138    0.1210 77.7  46 
 RTLL PZ ES       1132  8.17                             138    0.0310 77.7  46 
 CFAA BZ IP       1131 54.37                             136   -0.3410 82.4  74 
 CFAA BZ ES       1132  8.40                             136   -0.4210 82.4  74 
 CFAA BZ  AML     1132  9.59         6.6 0.15                          82.4  74 
 SALAGPZ IP       1131 55.56                             133    0.2510 89.0 166 
 SALAGPZ ES       1132 10.75                             133    0.8810 89.0 166 
 MOGNAPZ IP       1131 57.71                             126    0.4310  111  30 
 MOGNAPZ ES       1132 13.36                             126    0.0710  111  30 
 ARCO PZ IP       1131 58.19                             125    0.3610  115 174 
 ARCO PZ ES       1132 14.70                             125    0.4610  115 174 
 ARCO PZ  AML     1132 17.19        88.0 0.25                           115 174 
 AGRELPZ ES       1132 17.96                             117   -1.2410  143 171 
 VFER PZ IP       1132  6.62                             107   -0.4010  200  51 
 VFER PZ ES       1132 30.25                             107    0.0210  200  51 
 VFER PZ  AML     1132 30.52        15.4 0.30                           200  51 
                                                                                
 2009 12 1 1316 54.3 L -24.344 -64.911112.6  SJA  4 0.4 0.9LSJA 1.8WSJA        1
 SPEC AVERAGE  MO 11.7 ST0.045 OM  3.9 f0 3.37 R0.3739 AL 4.12 WI 10.7 MW  1.8 3
 SPEC SD       MO  0.0 ST0.000 OM  3.4 f00.000 R0.0000 AL      WI      MW  0.0 3
 GAP=176        1.09      42.4    26.6 17.1 -0.1093E+04 -0.3722E+03  0.6026E+03E
 ACTION:UPD 10-01-11 13:44 OP:cr   STATUS:               ID:20091201131618 L   I
 SPEC ZA  PC Z MO 11.7 ST0.045 OM  0.5 f0 3.37 R0.3739 AL 4.12 WI 10.7 MW  1.8 3
 SPEC ZA  PC Z T131721 K 0.000 GD  114 VS 3.60 DE 3.00 Q0440.0 QA 0.70 VS 3.60 3
 2009-12-01-1316-18S.JUJ___023                                                 6
 STAT SP IPHASW D HRMM SECON CODA AMPLIT PERI AZIMU VELO AIN AR TRES W  DIS CAZ7
 ZA   PZ IP       1317 11.04                             168    0.1510 20.4 310 
 ZA   PZ ES       1317 23.62                             168    0.4510 20.4 310 
 ZA   PZ  AML     1317 24.16         2.9 0.20                          20.4 310 
 SB   PZ IP       1317 12.13                             147   -0.5210 61.5  45 
 SB   PZ ES       1317 25.67                             147   -0.5510 61.5  45 
 SLA  PZ IP       1317 13.40                             142   -0.2610 73.2 235 
 LO   PZ IP       1317 17.16                             128    0.5510  112  59 
 LO   PZ ES       1317 33.28                             128    0.1710  112  59 
                                                                                
 2009 12 1 1633 35.2 L -31.230 -67.901  2.3  SJA 10 0.8 1.4LSJA 2.1WSJA        1
 SPEC AVERAGE  MO 12.2 ST0.819 OM  2.4 f0 3.69 R0.3458 AL 3.76 WI  4.1 MW  2.1 3
 SPEC SD       MO  0.7 ST  1.1 OM  1.5 f00.419 R0.0387 AL      WI      MW  0.4 3
 GAP=110        2.39       6.9     8.4  7.2 -0.2414E+02  0.8468E+01 -0.2918E+01E
 ACTION:UPD 10-01-11 13:44 OP:cr   STATUS:               ID:20091201163335 L   I
 SPEC TCA PC Z MO 12.0 ST0.075 OM  0.6 f0 3.21 R0.3925 AL 3.67 WI  4.0 MW  2.0 3
 SPEC TCA PC Z T1635 4 K 0.000 GD  177 VS 3.60 DE 3.00 Q0440.0 QA 0.70 VS 3.60 3
 SPEC VFERPC Z MO 13.1 ST  2.3 OM  2.1 f0 4.23 R0.2979 AL 4.26 WI  3.0 MW  2.7 3
 SPEC VFERPC Z T163356 K 0.000 GD 76.2 VS 3.60 DE 3.00 Q0440.0 QA 0.70 VS 3.60 3
 SPEC CFAABH Z MO 11.6 ST0.040 OM  0.7 f0 3.63 R0.3471 AL 3.34 WI  5.3 MW  1.7 3
 SPEC CFAABH Z T163350 K 0.000 GD 52.1 VS 3.60 DE 3.00 Q0440.0 QA 0.70 VS 3.60 3
 2009-12-01-1633-06S.NCU___031                                                 6
 STAT SP IPHASW D HRMM SECON CODA AMPLIT PERI AZIMU VELO AIN AR TRES W  DIS CAZ7
 CFAA BZ IP       1633 44.94                              93   -0.6710 52.0 217 
 CFAA BZ ES       1633 52.53                              93   -0.7910 52.0 217 
 CFAA BZ  AML     1633 52.95         8.9 0.25                          52.0 217 
 RTLL PZ IP       1633 46.80                              54    0.4510 55.7 258 
 RTLL PZ ES       1633 56.21                              54    1.6010 55.7 258 
 MOGNAPZ IP   9   1633 49.38                              54    1.60 0 64.9 300 
 MOGNAPZ ES       1633 58.27                                   -0.4410 64.9 300 
 VFER PZ IP       1633 48.43                              54   -1.2310 76.2  34 
 VFER PZ  AML     1633 58.37        25.3 0.20                          76.2  34 
 RTCV PZ IP       1633 52.12                              54   -0.1910 92.7 221 
 RTCV PZ IS       1634  4.55                              54   -0.4310 92.7 221 
 RTLS PZ IP       1634  1.80                              54    0.1810  147 244 
 RTLS PZ ES       1634 20.25                              54   -0.9310  147 244 
 SALAGPZ IP       1634  5.67                              54    0.0810  175 210 
 SALAGPZ ES       1634 28.42                              54    0.3310  175 210 
 RTUM PZ IP   9   1634  6.54                              54   -0.22 0  179 232 
 RTUM PZ ES       1634 28.41                                   -1.5010  179 232 
 AGRELPZ IP       1634 13.66                              40    1.0610  224 203 
 AGRELPZ ES       1634 40.84                              40    0.5410  224 203 
 TCA  PZ IP   9   1634 22.08                              40   -2.29 0  315  93 
 TCA  PZ ES       1634 59.94                                    1.4610  315  93 
 TCA  PZ  AML     1635  6.96         3.1 0.54                           315  93 
                                                                                
