 2009 12 2 1220 11.5 L -31.415 -68.612 98.9  SJA  6 0.2 2.6CSJA                1
 GAP=136        0.68       3.3     4.7  5.0 -0.7382E+01  0.8871E+01 -0.1186E+00E
 ACTION:UPD 10-01-11 13:44 OP:cr   STATUS:               ID:20091202122011 L   I
 2009-12-02-1219-48S.NCU___028                                                 6
 STAT SP IPHASW D HRMM SECON CODA AMPLIT PERI AZIMU VELO AIN AR TRES W  DIS CAZ7
 RTLL PZ IP       1220 26.09   69                        169    0.0310 16.1  54 
 RTLL PZ IS       1220 36.35                             169   -0.5010 16.1  54 
 CFAA PZ IP       1220 27.10   60                        154    0.0510 41.7 120 
 CFAA PZ IS       1220 38.74                             154    0.1710 41.7 120 
 RTCV PZ IP       1220 27.62                             149    0.0810 50.1 172 
 RTCV PZ IS       1220 39.52                             149    0.1010 50.1 172 
 MOGNAPZ IP       1220 27.91                             147    0.2010 53.9  12 
 MOGNAPZ IS       1220 39.71                             147   -0.0210 53.9  12 
 RTLS PZ IP       1220 30.33                             136    0.0310 77.7 237 
 RTLS PZ IS       1220 44.68                             136    0.4410 77.7 237 
 RTUM PZ IP       1220 33.58                             122   -0.3110  116 219 
 RTUM PZ IS       1220 50.21                             122   -0.2710  116 219 
                                                                                
 2009 12 2 1403 26.0 L -31.358 -69.317105.4  SJA  7 0.2 1.7LSJA 2.3CSJA        1
 GAP=236        0.51       3.1     3.8  4.0 -0.6364E+01  0.4604E+01 -0.1249E+01E
 ACTION:UPD 10-01-11 13:44 OP:cr   STATUS:               ID:20091202140326 L   I
 2009-12-02-1403-05S.NCU___028                                                 6
 STAT SP IPHASW D HRMM SECON CODA AMPLIT PERI AZIMU VELO AIN AR TRES W  DIS CAZ7
 RTLS PZ IP       14 3 43.33   50                        152   -0.0310 48.9 178 
 RTLS PZ IS       14 3 56.37                             152    0.1410 48.9 178 
 RTLL PZ IP       14 3 44.74   48                        137   -0.1310 80.2  88 
 RTLL PZ IS       14 3 58.66                             137   -0.2010 80.2  88 
 MOGNAPZ IP       14 3 46.01                             133    0.2610 91.3  60 
 MOGNAPZ IS       14 4  0.35                             133   -0.0410 91.3  60 
 RTCV PZ IP       14 3 46.25                             132    0.3310 92.5 127 
 RTCV PZ IS       14 4  0.75                             132    0.0610 92.5 127 
 RTUM PZ IP       14 3 46.62                             131   -0.3110 96.2 184 
 RTUM PZ IP       14 3 46.62                                           96.2 184 
 CFAA PZ IP       14 3 47.14                             127   -0.1010  107 105 
 CFAA PZ IS       14 4  2.98                             127    0.0010  107 105 
 ARCO PZ IP       14 3 53.90                             112    0.0210  168 168 
 ARCO PZ  AML     14 4 17.22         7.3 0.30                           168 168 
                                                                                
 2009 12 2 1606 23.7 L -25.280 -65.624 70.3  SJA  6 0.1 1.8LSJA 2.7CSJA        1
 GAP=170        0.38       1.5     4.1  8.3 -0.4663E+01 -0.1950E+02  0.6130E+01E
 ACTION:UPD 10-01-11 13:44 OP:cr   STATUS:               ID:20091202160623 L   I
 2009-12-02-1605-50S.JUJ___026                                                 6
 SPEC SLA PC Z T16 648 K 0.020 GD    0 VS 3.60 DE 3.00 Q0 75.0 QA 1.03 VS 3.60 3
 SPEC ZA  PC Z MO  0.0 ST0.000 OM  1.4 f0 4.68 R0.2848 AL 5.85 WI  5.0 MW  0.0 3
 SPEC ZA  PC Z T16 7 3 K 0.020 GD    0 VS 3.60 DE 3.00 Q0 75.0 QA 1.03 VS 3.60 3
 2009-12-02-1605-50S.JUJ___026                                                 6
 STAT SP IPHASW D HRMM SECON CODA AMPLIT PERI AZIMU VELO AIN AR TRES W  DIS CAZ7
 SLA  PZ IP       16 6 38.28   77                        131   -0.1010 63.0  11 
 SLA  PZ  AML     16 6 51.69        34.5 0.40                          63.0  11 
 FSA  PZ IP       16 6 42.27                             116    0.0210 98.7 201 
 FSA  PZ  AML     16 7  1.69        16.8 0.40                          98.7 201 
 ZA   PZ IP       16 6 45.91   65                        109    0.1410  130  26 
 ZA   PZ IS       16 7  2.11                             109   -0.0110  130  26 
 ZA   PZ  AML     16 7  4.99        17.8 0.30                           130  26 
 THA  BN IP       16 6 50.25                             103   -0.1110  169 170 
 THA  BN IP       16 6 50.25                                            169 170 
 THA  BN IS       16 7 10.18                             103    0.0810  169 170 
 SB   PZ IP       16 6 52.71                             101   -0.0310  187  38 
 SB   PZ IS       16 7 14.44                             101    0.1910  187  38 
 LO   PZ IS       16 7 23.90                              98   -0.1710  233  46 
                                                                                
 2009 12 2 1648  8.4 L -32.547 -70.505 90.7  SJA  8 0.2 2.7LSJA 2.8CSJA        1
 GAP=296        0.67       3.2     5.7  8.3  0.1610E+01  0.2418E+02 -0.8884E+00E
 ACTION:UPD 10-01-11 13:44 OP:cr   STATUS:               ID:20091202164808 L   I
 2009-12-02-1647-36S.NCU___026                                                 6
 STAT SP IPHASW D HRMM SECON CODA AMPLIT PERI AZIMU VELO AIN AR TRES W  DIS CAZ7
 RTUM PZ IP       1648 29.58                             120   -0.2510  111  71 
 RTUM PZ IS       1648 45.43                             120   -0.2410  111  71 
 RTLS PZ IP       1648 33.20                             112    0.0710  141  54 
 RTLS PZ IS       1648 51.66                             112    0.2410  141  54 
 ARCO PZ IP       1648 33.83                             109    0.1110  151 103 
 ARCO PZ IS       1648 52.76                             109    0.3110  151 103 
 ARCO PZ  AML     1648 55.36        87.1 0.45                           151 103 
 SALAGPZ IP       1648 34.78                             108    0.4610  157  92 
 SALAGPZ IS       1648 53.47                             108   -0.0110  157  92 
 AGRELPZ IP       1648 35.65                             106    0.0210  168 111 
 AGRELPZ IS       1648 55.45                             106   -0.3310  168 111 
 RTCV PZ IP       1648 39.28                             101   -0.0910  200  68 
 RTCV PZ IS       1649  2.31                             101    0.0310  200  68 
 CFAA PZ IP       1648 43.54   68                         97   -0.4710  239  65 
 CFAA PZ IS       1649 10.35                              97    0.0010  239  65 
 MOGNAPZ IP       1648 46.77                              96    0.1310  261  47 
 MOGNAPZ IP       1648 46.77                              96            261  47 
                                                                                
 2009 12 2 1734  0.5 L -31.391 -68.725 97.6  SJA  9 0.3 2.3LSJA 1.9CSJA        1
 GAP=154        0.72       3.4     4.8  4.2 -0.4966E+01  0.5949E+01  0.3162E+01E
 ACTION:UPD 10-01-11 13:44 OP:cr   STATUS:               ID:20091202173400 L   I
 2009-12-02-1733-21S.NCU___029                                                 6
 STAT SP IPHASW D HRMM SECON CODA AMPLIT PERI AZIMU VELO AIN AR TRES W  DIS CAZ7
 RTLL PZ IP       1734 15.08                             164   -0.0510 24.8  74 
 RTLL PZ IS       1734 25.60                             164   -0.4010 24.8  74 
 CFAA PZ IP       1734 16.55   61                        147    0.0110 52.4 117 
 CFAA PZ IS       1734 28.54                             147    0.1010 52.4 117 
 MOGNAPZ IP       1734 16.55   23                        146   -0.0710 54.8  24 
 RTCV PZ IP       1734 17.18   24                        146    0.4710 55.1 161 
 RTCV PZ IS       1734 29.01                             146    0.2710 55.1 161 
 RTLS PZ IP       1734 18.54                             139   -0.0410 70.5 230 
 RTLS PZ IS       1734 32.20                             139    0.2110 70.5 230 
 RTUM PZ IP       1734 22.20                             123   -0.1410  112 214 
 SALAGPZ IP       1734 24.35                             117    0.3110  133 184 
 SALAGPZ IS       1734 40.94                             117   -0.5410  133 184 
 ARCO PZ IP       1734 27.23                             111   -0.0810  162 187 
 ARCO PZ  AML     1734 50.44        30.1 0.35                           162 187 
 AGRELPZ IP       1734 30.21                             106   -0.0510  188 183 
 AGRELPZ IP       1734 30.21                             106            188 183 
                                                                                
 2009 12 2 1850 25.4 L -32.666 -69.717116.2  SJA  8 0.3 2.6LSJA 1.9CSJA        1
 GAP=263        0.96       4.0     8.2  6.2  0.4327E+01  0.1235E+02 -0.4926E+01E
 ACTION:UPD 10-01-11 13:44 OP:cr   STATUS:               ID:20091202185025 L   I
 2009-12-02-1849-51S.NCU___027                                                 6
 STAT SP IPHASW D HRMM SECON CODA AMPLIT PERI AZIMU VELO AIN AR TRES W  DIS CAZ7
 RTUM PZ IP       1850 44.31   35                        150   -0.1010 58.0  33 
 RTUM PZ IS       1850 58.23                             150   -0.2810 58.0  33 
 ARCO PZ IP       1850 45.08   33                        142    0.0010 76.0 105 
 ARCO PZ IS       1851  0.09                             142    0.4110 76.0 105 
 ARCO PZ  AML     1851  2.94       121.1 0.25                          76.0 105 
 SALAGPZ IP       1850 45.85   28                        139    0.3210 83.3  85 
 SALAGPZ IS       1851  0.99                             139    0.5410 83.3  85 
 AGRELPZ IP       1850 46.55                             135    0.0010 95.4 119 
 AGRELPZ IS       1851  1.50                             135   -0.7410 95.4 119 
 RTLS PZ IP       1850 48.22                             133    0.2910  104  23 
 RTLS PZ IS       1851  4.45                             133   -0.1910  104  23 
 RTCV PZ IP       1850 50.79                             122   -0.1410  142  52 
 RTCV PZ IS       1851 10.22                             122    0.3710  142  52 
 CFAA PZ IP       1850 54.96                             114   -0.3310  183  50 
 CFAA PZ IS       1851 17.02                             114   -0.4310  183  50 
 MOGNAPZ IP       1851  0.09                             108    0.2710  224  32 
 MOGNAPZ IP       1851  0.09                             108            224  32 
                                                                                
 2009 12 2 2024 14.9 L -31.924 -70.250 14.3  SJA  7 0.4 2.7LSJA 3.1CSJA        1
 GAP=258        1.00       4.7     6.0  5.8  0.2754E+01  0.1151E+02 -0.1107E+02E
 ACTION:UPD 10-01-11 13:44 OP:cr   STATUS:               ID:20091202202414 L   I
 2009-12-02-2023-36S.NCU___028                                                 6
 STAT SP IPHASW D HRMM SECON CODA AMPLIT PERI AZIMU VELO AIN AR TRES W  DIS CAZ7
 RTUM PZ IP       2024 31.46  108                         93    0.5010 88.1 112 
 RTUM PZ IS       2024 43.26                              93    0.4110 88.1 112 
 RTLS PZ IP       2024 30.94  102                         93   -0.5710 91.3  82 
 RTLS PZ IS       2024 43.98                              93    0.1710 91.3  82 
 SALAGPZ IP       2024 40.98                              92    0.1710  153 119 
 SALAGPZ IS       2024 59.28                              92   -0.7110  153 119 
 ARCO PZ  AML     2025 17.96       119.8 0.10                           160 130 
 AGRELPZ IP       2024 45.80                              53   -0.0610  186 134 
 CFAA PZ IP       2024 47.17   93                         53    0.2410  194  80 
 CFAA PZ IS       2025 10.64                              53    0.0010  194  80 
 GUANDPZ IP       2025  2.74                              53   -0.1310  318  32 
 GUANDPZ IP       2025  2.74                              53            318  32 
                                                                                
 2009 12 2 2024 15.2 L -31.854 -70.192 12.4  SJA  7 0.2 2.7LSJA 3.2CSJA        1
 GAP=255        0.51       2.4     3.0  3.1  0.7322E-01  0.2545E+01 -0.3713E+01E
 ACTION:UPD 10-01-11 13:44 OP:cr   STATUS:               ID:20091202202415 L   I
 2009-12-02-2023-36S.NCU___028                                                 6
 STAT SP IPHASW D HRMM SECON CODA AMPLIT PERI AZIMU VELO AIN AR TRES W  DIS CAZ7
 RTLS PZ IP       2024 30.84                              92    0.0310 85.1  86 
 RTLS PZ IS       2024 42.46                              92    0.1110 85.1  86 
 RTUM PZ IP       2024 31.29                              92    0.2810 86.5 119 
 RTUM PZ IS       2024 42.37                              92   -0.3310 86.5 119 
 ARCO PZ IP       2024 42.63                              91    0.0110  161 133 
 ARCO PZ  AML     2025 17.95       119.8 0.10                           161 133 
 AGRELPZ IP       2024 46.64  109                         53    0.0510  187 137 
 CFAA PZ IP       2024 46.64                              53    0.0510  188  82 
 CFAA PZ IS       2025  9.94                              53    0.1310  188  82 
 CFAA PZ IS       2025  9.94                              53            188  82 
 MOGNAPZ IP       2024 46.64  104                         53   -0.2810  191  58 
 GUANDPZ IP       2025  2.12                              53   -0.0510  309  32 
                                                                                
 2009 12 2 2052 48.5 L -31.847 -69.566110.4  SJA  7 0.1 2.7CSJA                1
 GAP=248        0.36       1.9     2.7  2.4 -0.1868E+01  0.7243E-01 -0.1408E+01E
 ACTION:UPD 10-01-11 13:44 OP:cr   STATUS:               ID:20091202205248 L   I
 2009-12-02-2052-21S.NCU___026                                                 6
 STAT SP IPHASW D HRMM SECON CODA AMPLIT PERI AZIMU VELO AIN AR TRES W  DIS CAZ7
 RTLS PZ IP       2053  5.69   56                        165    0.2210 26.1  78 
 RTLS PZ IS       2053 17.93                             165   -0.0810 26.1  78 
 RTUM PZ IP       2053  6.24   65                        155    0.0110 45.1 158 
 RTUM PZ IS       2053 19.27                             155   -0.0710 45.1 158 
 RTCV PZ IP       2053  9.47                             132    0.1710 97.1  91 
 RTCV PZ IS       2053 24.74                             132    0.0610 97.1  91 
 SALAGPZ IP       2053 10.12   53                        129   -0.1910  108 140 
 SALAGPZ IS       2053 26.53                             129    0.1010  108 140 
 RTLL PZ IP       2053 11.21                             126   -0.1010  118  61 
 RTLL PZ IS       2053 28.17                             126    0.0010  118  61 
 CFAA PZ IP       2053 12.31   75                        123   -0.0810  129  78 
 CFAA PZ IS       2053 30.01                             123   -0.0510  129  78 
 MOGNAPZ IP       2053 13.80   87                        119    0.0210  143  46 
                                                                                
 2009 12 2 2155 49.4 L -31.265 -68.651 87.8  SJA  7 0.1 2.5CSJA                1
 GAP=157        0.39       1.6     2.5  2.6 -0.1135E+01  0.2447E+01  0.1277E+01E
 ACTION:UPD 10-01-11 13:44 OP:cr   STATUS:               ID:20091202215549 L   I
 2009-12-02-2155-27S.NCU___028                                                 6
 STAT SP IPHASW D HRMM SECON CODA AMPLIT PERI AZIMU VELO AIN AR TRES W  DIS CAZ7
 RTLL PZ IP       2156  2.86   58                        166    0.1110 18.2 113 
 RTLL PZ IS       2156 12.53                             166   -0.0710 18.2 113 
 MOGNAPZ IP       2156  3.31   75                        152   -0.2810 39.2  23 
 MOGNAPZ IS       2156 14.12                             152    0.0510 39.2  23 
 CFAA PZ IP       2156  4.65   46                        142   -0.0510 54.7 133 
 CFAA PZ IS       2156 16.11                             142    0.1110 54.7 133 
 RTCV PZ IP       2156  5.84                             136    0.1610 67.0 171 
 RTCV PZ IS       2156 17.64                             136   -0.0610 67.0 171 
 RTLS PZ IP       2156  8.22                             128    0.1910 85.1 226 
 RTLS PZ IS       2156 21.86                             128    0.0610 85.1 226 
 RTUM PZ IP       2156 12.48                             113    0.0710  127 213 
 RTUM PZ IS       2156 29.25                             113   -0.1710  127 213 
 SALAGPZ IP       2156 14.17                             108   -0.0210  148 187 
 SALAGPZ IS       2156 32.43                             108   -0.0910  148 187 
                                                                                
 2009 12 2 2210 60.0 L -31.382 -68.711 93.6  SJA  7 0.1 2.2CSJA                1
 GAP=153        0.43       1.7     2.6  2.9 -0.1792E+01  0.2329E+01  0.9871E+00E
 ACTION:UPD 10-01-11 13:44 OP:cr   STATUS:               ID:20091202221060 L   I
 2009-12-02-2210-21S.NCU___027                                                 6
 STAT SP IPHASW D HRMM SECON CODA AMPLIT PERI AZIMU VELO AIN AR TRES W  DIS CAZ7
 RTLL PZ IP       2211 14.08   52                        164   -0.0410 23.2  75 
 RTLL PZ IS       2211 24.84                             164    0.2410 23.2  75 
 CFAA PZ IP       2211 15.83   39                        146    0.2410 51.6 118 
 CFAA PZ IS       2211 27.20                             146    0.0510 51.6 118 
 MOGNAPZ IP       2211 15.52                             145   -0.1110 53.3  23 
 MOGNAPZ IS       2211 27.05                             145   -0.1710 53.3  23 
 RTCV PZ IP       2211 15.68                             144   -0.1810 55.6 163 
 RTCV PZ IS       2211 27.51                             144   -0.1110 55.6 163 
 RTLS PZ IP       2211 17.92                             136    0.0510 72.3 230 
 RTLS PZ IS       2211 31.08                             136   -0.0510 72.3 230 
 RTUM PZ IP       2211 21.99                             121    0.2310  113 214 
 RTUM PZ IS       2211 37.93                             121    0.0410  113 214 
 SALAGPZ IP       2211 23.40                             114   -0.0510  135 185 
 SALAGPZ IS       2211 40.71                             114   -0.1310  135 185 
                                                                                
