 2009 12 4 1832 44.3 L -31.931 -69.936111.1  SJA  5 0.2 2.3CSJA                1
 GAP=290        0.57       4.9     5.7  5.0 -0.1319E+02  0.6964E+01 -0.1303E+02E
 ACTION:UPD 10-01-11 13:44 OP:cr   STATUS:               ID:20091204183244 L   I
 2009-12-04-1832-29S.NCU___026                                                 6
 STAT SP IPHASW D HRMM SECON CODA AMPLIT PERI AZIMU VELO AIN AR TRES W  DIS CAZ7
 RTUM PZ EP       1833  3.16   43                        147    0.1810 61.2 122 
 RTUM PZ IS       1833 16.78                             147   -0.0610 61.2 122 
 RTLS PZ EP       1833  2.98   37                        147   -0.1110 62.3  77 
 RTLS PZ IS       1833 17.02                             147    0.0010 62.3  77 
 RTCV PZ EP       1833  8.58                             122    0.1010  132  87 
 RTCV PZ IS       1833 26.40                             122    0.0010  132  87 
 CFAA PZ EP       1833 11.53   53                        115   -0.4710  165  78 
 CFAA PZ IP       1833 11.77                             115            165  78 
 CFAA PZ IS       1833 32.71                             115    0.1810  165  78 
 MOGNAPZ EP       1833 13.36   46                        113    0.2810  176  52 
 MOGNAPZ IS       1833 34.31                             113   -0.1010  176  52 
                                                                                
 2009 12 4 1919 39.2 L -31.198 -69.146 98.3  SJA  6 0.2 2.2CSJA                1
 GAP=186        0.47       2.5     3.6  4.3 -0.5822E+01  0.8509E+01 -0.5757E+01E
 ACTION:UPD 10-01-11 13:44 OP:cr   STATUS:               ID:20091204191939 L   I
 2009-12-04-1919-04S.NCU___026                                                 6
 STAT SP IPHASW D HRMM SECON CODA AMPLIT PERI AZIMU VELO AIN AR TRES W  DIS CAZ7
 RTLL PZ IP       1919 56.19   39                        141   -0.0710 65.5 103 
 RTLL PZ IS       1920  9.04                             141    0.1310 65.5 103 
 RTLS PZ IP       1919 57.17   36                        140   -0.0110 68.2 192 
 RTLS PZ IS       1920 10.50                             140    0.0010 68.2 192 
 MOGNAPZ IP       1919 56.76   49                        139    0.3310 68.6  66 
 MOGNAPZ IS       1920  8.94                             139   -0.2610 68.6  66 
 CFAA PZ IP       1919 58.98   45                        128   -0.1010 97.8 118 
 CFAA PZ IS       1920 13.86                             128    0.0410 97.8 118 
 RTUM PZ IP       1920  1.35                             122   -0.2210  116 191 
 RTUM PZ IS       1920 18.27                             122    0.1310  116 191 
 GUANDPZ EP       1920 10.39                             105    0.0410  200  19 
                                                                                
 2009 12 4 1955 46.1 L -31.366 -68.579 99.5  SJA  7 0.1 2.4CSJA                1
 GAP=135        0.41       1.9     2.8  2.7 -0.2197E+01  0.2276E+01  0.8603E+00E
 ACTION:UPD 10-01-11 13:44 OP:cr   STATUS:               ID:20091204195546 L   I
 2009-12-04-1955-06S.NCU___029                                                 6
 STAT SP IPHASW D HRMM SECON CODA AMPLIT PERI AZIMU VELO AIN AR TRES W  DIS CAZ7
 RTLL PZ IP       1956  0.57   45                        173   -0.0510 10.8  68 
 RTLL PZ IS       1956 11.33                             173   -0.0610 10.8  68 
 CFAA PZ IP       1956  1.59   66                        154   -0.1410 42.2 129 
 CFAA PZ IS       1956 13.33                             154    0.0010 42.2 129 
 MOGNAPZ IP       1956  2.10   60                        150    0.1110 48.0  10 
 MOGNAPZ IS       1956 13.84                             150    0.0610 48.0  10 
 RTCV PZ IP       1956  2.42                             147   -0.0910 55.1 176 
 RTCV PZ IS       1956 14.76                             147    0.0710 55.1 176 
 RTLS PZ EP       1956  5.25   43                        134   -0.1710 83.2 235 
 RTLS PZ IS       1956 19.92                             134    0.1710 83.2 235 
 RTUM PZ EP       1956  9.10   52                        121   -0.0510  122 219 
 RTUM PZ IS       1956 26.09                             121   -0.1510  122 219 
 SALAGPZ EP       1956 10.54   51                        117    0.3010  138 190 
                                                                                
 2009 12 4 2002 30.9 L -31.441 -69.392104.1  SJA  7 0.2 2.5CSJA                1
 GAP=238        0.46       2.1     3.2  3.4 -0.3799E+01  0.1592E+01 -0.1199E+01E
 ACTION:UPD 10-01-11 13:44 OP:cr   STATUS:               ID:20091204200230 L   I
 2009-12-04-2001-52S.NCU___029                                                 6
 STAT SP IPHASW D HRMM SECON CODA AMPLIT PERI AZIMU VELO AIN AR TRES W  DIS CAZ7
 RTLS PZ EP       20 2 47.96   45                        156    0.2110 40.7 167 
 RTLS PZ IS       20 3  0.17                             156   -0.0210 40.7 167 
 RTUM PZ EP       20 2 50.90   60                        134   -0.0610 86.9 180 
 RTUM PZ IS       20 3  5.57                             134   -0.2110 86.9 180 
 RTLL PZ IP       20 2 50.32   65                        133   -0.0710 88.1  82 
 RTLL PZ IS       20 3  4.71                             133   -0.0910 88.1  82 
 RTCV PZ EP       20 2 50.93                             131    0.0810 93.3 120 
 RTCV PZ IS       20 3  5.66                             131    0.0610 93.3 120 
 MOGNAPZ IP       20 2 51.70   64                        128    0.0910  102  57 
 MOGNAPZ IS       20 3  7.08                             128    0.1610  102  57 
 CFAA PZ IP       20 2 52.38   55                        125   -0.2210  112 100 
 CFAA PZ IS       20 3  8.50                             125   -0.1310  112 100 
 SALAGPZ IP       20 2 55.24   64                        118   -0.1210  138 158 
 SALAGPZ IS       20 3 13.76                             118    0.3210  138 158 
                                                                                
 2009 12 4 2056  2.4 L -31.172 -70.399 29.3  SJA  8 0.2 3.0CSJA                1
 GAP=264        0.62       3.4    10.1 12.7 -0.2280E+02 -0.1186E+03  0.3111E+02E
 ACTION:UPD 10-01-11 13:44 OP:cr   STATUS:               ID:20091204205602 L   I
 2009-12-04-2055-34S.NCU___028                                                 6
 STAT SP IPHASW D HRMM SECON CODA AMPLIT PERI AZIMU VELO AIN AR TRES W  DIS CAZ7
 RTLS PZ IP       2056 25.35   87                         53    0.5410  126 124 
 RTLS PZ IS       2056 41.38                              53   -0.0210  126 124 
 RTUM PZ IP       2056 27.90   94                         53   -0.1310  151 141 
 RTUM PZ IS       2056 46.99                              53   -0.0110  151 141 
 RTLL PZ EP       2056 31.20   89                         53   -0.4510  184  96 
 MOGNAPZ EP       2056 31.56   96                         53    0.0110  184  82 
 MOGNAPZ IS       2056 53.14                              53    0.0310  184  82 
 RTLL PZ IS       2056 53.20                              53   -0.0910  184  96 
 RTCV PZ EP       2056 32.79                              53    0.0910  192 114 
 RTCV PZ IS       2056 55.38                              53    0.2510  192 114 
 CFAA PZ EP       2056 34.86                              53   -0.3010  212 104 
 CFAA PZ IS       2056 59.35                              53   -0.0610  212 104 
 SALAGPZ EP       2056 35.70   93                         53   -0.0710  216 137 
 SALAGPZ IS       2057  0.47                              53    0.0010  216 137 
 GUANDPZ EP       2056 41.88   90                         53    0.2210  262  45 
                                                                                
 2009 12 4 2259  4.2 L -31.342 -69.349 94.8  SJA  7 0.1 2.5CSJA                1
 GAP=240        0.40       2.2     2.8  3.2 -0.3966E+01  0.2198E+01 -0.1626E+01E
 ACTION:UPD 10-01-11 13:44 OP:cr   STATUS:               ID:20091204225904 L   I
 2009-12-04-2257-06S.CAVI__029                                                 6
 STAT SP IPHASW D HRMM SECON CODA AMPLIT PERI AZIMU VELO AIN AR TRES W  DIS CAZ7
 RTLS PZ IP       2259 20.91   43                        147    0.2510 50.9 174 
 RTLS PZ IS       2259 32.80                             147   -0.0110 50.9 174 
 RTLL PZ IP       2259 22.40                             132   -0.1110 83.2  89 
 RTLL PZ IS       2259 36.01                             132   -0.0210 83.2  89 
 MOGNAPZ IP       2259 23.41   68                        128    0.0410 93.1  62 
 MOGNAPZ IS       2259 37.54                             128    0.0210 93.1  62 
 RTCV PZ IP       2259 23.60                             127   -0.1110 96.0 127 
 RTCV PZ IS       2259 38.31                             127    0.1910 96.0 127 
 RTUM PZ IP       2259 24.41   48                        126   -0.1610 97.9 182 
 RTUM PZ IS       2259 39.46                             126   -0.1510 97.9 182 
 CFAA PZ IP       2259 25.08   83                        122   -0.0510  110 106 
 CFAA PZ IS       2259 40.51                             122   -0.0810  110 106 
 SALAGPZ IP       2259 29.35                             112    0.1910  147 161 
                                                                                
 2009 12 4 2323 10.6 L -21.668 -66.552216.1  SJA  6 0.2 2.8LSJA                1
 GAP=305        0.63       6.2     8.1  6.9  0.2434E+02  0.3623E+02  0.2073E+02E
 ACTION:UPD 10-01-11 13:44 OP:cr   STATUS:               ID:20091204232310 L   I
 2009-12-04-2323-05S.JUJ___026                                                 6
 SPEC YAVIPC Z T2324 8 K 0.020 GD    0 VS 3.60 DE 3.00 Q0 75.0 QA 1.03 VS 3.60 3
 2009-12-04-2323-05S.JUJ___026                                                 6
 STAT SP IPHASW D HRMM SECON CODA AMPLIT PERI AZIMU VELO AIN AR TRES W  DIS CAZ7
 YAVI PZ IP       2323 43.66                             148    0.2410  121 118 
 YAVI PZ IS       2324  7.56                             148   -0.1710  121 118 
 YAVI PZ  AML     2324 11.30        65.4 0.35                           121 118 
 ZA   PZ IP       2324  0.50                             117   -0.1410  322 152 
 ZA   PZ IS       2324 37.62                             117   -0.0810  322 152 
 SB   PZ IP       2324  1.76                             116    0.3510  330 140 
 SB   PZ IS       2324 39.32                             116    0.2910  330 140 
 SLA  PZ IP       2324  4.26                             114    0.0710  355 163 
 SLA  PZ IP       2324  4.26                                            355 163 
 LO   PZ IP       2324  3.58                             114   -0.3910  356 132 
 LO   PZ IS       2324 43.42                             114   -0.0810  356 132 
 FSA  PZ IP       2324 19.52                             105   -0.1010  496 173 
 FSA  PZ  AML     2324 25.86         6.3 0.65                           496 173 
                                                                                
 2009 12 4 2342 22.4 L -31.451 -68.915 89.3  SJA  7 0.2 2.2CSJA                1
 GAP=172        0.46       1.8     2.7  3.3 -0.1955E+01  0.2124E+01  0.8629E+00E
 ACTION:UPD 10-01-11 13:44 OP:cr   STATUS:               ID:20091204234222 L   I
 2009-12-04-2341-42S.NCU___027                                                 6
 STAT SP IPHASW D HRMM SECON CODA AMPLIT PERI AZIMU VELO AIN AR TRES W  DIS CAZ7
 RTLL PZ IP       2342 36.96   35                        149   -0.0910 44.0  72 
 RTLL PZ IS       2342 48.10                             149    0.1810 44.0  72 
 RTLS PZ IP       2342 38.45                             144    0.0910 52.9 223 
 RTLS PZ IS       2342 50.21                             144    0.0110 52.9 223 
 RTCV PZ IP       2342 38.23                             141    0.2310 57.8 142 
 RTCV PZ IS       2342 49.40                             141   -0.1810 57.8 142 
 CFAA PZ IP       2342 38.54   47                        136   -0.2110 67.0 105 
 CFAA PZ IS       2342 50.94                             136    0.0610 67.0 105 
 MOGNAPZ IP       2342 38.86   49                        135   -0.0310 69.5  36 
 MOGNAPZ IS       2342 51.07                             135   -0.0610 69.5  36 
 RTUM PZ IP       2342 41.97                             124   -0.2110 96.6 207 
 SALAGPZ IP       2342 45.03   35                        114    0.2710  127 177 
 SALAGPZ IS       2343  1.26                             114   -0.0810  127 177 
                                                                                
 2009 12 5 0058 22.7 L -23.784 -66.289152.3  SJA  5 0.1                        1
 GAP=242        0.42       2.2     5.0  4.9  0.3968E+01  0.6628E+01 -0.2729E+01E
 ACTION:UPD 10-01-11 13:44 OP:cr   STATUS:               ID:20091205005822 L   I
 2009-12-05-0057-57S.JUJ___024                                                 6
 STAT SP IPHASW D HRMM SECON CODA AMPLIT PERI AZIMU VELO AIN AR TRES W  DIS CAZ7
 SLA  PZ IS        059 10.69                             135    0.0610  131 143 
 ZA   PZ IP        058 50.28                             134   -0.1410  134 112 
 ZA   PZ IS        059 10.84                             134   -0.0710  134 112 
 SB   PZ IP        058 55.03                             123   -0.0310  185  96 
 SB   PZ IS        059 19.15                             123    0.1610  185  96 
 YAVI PZ IP        058 56.66                             122    0.2410  195  24 
 YAVI PZ IS        059 21.23                             122   -0.1310  195  24 
 LO   PZ IP        059  0.15                             116   -0.0910  236  91 
                                                                                
 2009 12 5 0216 50.4 L -31.731 -72.248 53.7  SJA  7 0.2 3.2CSJA                1
 GAP=330        0.59       6.4     9.4143.6 -0.3119E+02  0.1220E+04 -0.5317E+03E
 ACTION:UPD 10-01-11 13:44 OP:cr   STATUS:               ID:20091205021650 L   I
 2009-12-05-0216-49S.NCU___027                                                 6
 STAT SP IPHASW D HRMM SECON CODA AMPLIT PERI AZIMU VELO AIN AR TRES W  DIS CAZ7
 RTUM PZ IP        217 31.02   79                         93   -0.0410  276 102 
 RTUM PZ IS        218  1.25                              93    0.1210  276 102 
 RTLS PZ IP        217 31.75   92                         93    0.1810  280  92 
 RTLS PZ IS        218  1.85                              93   -0.1810  280  92 
 SALAGPZ IP        217 38.25  106                         93    0.1210  336 107 
 SALAGPZ IS        218 13.30                              93   -0.1510  336 107 
 RTCV PZ IP        217 40.18                              93    0.0910  351  93 
 RTLL PZ IP        217 40.90                              93   -0.4310  361  84 
 RTLL PZ IS        218 19.20                              93    0.1910  361  84 
 MOGNAPZ IP        217 42.47  101                         92    0.3110  368  77 
 MOGNAPZ IS        218 20.28                              92   -0.1710  368  77 
 CFAA PZ IP        217 43.67   97                         92   -0.2210  381  89 
 CFAA PZ IS        218 23.65                              92    0.1810  381  89 
                                                                                
 2009 12 5 0331 50.5 L -31.126 -68.120 28.5  SJA  7 0.1 2.2CSJA                1
 GAP=251        0.38       1.2     2.4  0.9  0.1169E+01  0.4927E-01  0.2457E+00E
 ACTION:UPD 10-01-11 13:44 OP:cr   STATUS:               ID:20091205033150 L   I
 2009-12-05-0331-20S.NCU___028                                                 6
 STAT SP IPHASW D HRMM SECON CODA AMPLIT PERI AZIMU VELO AIN AR TRES W  DIS CAZ7
 RTLL PZ IP        331 59.37   48                        121    0.1410 40.7 236 
 RTLL PZ IS        332  5.85                             121    0.1610 40.7 236 
 MOGNAPZ IP        331 59.19   39                        121   -0.0510 41.1 300 
 MOGNAPZ IS        332  5.67                             121   -0.0210 41.1 300 
 CFAA PZ IP        332  1.05   31                        114   -0.1010 54.0 191 
 CFAA PZ IS        332  8.91                             114   -0.1110 54.0 191 
 RTCV PZ IP        332  6.75   46                        103   -0.0510 90.9 206 
 RTCV PZ IS        332 18.80                             103   -0.0510 90.9 206 
 RTLS PZ IP        332 13.94                              53   -0.1810  134 236 
 RTLS PZ IS        332 31.52                              53   -0.0610  134 236 
 RTUM PZ IP        332 18.80                              53    0.0110  171 224 
 RTUM PZ IS        332 39.61                              53   -0.1010  171 224 
 SALAGPZ IP        332 19.10   54                         53    0.2710  176 202 
 SALAGPZ IS        332 39.91                              53    0.1310  176 202 
                                                                                
 2009 12 5 0416 26.7 L -32.448 -70.986111.7  SJA  6 0.1 3.0CSJA                1
 GAP=334        0.32       5.9     4.3  6.6 -0.1544E+02  0.1465E+02 -0.6734E+01E
 ACTION:UPD 10-01-11 13:44 OP:cr   STATUS:               ID:20091205041626 L   I
 2009-12-05-0414-55S.CAVI__029                                                 6
 STAT SP IPHASW D HRMM SECON CODA AMPLIT PERI AZIMU VELO AIN AR TRES W  DIS CAZ7
 RTUM PZ IP        416 53.64   74                        118   -0.0810  153  81 
 RTLS PZ IP        416 56.24   71                        114    0.0610  175  66 
 RTLS PZ IS        417 18.03                             114    0.0310  175  66 
 RTCV PZ IP        417  3.03                             105    0.1510  240  75 
 RTCV PZ IS        417 29.60                             105   -0.0710  240  75 
 RTLL PZ IP        417  6.13   78                        103   -0.0810  268  63 
 RTLL PZ IS        417 35.39                             103   -0.0710  268  63 
 CFAA PZ IP        417  7.14                             102   -0.0710  276  71 
 CFAA PZ IS        417 37.31                             102    0.1110  276  71 
 MOGNAPZ IP        417  8.73  103                        101    0.0310  290  55 
                                                                                
