 2009 12 4 0901 51.8 L -31.691 -69.643105.7  SJA  8 0.2 2.0LSJA 2.4CSJA        1
 GAP=255        0.59       2.3     4.3  3.9 -0.4751E+01  0.1814E+01 -0.1661E+01E
 ACTION:UPD 10-01-11 13:44 OP:cr   STATUS:               ID:20091204090151 L   I
 2009-12-04-0901-16S.NCU___028                                                 6
 STAT SP IPHASW D HRMM SECON CODA AMPLIT PERI AZIMU VELO AIN AR TRES W  DIS CAZ7
 RTLS PZ IP        9 2  8.39                             159   -0.1210 35.0 110 
 RTLS PZ IP        9 2  8.39                                           35.0 110 
 RTLS PZ IS        9 2 21.10                             159    0.2110 35.0 110 
 RTUM PZ IP        9 2 10.10   46                        144   -0.0410 63.9 158 
 RTUM PZ IS        9 2 23.69                             144   -0.0410 63.9 158 
 RTCV PZ IP        9 2 13.47                             128    0.4310  106 101 
 RTCV PZ IS        9 2 28.67                             128   -0.0910  106 101 
 RTLL PZ IP        9 2 14.09   52                        124   -0.1110  118  70 
 RTLL PZ IS        9 2 30.86                             124    0.0610  118  70 
 SALAGPZ IP        9 2 15.21                             122    0.2010  126 143 
 SALAGPZ IS        9 2 31.98                             122   -0.2310  126 143 
 CFAA PZ IP        9 2 15.68   55                        120   -0.1810  134  86 
 CFAA PZ IS        9 2 34.03                             120    0.3410  134  86 
 MOGNAPZ IP        9 2 16.18                             119    0.0210  138  53 
 MOGNAPZ IS        9 2 33.84                             119   -0.3610  138  53 
 ARCO PZ IP        9 2 17.15                             117    0.1110  144 152 
 ARCO PZ IS        9 2 35.54                             117   -0.1910  144 152 
 ARCO PZ  AML      9 2 39.39        19.5 0.55                           144 152 
                                                                                
 2009 12 4 0928 15.7 L -31.696 -69.487104.1  SJA  7 0.2 2.1CSJA                1
 GAP=238        0.48       2.1     3.4  3.3 -0.3562E+01  0.8064E-01 -0.1691E+01E
 ACTION:UPD 10-01-11 13:44 OP:cr   STATUS:               ID:20091204092815 L   I
 2009-12-04-0927-40S.NCU___027                                                 6
 STAT SP IPHASW D HRMM SECON CODA AMPLIT PERI AZIMU VELO AIN AR TRES W  DIS CAZ7
 RTLS PZ IP        928 31.85   36                        167    0.1010 21.4 122 
 RTLS PZ IS        928 43.68                             167    0.0410 21.4 122 
 RTUM PZ IP        928 33.48   38                        146   -0.1010 59.3 171 
 RTUM PZ IS        928 46.70                             146   -0.1110 59.3 171 
 RTCV PZ IP        928 35.85                             132    0.3910 91.6 102 
 RTCV PZ IS        928 50.17                             132    0.0810 91.6 102 
 RTLL PZ IP        928 36.47                             127   -0.1910  104  67 
 RTLL PZ IS        928 52.05                             127   -0.1310  104  67 
 SALAGPZ IP        928 38.02                             124    0.1010  117 148 
 SALAGPZ IS        928 54.34                             124   -0.0310  117 148 
 CFAA PZ IP        928 37.82                             123   -0.3310  119  85 
 CFAA PZ IS        928 54.79                             123    0.0210  119  85 
 MOGNAPZ IP        928 38.88   43                        121    0.0810  126  49 
 MOGNAPZ IS        928 55.97                             121    0.0710  126  49 
                                                                                
 2009 12 4 0945 28.5 L -33.081 -67.570 13.4  SJA 10 0.3 2.2LSJA 2.8CSJA        1
 GAP=247        0.80       3.0     3.4  3.6 -0.6162E+01 -0.1031E+01  0.3662E+00E
 ACTION:UPD 10-01-11 13:44 OP:cr   STATUS:               ID:20091204094528 L   I
 2009-12-04-0945-07S.NCU___026                                                 6
 STAT SP IPHASW D HRMM SECON CODA AMPLIT PERI AZIMU VELO AIN AR TRES W  DIS CAZ7
 RTCT PZ IP        945 45.05                              92   -0.2810 96.3  22 
 RTCT PZ IS        945 57.83                              92    0.0710 96.3  22 
 AGRELPZ EP        945 48.84                              92    0.0410  117 269 
 AGRELPZ IS        946  3.33                              92   -0.4710  117 269 
 ARCO PZ  AML      946 11.36        49.6 0.50                           130 281 
 SALAGPZ IP        945 51.14                              92    0.3110  130 294 
 ARCO PZ IP        945 51.36   81                         92    0.4610  130 281 
 RTCV PZ IP        945 55.86   66                         91   -0.2410  163 326 
 RTCV PZ IS        946 16.77                              91    0.2710  163 326 
 CFAA PZ IP        945 57.83   84                         91   -0.2610  175 339 
 CFAA PZ IS        946 19.93                              91   -0.0310  175 339 
 RTUM PZ IP        946  1.26                              53   -0.1110  195 299 
 RTLL PZ IP        946  3.54                              53    0.6210  212 336 
 RTLL PZ IS        946 28.18                              53   -0.2010  212 336 
 RTLS PZ IP        946  4.05                              53    0.0110  216 311 
 RTLS PZ IP        946  4.05                              53            216 311 
 MOGNAPZ EP        946  7.89                              53   -0.2010  253 340 
                                                                                
 2009 12 4 1024 34.8 L -31.865 -67.918 10.1  SJA 10 0.2 2.1LSJA 2.6CSJA        1
 GAP=152        0.55       1.2     1.4  2.2  0.4939E+00  0.1044E+00  0.1443E+01E
 ACTION:UPD 10-01-11 13:44 OP:cr   STATUS:               ID:20091204102434 L   I
 2009-12-04-1024-00S.NCU___029                                                 6
 STAT SP IPHASW D HRMM SECON CODA AMPLIT PERI AZIMU VELO AIN AR TRES W  DIS CAZ7
 CFAA PZ EP       1024 42.86   81                         99    0.1210 41.5 314 
 CFAA PZ IS       1024 48.41                              99   -0.2410 41.5 314 
 RTCV PZ IP       1024 45.49   60                         54   -0.0410 58.9 270 
 RTCV PZ IS       1024 53.58                              54    0.0810 58.9 270 
 RTLL PZ EP       1024 48.93                              54    0.0710 79.5 318 
 RTLL PZ IS       1024 59.44                              54    0.1510 79.5 318 
 RTCT PZ EP       1024 49.44                              54    0.0910 82.6 124 
 RTCT PZ IS       1024 59.97                              54   -0.1710 82.6 124 
 MOGNAPZ EP       1024 54.93   64                         54    0.2010  116 332 
 SALAGPZ IP       1024 55.30                              54    0.1810  118 227 
 SALAGPZ IS       1025  9.97                              54   -0.2010  118 227 
 RTLS PZ IP       1024 57.26                              54   -0.4410  131 273 
 RTLS PZ IP       1024 57.26                                            131 273 
 RTUM PZ IP       1024 59.64                              54   -0.2410  144 254 
 ARCO PZ EP       1024 59.58                              54    0.1510  144 221 
 ARCO PZ IS       1025 17.94                              54    0.2710  144 221 
 ARCO PZ  AML     1025 24.08        30.2 0.35                           144 221 
 AGRELPZ EP       1025  1.94                              54    0.0310  160 212 
                                                                                
 2009 12 4 1059 59.3 L -22.103 -68.437106.2  SJA  5 0.2 3.0CSJA                1
 GAP=231        0.53       8.9    11.5 14.2 -0.3962E+02 -0.1561E+03  0.2968E+02E
 ACTION:UPD 10-01-11 13:44 OP:cr   STATUS:               ID:20091204105959 L   I
 2009-12-04-1100-03S.JUJ___024                                                 6
 STAT SP IPHASW D HRMM SECON CODA AMPLIT PERI AZIMU VELO AIN AR TRES W  DIS CAZ7
 LVC  BZ IP       11 0 18.07   81                        140   -0.0210 74.7 221 
 LVC  BZ IS       11 0 32.00                             140    0.0010 74.7 221 
 YAVI PZ EP       11 0 43.29   84                         98    0.1310  302  92 
 SLA  PZ EP       11 0 57.18                              93    0.2610  417 135 
 ZA   PZ IP       11 0 56.83                              93   -0.0610  418 125 
 SB   PZ IP       11 1  0.85   83                         93   -0.3210  454 118 
                                                                                
 2009 12 4 1139 54.9 L -23.694 -64.958 10.0  SJA  5 0.3 1.5LSJA 2.8CSJA        1
 GAP=135        0.75       2.0     2.0  2.3 -0.6739E+00  0.1418E+01 -0.2754E+01E
 ACTION:UPD 10-01-11 13:44 OP:cr   STATUS:               ID:20091204113954 L   I
 2009-12-04-1139-11S.JUJ___023                                                 6
 STAT SP IPHASW D HRMM SECON CODA AMPLIT PERI AZIMU VELO AIN AR TRES W  DIS CAZ7
 SB   PZ IP       1140  6.45   86                        102    0.1410 56.1 120 
 SB   PZ IS       1140 14.35                             102   -0.4410 56.1 120 
 ZA   PZ IP       1140  6.77   83                        101   -0.2910 59.8 190 
 ZA   PZ IS       1140 16.24                             101    0.1510 59.8 190 
 LO   PZ EP       1140 13.26   79                         40    0.2310  102  98 
 LO   PZ IS       1140 26.83                              40    0.3510  102  98 
 SLA  PZ EP       1140 16.61                              40    0.0410  127 206 
 SLA  PZ IS       1140 32.75                              40    0.1110  127 206 
 SLA  PZ  AML     1140 36.54        11.3 0.30                           127 206 
 YAVI PZ EP       1140 22.75                              40   -0.4610  177 341 
 YAVI PZ IS       1140 44.34                              40    0.1510  177 341 
 YAVI PZ IS       1140 44.34                              40            177 341 
                                                                                
 2009 12 4 1210 29.4 L -31.558 -68.221 37.0  SJA  7 0.2 2.5CSJA                1
 GAP=150        0.62       1.6     2.1  1.3  0.6218E+00 -0.2570E+00  0.6619E+00E
 ACTION:UPD 10-01-11 13:44 OP:cr   STATUS:               ID:20091204121029 L   I
 2009-12-04-1209-51S.NCU___028                                                 6
 STAT SP IPHASW D HRMM SECON CODA AMPLIT PERI AZIMU VELO AIN AR TRES W  DIS CAZ7
 CFAA PZ IP       1210 36.08   63                        172    0.0710 5.16 192 
 CFAA PZ IS       1210 40.99                             172    0.1110 5.16 192 
 RTLL PZ IP       1210 38.45   67                        135    0.1610 35.0 316 
 RTLL PZ IS       1210 44.82                             135   -0.0110 35.0 316 
 RTCV PZ EP       1210 39.41   61                        127   -0.1410 45.3 222 
 RTCV PZ IS       1210 46.85                             127   -0.1810 45.3 222 
 MOGNAPZ IP       1210 43.69   55                        114    0.2810 73.2 339 
 MOGNAPZ IS       1210 53.39                             114   -0.3610 73.2 339 
 RTLS PZ IP       1210 48.19                              53   -0.2910  105 255 
 RTLS PZ IS       1211  2.62                              53    0.0410  105 255 
 RTCT PZ EP       1210 50.52                              53    0.0810  126 129 
 RTCT PZ IS       1211  5.79                              53   -0.2010  126 129 
 RTUM PZ IP       1210 52.39                              53    0.4310  133 236 
                                                                                
 2009 12 4 1444 14.7 L -31.199 -68.258105.5  SJA 12 0.1 2.5LSJA 2.8CSJA        1
 GAP=100        0.42       1.4     2.1  1.7 -0.1034E+01 -0.1134E+01  0.4324E+00E
 ACTION:UPD 10-01-11 13:44 OP:cr   STATUS:               ID:20091204144414 L   I
 2009-12-04-1443-43S.NCU___029                                                 6
 SPEC TCA PC Z T144538 K 0.020 GD    0 VS 3.60 DE 3.00 Q0 75.0 QA 1.03 VS 3.60 3
 2009-12-04-1443-43S.NCU___029                                                 6
 STAT SP IPHASW D HRMM SECON CODA AMPLIT PERI AZIMU VELO AIN AR TRES W  DIS CAZ7
 RTLL PZ IP       1444 29.93                             165   -0.3810 25.2 235 
 RTLL PZ IS       1444 41.95                             165    0.0910 25.2 235 
 MOGNAPZ IP       1444 30.77   83                        158    0.1010 36.4 322 
 MOGNAPZ IS       1444 42.56                             158    0.0810 36.4 322 
 CFAA BZ IP       1444 31.30                             154    0.1410 44.8 177 
 CFAA BZ IS       1444 43.21                             154   -0.1310 44.8 177 
 INPC PZ IP       1444 31.37                             153    0.1510 46.4 218 
 INPC PZ IS       1444 43.40                             153   -0.0410 46.4 218 
 INPC PZ  AML     1444 44.74       136.9 0.25                          46.4 218 
 RTCV PZ EP       1444 33.51   73                        138    0.0710 78.2 200 
 RTCV PZ IS       1444 47.36                             138    0.0410 78.2 200 
 RTLS PZ IP       1444 37.77   72                        124   -0.1210  119 236 
 RTLS PZ IS       1444 54.97                             124   -0.0710  119 236 
 RTUM PZ IP       1444 41.57   75                        115   -0.2010  156 223 
 RTUM PZ IS       1445  1.73                             115   -0.0710  156 223 
 RTCT PZ EP       1444 41.15                             115    0.0010  157 140 
 GUANDPZ IP       1444 45.22                             109    0.1010  191 353 
 ARCO PZ IP       1444 45.45                             108    0.0510  193 199 
 ARCO PZ IS       1445  8.28                             108    0.1610  193 199 
 ARCO PZ  AML     1445 10.66        45.4 0.25                           193 199 
 AGRELPZ IP       1444 48.19                             105    0.1910  216 194 
 AGRELPZ IP       1444 48.19                             105            216 194 
 TCA  PZ EP       1445  3.75                              95   -0.1510  350  93 
 TCA  PZ  AML     1445 40.81         8.8 0.28                           350  93 
                                                                                
 2009 12 4 1645 42.6 L -31.216 -68.419104.0  SJA  6 0.1 2.4CSJA                1
 GAP=171        0.32       1.7     2.6  2.2 -0.1474E+01  0.2026E+01  0.5206E+00E
 ACTION:UPD 10-01-11 13:44 OP:cr   STATUS:               ID:20091204164542 L   I
 2009-12-04-1645-24S.NCU___026                                                 6
 STAT SP IPHASW D HRMM SECON CODA AMPLIT PERI AZIMU VELO AIN AR TRES W  DIS CAZ7
 RTLL PZ IP       1645 57.60                             171   -0.1110 13.7 203 
 RTLL PZ IS       1646  8.72                             171   -0.1910 13.7 203 
 MOGNAPZ IP       1645 58.15   60                        161    0.0010 31.4 347 
 MOGNAPZ IS       1646  9.82                             161    0.1410 31.4 347 
 CFAA PZ EP       1645 59.05   57                        152    0.1010 46.5 158 
 CFAA PZ IS       1646 11.12                             152    0.0410 46.5 158 
 RTCV PZ EP       1646  0.74   55                        140    0.0210 72.6 189 
 RTCV PZ IS       1646 14.18                             140    0.0210 72.6 189 
 RTLS PZ EP       1646  4.32   49                        127    0.0010  106 232 
 RTLS PZ IS       1646 20.43                             127    0.0010  106 232 
 RTUM PZ EP       1646  8.21   48                        117   -0.1010  145 219 
 RTUM PZ IS       1646 27.46                             117    0.0910  145 219 
                                                                                
 2009 12 4 1718 28.9 L -31.369 -68.643100.0  SJA  7 0.1 2.3CSJA                1
 GAP=145        0.45       2.2     3.2  3.0 -0.2120E+01  0.3367E+01  0.1202E+01E
 ACTION:UPD 10-01-11 13:44 OP:cr   STATUS:               ID:20091204171828 L   I
 2009-12-04-1717-51S.NCU___027                                                 6
 STAT SP IPHASW D HRMM SECON CODA AMPLIT PERI AZIMU VELO AIN AR TRES W  DIS CAZ7
 RTLL PZ IP       1718 43.57                             169   -0.0810 16.6  75 
 RTLL PZ IS       1718 54.22                             169   -0.3310 16.6  75 
 CFAA PZ IP       1718 44.85   49                        151   -0.0610 46.9 124 
 CFAA PZ IS       1718 56.82                             151    0.0810 46.9 124 
 MOGNAPZ IP       1718 45.28   52                        149    0.2710 49.7  17 
 MOGNAPZ IS       1718 56.97                             149    0.0610 49.7  17 
 RTCV PZ IP       1718 45.39   43                        146   -0.0610 55.5 170 
 RTCV PZ IS       1718 57.90                             146    0.2110 55.5 170 
 RTLS PZ IP       1718 47.83                             136   -0.0610 78.2 232 
 RTLS PZ IS       1719  2.01                             136    0.0810 78.2 232 
 RTUM PZ IP       1718 51.55   45                        122   -0.0910  118 216 
 SALAGPZ EP       1718 52.98                             117   -0.0110  137 188 
                                                                                
 2009 12 4 1802 57.7 L -31.817 -67.828 20.3  SJA 10 0.3 2.6LSJA 2.5CSJA        1
 GAP=114        0.79       1.6     1.8  3.3  0.6267E+00 -0.9691E+00  0.1857E+01E
 ACTION:UPD 10-01-11 13:44 OP:cr   STATUS:               ID:20091204180257 L   I
 2009-12-04-1802-25S.NCU___028                                                 6
 STAT SP IPHASW D HRMM SECON CODA AMPLIT PERI AZIMU VELO AIN AR TRES W  DIS CAZ7
 CFAA PZ EP       18 3  6.78   50                        108    0.3210 45.0 302 
 CFAA PZ IS       18 3 12.88                             108   -0.1010 45.0 302 
 RTCV PZ EP       18 3  9.82   64                        101   -0.1610 67.6 266 
 RTCV PZ IS       18 3 19.30                             101    0.2010 67.6 266 
 RTCT PZ EP       18 3 11.30                              99   -0.4710 78.9 130 
 RTCT PZ IS       18 3 22.52                              99    0.3010 78.9 130 
 RTLL PZ IS       18 3 22.66                              99   -0.4010 81.8 311 
 MOGNAPZ EP       18 3 18.19   57                         96    0.5110  116 327 
 MOGNAPZ IS       18 3 32.67                              96    0.1810  116 327 
 RTLS PZ IP       18 3 21.70   65                         95   -0.3010  139 270 
 RTUM PZ IP       18 3 24.00   69                         94   -0.3810  154 253 
 RTUM PZ IS       18 3 44.18                              94    0.0210  154 253 
 ARCO PZ EP       18 3 24.08                              94    0.1710  154 222 
 ARCO PZ IS       18 3 43.38                              94    0.0310  154 222 
 ARCO PZ  AML     18 3 48.32        95.7 0.50                           154 222 
 AGRELPZ EP       18 3 26.26                              53    0.3510  169 213 
 AGRELPZ IS       18 3 46.78                              53   -0.0510  169 213 
 AGRELPZ IS       18 3 46.78                              53            169 213 
 TCA  PZ EP       18 3 43.99                              53   -0.2110  312  81 
                                                                                
